<?xml version="1.0"?>
<gpx version="1.1" creator="GDAL 2.2.3" xmlns:xsi="http://www.w3.org/2001/XMLSchema-instance" xmlns:ogr="http://osgeo.org/gdal" xmlns="http://www.topografix.com/GPX/1/1" xsi:schemaLocation="http://www.topografix.com/GPX/1/1 http://www.topografix.com/GPX/1/1/gpx.xsd">
<metadata><bounds minlat="52.053269999999998" minlon="-0.862810000000000" maxlat="52.074060000000003" maxlon="-0.790870000000000"/></metadata>                  
<trk>
  <trkseg>
    <trkpt lat="52.05518" lon="-0.80295">
        <ele>87.8</ele>
    </trkpt>
    <trkpt lat="52.05514" lon="-0.80302">
        <ele>87.8</ele>
    </trkpt>
    <trkpt lat="52.05529" lon="-0.80311">
        <ele>87.6</ele>
    </trkpt>
    <trkpt lat="52.05545" lon="-0.8021">
        <ele>88.0</ele>
    </trkpt>
    <trkpt lat="52.05552" lon="-0.80172">
        <ele>86.9</ele>
    </trkpt>
    <trkpt lat="52.0559" lon="-0.80016">
        <ele>80.8</ele>
    </trkpt>
    <trkpt lat="52.05592" lon="-0.80014">
        <ele>80.6</ele>
    </trkpt>
    <trkpt lat="52.05595" lon="-0.80016">
        <ele>80.6</ele>
    </trkpt>
    <trkpt lat="52.05593" lon="-0.80026">
        <ele>81.0</ele>
    </trkpt>
    <trkpt lat="52.05591" lon="-0.80025">
        <ele>81.1</ele>
    </trkpt>
    <trkpt lat="52.05589" lon="-0.80036">
        <ele>81.5</ele>
    </trkpt>
    <trkpt lat="52.05573" lon="-0.80025">
        <ele>82.6</ele>
    </trkpt>
    <trkpt lat="52.05567" lon="-0.80006">
        <ele>83.0</ele>
    </trkpt>
    <trkpt lat="52.05574" lon="-0.79985">
        <ele>83.0</ele>
    </trkpt>
    <trkpt lat="52.05581" lon="-0.79964">
        <ele>82.9</ele>
    </trkpt>
    <trkpt lat="52.05574" lon="-0.79944">
        <ele>82.6</ele>
    </trkpt>
    <trkpt lat="52.05568" lon="-0.79914">
        <ele>82.0</ele>
    </trkpt>
    <trkpt lat="52.05546" lon="-0.79684">
        <ele>74.8</ele>
    </trkpt>
    <trkpt lat="52.0554" lon="-0.79663">
        <ele>74.0</ele>
    </trkpt>
    <trkpt lat="52.05533" lon="-0.79639">
        <ele>73.2</ele>
    </trkpt>
    <trkpt lat="52.05528" lon="-0.79618">
        <ele>72.6</ele>
    </trkpt>
    <trkpt lat="52.05523" lon="-0.79602">
        <ele>72.1</ele>
    </trkpt>
    <trkpt lat="52.0552" lon="-0.79588">
        <ele>71.9</ele>
    </trkpt>
    <trkpt lat="52.05516" lon="-0.79564">
        <ele>71.5</ele>
    </trkpt>
    <trkpt lat="52.05512" lon="-0.79529">
        <ele>70.8</ele>
    </trkpt>
    <trkpt lat="52.05509" lon="-0.79498">
        <ele>69.8</ele>
    </trkpt>
    <trkpt lat="52.0551" lon="-0.79472">
        <ele>69.2</ele>
    </trkpt>
    <trkpt lat="52.05512" lon="-0.79442">
        <ele>68.6</ele>
    </trkpt>
    <trkpt lat="52.05513" lon="-0.7942">
        <ele>68.2</ele>
    </trkpt>
    <trkpt lat="52.05512" lon="-0.79397">
        <ele>68.1</ele>
    </trkpt>
    <trkpt lat="52.05511" lon="-0.79355">
        <ele>69.0</ele>
    </trkpt>
    <trkpt lat="52.05511" lon="-0.79344">
        <ele>69.3</ele>
    </trkpt>
    <trkpt lat="52.05511" lon="-0.79324">
        <ele>69.9</ele>
    </trkpt>
    <trkpt lat="52.05509" lon="-0.79259">
        <ele>70.5</ele>
    </trkpt>
    <trkpt lat="52.05503" lon="-0.79248">
        <ele>70.6</ele>
    </trkpt>
    <trkpt lat="52.05502" lon="-0.79242">
        <ele>70.5</ele>
    </trkpt>
    <trkpt lat="52.05507" lon="-0.7924">
        <ele>70.4</ele>
    </trkpt>
    <trkpt lat="52.05509" lon="-0.79234">
        <ele>70.4</ele>
    </trkpt>
    <trkpt lat="52.05511" lon="-0.79231">
        <ele>70.3</ele>
    </trkpt>
    <trkpt lat="52.05515" lon="-0.79228">
        <ele>70.2</ele>
    </trkpt>
    <trkpt lat="52.0552" lon="-0.79226">
        <ele>70.1</ele>
    </trkpt>
    <trkpt lat="52.05523" lon="-0.79227">
        <ele>70.0</ele>
    </trkpt>
    <trkpt lat="52.05526" lon="-0.79229">
        <ele>69.9</ele>
    </trkpt>
    <trkpt lat="52.05527" lon="-0.79232">
        <ele>69.8</ele>
    </trkpt>
    <trkpt lat="52.0553" lon="-0.79238">
        <ele>69.5</ele>
    </trkpt>
    <trkpt lat="52.05533" lon="-0.79258">
        <ele>68.8</ele>
    </trkpt>
    <trkpt lat="52.05536" lon="-0.7927">
        <ele>68.2</ele>
    </trkpt>
    <trkpt lat="52.05541" lon="-0.79282">
        <ele>67.6</ele>
    </trkpt>
    <trkpt lat="52.05545" lon="-0.79292">
        <ele>67.3</ele>
    </trkpt>
    <trkpt lat="52.05554" lon="-0.79334">
        <ele>67.2</ele>
    </trkpt>
    <trkpt lat="52.05557" lon="-0.79338">
        <ele>67.3</ele>
    </trkpt>
    <trkpt lat="52.05561" lon="-0.79341">
        <ele>67.5</ele>
    </trkpt>
    <trkpt lat="52.05565" lon="-0.79343">
        <ele>67.6</ele>
    </trkpt>
    <trkpt lat="52.05578" lon="-0.79348">
        <ele>68.2</ele>
    </trkpt>
    <trkpt lat="52.05589" lon="-0.79352">
        <ele>68.9</ele>
    </trkpt>
    <trkpt lat="52.05597" lon="-0.79356">
        <ele>69.5</ele>
    </trkpt>
    <trkpt lat="52.05603" lon="-0.79357">
        <ele>69.9</ele>
    </trkpt>
    <trkpt lat="52.05607" lon="-0.79356">
        <ele>69.9</ele>
    </trkpt>
    <trkpt lat="52.05611" lon="-0.79353">
        <ele>70.0</ele>
    </trkpt>
    <trkpt lat="52.05615" lon="-0.79351">
        <ele>70.1</ele>
    </trkpt>
    <trkpt lat="52.05618" lon="-0.79347">
        <ele>70.1</ele>
    </trkpt>
    <trkpt lat="52.0562" lon="-0.79341">
        <ele>69.9</ele>
    </trkpt>
    <trkpt lat="52.05622" lon="-0.7933">
        <ele>69.6</ele>
    </trkpt>
    <trkpt lat="52.05625" lon="-0.79321">
        <ele>69.3</ele>
    </trkpt>
    <trkpt lat="52.05626" lon="-0.79315">
        <ele>69.0</ele>
    </trkpt>
    <trkpt lat="52.0563" lon="-0.7931">
        <ele>68.8</ele>
    </trkpt>
    <trkpt lat="52.05633" lon="-0.79307">
        <ele>68.6</ele>
    </trkpt>
    <trkpt lat="52.05633" lon="-0.79307">
        <ele>68.6</ele>
    </trkpt>
    <trkpt lat="52.05637" lon="-0.79305">
        <ele>68.3</ele>
    </trkpt>
    <trkpt lat="52.05642" lon="-0.79305">
        <ele>68.0</ele>
    </trkpt>
    <trkpt lat="52.0565" lon="-0.79306">
        <ele>67.6</ele>
    </trkpt>
    <trkpt lat="52.05661" lon="-0.79313">
        <ele>67.1</ele>
    </trkpt>
    <trkpt lat="52.05671" lon="-0.79321">
        <ele>66.8</ele>
    </trkpt>
    <trkpt lat="52.05677" lon="-0.79329">
        <ele>66.7</ele>
    </trkpt>
    <trkpt lat="52.05682" lon="-0.79338">
        <ele>66.7</ele>
    </trkpt>
    <trkpt lat="52.05692" lon="-0.79348">
        <ele>67.3</ele>
    </trkpt>
    <trkpt lat="52.05705" lon="-0.79355">
        <ele>68.2</ele>
    </trkpt>
    <trkpt lat="52.0571" lon="-0.79358">
        <ele>68.6</ele>
    </trkpt>
    <trkpt lat="52.05714" lon="-0.79357">
        <ele>68.9</ele>
    </trkpt>
    <trkpt lat="52.05717" lon="-0.79355">
        <ele>69.1</ele>
    </trkpt>
    <trkpt lat="52.05721" lon="-0.79351">
        <ele>69.3</ele>
    </trkpt>
    <trkpt lat="52.05733" lon="-0.79326">
        <ele>70.3</ele>
    </trkpt>
    <trkpt lat="52.05741" lon="-0.79307">
        <ele>71.0</ele>
    </trkpt>
    <trkpt lat="52.05744" lon="-0.79296">
        <ele>71.3</ele>
    </trkpt>
    <trkpt lat="52.05747" lon="-0.79283">
        <ele>71.5</ele>
    </trkpt>
    <trkpt lat="52.0575" lon="-0.79271">
        <ele>71.6</ele>
    </trkpt>
    <trkpt lat="52.0576" lon="-0.79249">
        <ele>71.1</ele>
    </trkpt>
    <trkpt lat="52.05763" lon="-0.79245">
        <ele>71.0</ele>
    </trkpt>
    <trkpt lat="52.05766" lon="-0.79242">
        <ele>70.9</ele>
    </trkpt>
    <trkpt lat="52.0577" lon="-0.79243">
        <ele>70.8</ele>
    </trkpt>
    <trkpt lat="52.05793" lon="-0.79252">
        <ele>70.2</ele>
    </trkpt>
    <trkpt lat="52.05809" lon="-0.79258">
        <ele>69.9</ele>
    </trkpt>
    <trkpt lat="52.05814" lon="-0.79258">
        <ele>69.9</ele>
    </trkpt>
    <trkpt lat="52.05819" lon="-0.79257">
        <ele>70.0</ele>
    </trkpt>
    <trkpt lat="52.05822" lon="-0.79255">
        <ele>70.1</ele>
    </trkpt>
    <trkpt lat="52.05825" lon="-0.79251">
        <ele>70.2</ele>
    </trkpt>
    <trkpt lat="52.05829" lon="-0.79245">
        <ele>70.3</ele>
    </trkpt>
    <trkpt lat="52.0583" lon="-0.79238">
        <ele>70.4</ele>
    </trkpt>
    <trkpt lat="52.05831" lon="-0.7923">
        <ele>70.5</ele>
    </trkpt>
    <trkpt lat="52.05833" lon="-0.79202">
        <ele>71.0</ele>
    </trkpt>
    <trkpt lat="52.05833" lon="-0.79176">
        <ele>71.3</ele>
    </trkpt>
    <trkpt lat="52.05834" lon="-0.79148">
        <ele>71.1</ele>
    </trkpt>
    <trkpt lat="52.05837" lon="-0.79134">
        <ele>70.7</ele>
    </trkpt>
    <trkpt lat="52.0584" lon="-0.79124">
        <ele>70.1</ele>
    </trkpt>
    <trkpt lat="52.05844" lon="-0.79113">
        <ele>69.5</ele>
    </trkpt>
    <trkpt lat="52.05848" lon="-0.79108">
        <ele>69.1</ele>
    </trkpt>
    <trkpt lat="52.05852" lon="-0.79105">
        <ele>68.8</ele>
    </trkpt>
    <trkpt lat="52.05855" lon="-0.79104">
        <ele>68.5</ele>
    </trkpt>
    <trkpt lat="52.05858" lon="-0.79104">
        <ele>68.2</ele>
    </trkpt>
    <trkpt lat="52.05862" lon="-0.79105">
        <ele>68.0</ele>
    </trkpt>
    <trkpt lat="52.05866" lon="-0.79108">
        <ele>67.8</ele>
    </trkpt>
    <trkpt lat="52.05869" lon="-0.79111">
        <ele>67.6</ele>
    </trkpt>
    <trkpt lat="52.05872" lon="-0.79116">
        <ele>67.4</ele>
    </trkpt>
    <trkpt lat="52.05876" lon="-0.79125">
        <ele>67.0</ele>
    </trkpt>
    <trkpt lat="52.05879" lon="-0.79135">
        <ele>66.6</ele>
    </trkpt>
    <trkpt lat="52.05882" lon="-0.79145">
        <ele>66.2</ele>
    </trkpt>
    <trkpt lat="52.05884" lon="-0.79148">
        <ele>66.1</ele>
    </trkpt>
    <trkpt lat="52.05886" lon="-0.79148">
        <ele>65.9</ele>
    </trkpt>
    <trkpt lat="52.05893" lon="-0.79148">
        <ele>65.6</ele>
    </trkpt>
    <trkpt lat="52.05905" lon="-0.79146">
        <ele>65.6</ele>
    </trkpt>
    <trkpt lat="52.05915" lon="-0.79144">
        <ele>65.9</ele>
    </trkpt>
    <trkpt lat="52.05925" lon="-0.79141">
        <ele>67.0</ele>
    </trkpt>
    <trkpt lat="52.05934" lon="-0.79137">
        <ele>68.1</ele>
    </trkpt>
    <trkpt lat="52.05941" lon="-0.79132">
        <ele>69.2</ele>
    </trkpt>
    <trkpt lat="52.05965" lon="-0.79116">
        <ele>72.5</ele>
    </trkpt>
    <trkpt lat="52.05981" lon="-0.79103">
        <ele>74.0</ele>
    </trkpt>
    <trkpt lat="52.05985" lon="-0.791">
        <ele>74.2</ele>
    </trkpt>
    <trkpt lat="52.05996" lon="-0.79096">
        <ele>74.6</ele>
    </trkpt>
    <trkpt lat="52.06006" lon="-0.79088">
        <ele>74.4</ele>
    </trkpt>
    <trkpt lat="52.06017" lon="-0.79087">
        <ele>73.9</ele>
    </trkpt>
    <trkpt lat="52.06038" lon="-0.79097">
        <ele>72.6</ele>
    </trkpt>
    <trkpt lat="52.0607" lon="-0.79129">
        <ele>71.3</ele>
    </trkpt>
    <trkpt lat="52.06085" lon="-0.79149">
        <ele>70.8</ele>
    </trkpt>
    <trkpt lat="52.06095" lon="-0.79166">
        <ele>70.2</ele>
    </trkpt>
    <trkpt lat="52.06101" lon="-0.79176">
        <ele>69.9</ele>
    </trkpt>
    <trkpt lat="52.06107" lon="-0.79185">
        <ele>69.5</ele>
    </trkpt>
    <trkpt lat="52.06115" lon="-0.79198">
        <ele>69.0</ele>
    </trkpt>
    <trkpt lat="52.06131" lon="-0.79225">
        <ele>68.4</ele>
    </trkpt>
    <trkpt lat="52.06136" lon="-0.79242">
        <ele>68.5</ele>
    </trkpt>
    <trkpt lat="52.06136" lon="-0.79269">
        <ele>68.8</ele>
    </trkpt>
    <trkpt lat="52.06129" lon="-0.7928">
        <ele>68.8</ele>
    </trkpt>
    <trkpt lat="52.06126" lon="-0.79282">
        <ele>68.7</ele>
    </trkpt>
    <trkpt lat="52.06123" lon="-0.7928">
        <ele>68.7</ele>
    </trkpt>
    <trkpt lat="52.06119" lon="-0.79277">
        <ele>68.7</ele>
    </trkpt>
    <trkpt lat="52.06117" lon="-0.79275">
        <ele>68.7</ele>
    </trkpt>
    <trkpt lat="52.06119" lon="-0.79268">
        <ele>68.8</ele>
    </trkpt>
    <trkpt lat="52.06125" lon="-0.79254">
        <ele>69.0</ele>
    </trkpt>
    <trkpt lat="52.06165" lon="-0.79151">
        <ele>73.0</ele>
    </trkpt>
    <trkpt lat="52.06168" lon="-0.79145">
        <ele>73.1</ele>
    </trkpt>
    <trkpt lat="52.0617" lon="-0.79138">
        <ele>73.1</ele>
    </trkpt>
    <trkpt lat="52.06161" lon="-0.79131">
        <ele>73.5</ele>
    </trkpt>
    <trkpt lat="52.06142" lon="-0.7911">
        <ele>74.5</ele>
    </trkpt>
    <trkpt lat="52.06131" lon="-0.79099">
        <ele>74.4</ele>
    </trkpt>
    <trkpt lat="52.06121" lon="-0.79091">
        <ele>73.8</ele>
    </trkpt>
    <trkpt lat="52.06121" lon="-0.79091">
        <ele>73.8</ele>
    </trkpt>
    <trkpt lat="52.06113" lon="-0.79089">
        <ele>73.3</ele>
    </trkpt>
    <trkpt lat="52.06105" lon="-0.79092">
        <ele>72.9</ele>
    </trkpt>
    <trkpt lat="52.06102" lon="-0.79096">
        <ele>72.7</ele>
    </trkpt>
    <trkpt lat="52.06114" lon="-0.79109">
        <ele>71.9</ele>
    </trkpt>
    <trkpt lat="52.06135" lon="-0.79138">
        <ele>70.2</ele>
    </trkpt>
    <trkpt lat="52.0615" lon="-0.79162">
        <ele>68.8</ele>
    </trkpt>
    <trkpt lat="52.06156" lon="-0.79174">
        <ele>68.4</ele>
    </trkpt>
    <trkpt lat="52.0618" lon="-0.79224">
        <ele>67.7</ele>
    </trkpt>
    <trkpt lat="52.06189" lon="-0.79249">
        <ele>67.7</ele>
    </trkpt>
    <trkpt lat="52.06205" lon="-0.79307">
        <ele>67.7</ele>
    </trkpt>
    <trkpt lat="52.06233" lon="-0.794">
        <ele>65.3</ele>
    </trkpt>
    <trkpt lat="52.0625" lon="-0.79428">
        <ele>65.7</ele>
    </trkpt>
    <trkpt lat="52.06266" lon="-0.79455">
        <ele>67.0</ele>
    </trkpt>
    <trkpt lat="52.06279" lon="-0.79485">
        <ele>68.3</ele>
    </trkpt>
    <trkpt lat="52.06305" lon="-0.79532">
        <ele>68.6</ele>
    </trkpt>
    <trkpt lat="52.06298" lon="-0.79557">
        <ele>68.4</ele>
    </trkpt>
    <trkpt lat="52.06298" lon="-0.79582">
        <ele>68.2</ele>
    </trkpt>
    <trkpt lat="52.06301" lon="-0.79611">
        <ele>68.1</ele>
    </trkpt>
    <trkpt lat="52.06307" lon="-0.79633">
        <ele>68.5</ele>
    </trkpt>
    <trkpt lat="52.06325" lon="-0.7967">
        <ele>69.0</ele>
    </trkpt>
    <trkpt lat="52.06336" lon="-0.79702">
        <ele>69.0</ele>
    </trkpt>
    <trkpt lat="52.0634" lon="-0.79736">
        <ele>69.1</ele>
    </trkpt>
    <trkpt lat="52.06334" lon="-0.79765">
        <ele>68.7</ele>
    </trkpt>
    <trkpt lat="52.06317" lon="-0.79805">
        <ele>67.7</ele>
    </trkpt>
    <trkpt lat="52.06312" lon="-0.79837">
        <ele>67.1</ele>
    </trkpt>
    <trkpt lat="52.06315" lon="-0.79869">
        <ele>66.3</ele>
    </trkpt>
    <trkpt lat="52.06324" lon="-0.79901">
        <ele>65.7</ele>
    </trkpt>
    <trkpt lat="52.06338" lon="-0.79927">
        <ele>65.4</ele>
    </trkpt>
    <trkpt lat="52.06364" lon="-0.7998">
        <ele>64.9</ele>
    </trkpt>
    <trkpt lat="52.06386" lon="-0.80012">
        <ele>65.3</ele>
    </trkpt>
    <trkpt lat="52.06409" lon="-0.8004">
        <ele>67.5</ele>
    </trkpt>
    <trkpt lat="52.06417" lon="-0.80049">
        <ele>68.1</ele>
    </trkpt>
    <trkpt lat="52.0642" lon="-0.80063">
        <ele>68.6</ele>
    </trkpt>
    <trkpt lat="52.06411" lon="-0.8008">
        <ele>68.4</ele>
    </trkpt>
    <trkpt lat="52.06414" lon="-0.80105">
        <ele>68.1</ele>
    </trkpt>
    <trkpt lat="52.06427" lon="-0.8012">
        <ele>67.9</ele>
    </trkpt>
    <trkpt lat="52.06433" lon="-0.80127">
        <ele>67.9</ele>
    </trkpt>
    <trkpt lat="52.06506" lon="-0.80165">
        <ele>70.9</ele>
    </trkpt>
    <trkpt lat="52.06536" lon="-0.80181">
        <ele>70.8</ele>
    </trkpt>
    <trkpt lat="52.06553" lon="-0.80195">
        <ele>70.2</ele>
    </trkpt>
    <trkpt lat="52.06581" lon="-0.80175">
        <ele>69.4</ele>
    </trkpt>
    <trkpt lat="52.06588" lon="-0.80169">
        <ele>69.4</ele>
    </trkpt>
    <trkpt lat="52.0659" lon="-0.80154">
        <ele>69.4</ele>
    </trkpt>
    <trkpt lat="52.06604" lon="-0.80144">
        <ele>69.1</ele>
    </trkpt>
    <trkpt lat="52.06577" lon="-0.8002">
        <ele>66.5</ele>
    </trkpt>
    <trkpt lat="52.06583" lon="-0.80017">
        <ele>66.4</ele>
    </trkpt>
    <trkpt lat="52.06592" lon="-0.80011">
        <ele>66.3</ele>
    </trkpt>
    <trkpt lat="52.06603" lon="-0.79982">
        <ele>65.8</ele>
    </trkpt>
    <trkpt lat="52.06617" lon="-0.79939">
        <ele>64.6</ele>
    </trkpt>
    <trkpt lat="52.06618" lon="-0.79937">
        <ele>64.5</ele>
    </trkpt>
    <trkpt lat="52.06629" lon="-0.79917">
        <ele>64.1</ele>
    </trkpt>
    <trkpt lat="52.06635" lon="-0.79905">
        <ele>63.9</ele>
    </trkpt>
    <trkpt lat="52.0664" lon="-0.79895">
        <ele>63.7</ele>
    </trkpt>
    <trkpt lat="52.06659" lon="-0.79875">
        <ele>62.9</ele>
    </trkpt>
    <trkpt lat="52.06669" lon="-0.79848">
        <ele>62.4</ele>
    </trkpt>
    <trkpt lat="52.06677" lon="-0.79827">
        <ele>62.4</ele>
    </trkpt>
    <trkpt lat="52.06686" lon="-0.79824">
        <ele>62.5</ele>
    </trkpt>
    <trkpt lat="52.06694" lon="-0.79825">
        <ele>62.6</ele>
    </trkpt>
    <trkpt lat="52.06704" lon="-0.79832">
        <ele>62.6</ele>
    </trkpt>
    <trkpt lat="52.06715" lon="-0.79841">
        <ele>62.4</ele>
    </trkpt>
    <trkpt lat="52.06721" lon="-0.79847">
        <ele>62.1</ele>
    </trkpt>
    <trkpt lat="52.06727" lon="-0.7985">
        <ele>61.9</ele>
    </trkpt>
    <trkpt lat="52.06732" lon="-0.79852">
        <ele>61.6</ele>
    </trkpt>
    <trkpt lat="52.06738" lon="-0.79853">
        <ele>61.4</ele>
    </trkpt>
    <trkpt lat="52.06744" lon="-0.79852">
        <ele>61.2</ele>
    </trkpt>
    <trkpt lat="52.06758" lon="-0.79841">
        <ele>61.2</ele>
    </trkpt>
    <trkpt lat="52.06769" lon="-0.79829">
        <ele>61.5</ele>
    </trkpt>
    <trkpt lat="52.06783" lon="-0.79819">
        <ele>61.7</ele>
    </trkpt>
    <trkpt lat="52.06794" lon="-0.79814">
        <ele>61.7</ele>
    </trkpt>
    <trkpt lat="52.06801" lon="-0.79815">
        <ele>61.7</ele>
    </trkpt>
    <trkpt lat="52.06816" lon="-0.79832">
        <ele>61.7</ele>
    </trkpt>
    <trkpt lat="52.06816" lon="-0.79832">
        <ele>61.7</ele>
    </trkpt>
    <trkpt lat="52.06827" lon="-0.79849">
        <ele>61.4</ele>
    </trkpt>
    <trkpt lat="52.06847" lon="-0.79895">
        <ele>60.6</ele>
    </trkpt>
    <trkpt lat="52.06866" lon="-0.79931">
        <ele>62.2</ele>
    </trkpt>
    <trkpt lat="52.06878" lon="-0.79949">
        <ele>63.2</ele>
    </trkpt>
    <trkpt lat="52.06894" lon="-0.79961">
        <ele>64.2</ele>
    </trkpt>
    <trkpt lat="52.06903" lon="-0.79969">
        <ele>64.6</ele>
    </trkpt>
    <trkpt lat="52.06909" lon="-0.79977">
        <ele>64.9</ele>
    </trkpt>
    <trkpt lat="52.06919" lon="-0.7999">
        <ele>64.8</ele>
    </trkpt>
    <trkpt lat="52.06926" lon="-0.80002">
        <ele>64.5</ele>
    </trkpt>
    <trkpt lat="52.06937" lon="-0.80036">
        <ele>63.4</ele>
    </trkpt>
    <trkpt lat="52.06947" lon="-0.80057">
        <ele>63.2</ele>
    </trkpt>
    <trkpt lat="52.06959" lon="-0.80072">
        <ele>63.2</ele>
    </trkpt>
    <trkpt lat="52.06966" lon="-0.80078">
        <ele>63.1</ele>
    </trkpt>
    <trkpt lat="52.06974" lon="-0.80081">
        <ele>63.1</ele>
    </trkpt>
    <trkpt lat="52.06987" lon="-0.80082">
        <ele>63.0</ele>
    </trkpt>
    <trkpt lat="52.07006" lon="-0.80089">
        <ele>63.0</ele>
    </trkpt>
    <trkpt lat="52.07024" lon="-0.80099">
        <ele>63.0</ele>
    </trkpt>
    <trkpt lat="52.0704" lon="-0.80111">
        <ele>63.0</ele>
    </trkpt>
    <trkpt lat="52.07056" lon="-0.80128">
        <ele>63.0</ele>
    </trkpt>
    <trkpt lat="52.07072" lon="-0.80141">
        <ele>63.0</ele>
    </trkpt>
    <trkpt lat="52.07104" lon="-0.80168">
        <ele>63.0</ele>
    </trkpt>
    <trkpt lat="52.07156" lon="-0.80209">
        <ele>63.0</ele>
    </trkpt>
    <trkpt lat="52.07176" lon="-0.80226">
        <ele>63.1</ele>
    </trkpt>
    <trkpt lat="52.07205" lon="-0.80252">
        <ele>63.7</ele>
    </trkpt>
    <trkpt lat="52.07227" lon="-0.80271">
        <ele>64.3</ele>
    </trkpt>
    <trkpt lat="52.07243" lon="-0.80286">
        <ele>65.0</ele>
    </trkpt>
    <trkpt lat="52.07253" lon="-0.80295">
        <ele>65.4</ele>
    </trkpt>
    <trkpt lat="52.07266" lon="-0.80308">
        <ele>65.8</ele>
    </trkpt>
    <trkpt lat="52.07277" lon="-0.80324">
        <ele>65.6</ele>
    </trkpt>
    <trkpt lat="52.07281" lon="-0.80332">
        <ele>65.4</ele>
    </trkpt>
    <trkpt lat="52.07287" lon="-0.80342">
        <ele>65.0</ele>
    </trkpt>
    <trkpt lat="52.07295" lon="-0.80363">
        <ele>64.4</ele>
    </trkpt>
    <trkpt lat="52.07302" lon="-0.80386">
        <ele>63.9</ele>
    </trkpt>
    <trkpt lat="52.07308" lon="-0.80421">
        <ele>63.5</ele>
    </trkpt>
    <trkpt lat="52.0731" lon="-0.80456">
        <ele>63.5</ele>
    </trkpt>
    <trkpt lat="52.07311" lon="-0.80495">
        <ele>63.7</ele>
    </trkpt>
    <trkpt lat="52.07309" lon="-0.8053">
        <ele>63.9</ele>
    </trkpt>
    <trkpt lat="52.07305" lon="-0.80565">
        <ele>63.7</ele>
    </trkpt>
    <trkpt lat="52.07299" lon="-0.80601">
        <ele>63.3</ele>
    </trkpt>
    <trkpt lat="52.07289" lon="-0.80648">
        <ele>63.4</ele>
    </trkpt>
    <trkpt lat="52.07279" lon="-0.80703">
        <ele>64.0</ele>
    </trkpt>
    <trkpt lat="52.07277" lon="-0.80747">
        <ele>64.6</ele>
    </trkpt>
    <trkpt lat="52.07276" lon="-0.80777">
        <ele>64.8</ele>
    </trkpt>
    <trkpt lat="52.07277" lon="-0.80808">
        <ele>64.7</ele>
    </trkpt>
    <trkpt lat="52.07274" lon="-0.80824">
        <ele>64.6</ele>
    </trkpt>
    <trkpt lat="52.07274" lon="-0.80844">
        <ele>64.4</ele>
    </trkpt>
    <trkpt lat="52.07276" lon="-0.8088">
        <ele>64.4</ele>
    </trkpt>
    <trkpt lat="52.07276" lon="-0.80894">
        <ele>64.6</ele>
    </trkpt>
    <trkpt lat="52.07272" lon="-0.80929">
        <ele>64.9</ele>
    </trkpt>
    <trkpt lat="52.07267" lon="-0.80958">
        <ele>65.2</ele>
    </trkpt>
    <trkpt lat="52.07264" lon="-0.80975">
        <ele>65.5</ele>
    </trkpt>
    <trkpt lat="52.07261" lon="-0.80989">
        <ele>65.7</ele>
    </trkpt>
    <trkpt lat="52.07259" lon="-0.80998">
        <ele>65.9</ele>
    </trkpt>
    <trkpt lat="52.07249" lon="-0.81018">
        <ele>66.9</ele>
    </trkpt>
    <trkpt lat="52.07243" lon="-0.81027">
        <ele>67.6</ele>
    </trkpt>
    <trkpt lat="52.07234" lon="-0.81035">
        <ele>68.6</ele>
    </trkpt>
    <trkpt lat="52.07227" lon="-0.81045">
        <ele>69.7</ele>
    </trkpt>
    <trkpt lat="52.0722" lon="-0.81064">
        <ele>71.1</ele>
    </trkpt>
    <trkpt lat="52.07212" lon="-0.81091">
        <ele>72.0</ele>
    </trkpt>
    <trkpt lat="52.07203" lon="-0.8112">
        <ele>71.6</ele>
    </trkpt>
    <trkpt lat="52.07196" lon="-0.81144">
        <ele>70.0</ele>
    </trkpt>
    <trkpt lat="52.0719" lon="-0.81175">
        <ele>66.7</ele>
    </trkpt>
    <trkpt lat="52.07187" lon="-0.81211">
        <ele>64.3</ele>
    </trkpt>
    <trkpt lat="52.07185" lon="-0.81222">
        <ele>64.0</ele>
    </trkpt>
    <trkpt lat="52.07178" lon="-0.81263">
        <ele>63.2</ele>
    </trkpt>
    <trkpt lat="52.0718" lon="-0.81264">
        <ele>63.1</ele>
    </trkpt>
    <trkpt lat="52.07195" lon="-0.81273">
        <ele>62.6</ele>
    </trkpt>
    <trkpt lat="52.0721" lon="-0.81282">
        <ele>61.9</ele>
    </trkpt>
    <trkpt lat="52.0721" lon="-0.81282">
        <ele>61.9</ele>
    </trkpt>
    <trkpt lat="52.07219" lon="-0.8129">
        <ele>61.5</ele>
    </trkpt>
    <trkpt lat="52.0723" lon="-0.81315">
        <ele>61.9</ele>
    </trkpt>
    <trkpt lat="52.07241" lon="-0.8134">
        <ele>63.1</ele>
    </trkpt>
    <trkpt lat="52.07256" lon="-0.81362">
        <ele>64.3</ele>
    </trkpt>
    <trkpt lat="52.07262" lon="-0.81393">
        <ele>64.7</ele>
    </trkpt>
    <trkpt lat="52.07266" lon="-0.81438">
        <ele>63.8</ele>
    </trkpt>
    <trkpt lat="52.07277" lon="-0.81467">
        <ele>62.6</ele>
    </trkpt>
    <trkpt lat="52.07279" lon="-0.81496">
        <ele>61.8</ele>
    </trkpt>
    <trkpt lat="52.07285" lon="-0.81549">
        <ele>61.2</ele>
    </trkpt>
    <trkpt lat="52.07285" lon="-0.81578">
        <ele>61.3</ele>
    </trkpt>
    <trkpt lat="52.0728" lon="-0.81604">
        <ele>62.0</ele>
    </trkpt>
    <trkpt lat="52.07278" lon="-0.81631">
        <ele>62.9</ele>
    </trkpt>
    <trkpt lat="52.07278" lon="-0.81668">
        <ele>63.8</ele>
    </trkpt>
    <trkpt lat="52.07283" lon="-0.81693">
        <ele>64.1</ele>
    </trkpt>
    <trkpt lat="52.07298" lon="-0.81712">
        <ele>63.9</ele>
    </trkpt>
    <trkpt lat="52.07317" lon="-0.81726">
        <ele>63.0</ele>
    </trkpt>
    <trkpt lat="52.07347" lon="-0.81741">
        <ele>63.0</ele>
    </trkpt>
    <trkpt lat="52.07379" lon="-0.81753">
        <ele>63.5</ele>
    </trkpt>
    <trkpt lat="52.07385" lon="-0.81758">
        <ele>63.4</ele>
    </trkpt>
    <trkpt lat="52.07392" lon="-0.81768">
        <ele>62.9</ele>
    </trkpt>
    <trkpt lat="52.07394" lon="-0.81779">
        <ele>62.6</ele>
    </trkpt>
    <trkpt lat="52.0739" lon="-0.81807">
        <ele>61.9</ele>
    </trkpt>
    <trkpt lat="52.07383" lon="-0.81841">
        <ele>61.7</ele>
    </trkpt>
    <trkpt lat="52.07383" lon="-0.81857">
        <ele>61.8</ele>
    </trkpt>
    <trkpt lat="52.07383" lon="-0.81855">
        <ele>61.8</ele>
    </trkpt>
    <trkpt lat="52.07384" lon="-0.81866">
        <ele>62.0</ele>
    </trkpt>
    <trkpt lat="52.07389" lon="-0.8189">
        <ele>62.3</ele>
    </trkpt>
    <trkpt lat="52.07399" lon="-0.81917">
        <ele>62.7</ele>
    </trkpt>
    <trkpt lat="52.07404" lon="-0.81929">
        <ele>63.0</ele>
    </trkpt>
    <trkpt lat="52.07403" lon="-0.81945">
        <ele>63.5</ele>
    </trkpt>
    <trkpt lat="52.07404" lon="-0.81966">
        <ele>64.1</ele>
    </trkpt>
    <trkpt lat="52.07406" lon="-0.82005">
        <ele>65.1</ele>
    </trkpt>
    <trkpt lat="52.074" lon="-0.82033">
        <ele>65.4</ele>
    </trkpt>
    <trkpt lat="52.07393" lon="-0.82062">
        <ele>65.2</ele>
    </trkpt>
    <trkpt lat="52.07393" lon="-0.82062">
        <ele>65.2</ele>
    </trkpt>
    <trkpt lat="52.07386" lon="-0.82094">
        <ele>64.7</ele>
    </trkpt>
    <trkpt lat="52.07386" lon="-0.82125">
        <ele>63.9</ele>
    </trkpt>
    <trkpt lat="52.0739" lon="-0.8216">
        <ele>63.0</ele>
    </trkpt>
    <trkpt lat="52.07393" lon="-0.82177">
        <ele>62.4</ele>
    </trkpt>
    <trkpt lat="52.07396" lon="-0.82217">
        <ele>62.1</ele>
    </trkpt>
    <trkpt lat="52.07399" lon="-0.82248">
        <ele>62.3</ele>
    </trkpt>
    <trkpt lat="52.07405" lon="-0.82267">
        <ele>62.5</ele>
    </trkpt>
    <trkpt lat="52.07402" lon="-0.82305">
        <ele>62.3</ele>
    </trkpt>
    <trkpt lat="52.07398" lon="-0.82332">
        <ele>61.8</ele>
    </trkpt>
    <trkpt lat="52.07387" lon="-0.82361">
        <ele>61.8</ele>
    </trkpt>
    <trkpt lat="52.07366" lon="-0.82405">
        <ele>62.1</ele>
    </trkpt>
    <trkpt lat="52.07341" lon="-0.82458">
        <ele>63.1</ele>
    </trkpt>
    <trkpt lat="52.07322" lon="-0.8249">
        <ele>62.6</ele>
    </trkpt>
    <trkpt lat="52.07307" lon="-0.82515">
        <ele>62.6</ele>
    </trkpt>
    <trkpt lat="52.07301" lon="-0.82524">
        <ele>62.6</ele>
    </trkpt>
    <trkpt lat="52.07294" lon="-0.82515">
        <ele>62.7</ele>
    </trkpt>
    <trkpt lat="52.07288" lon="-0.82511">
        <ele>62.9</ele>
    </trkpt>
    <trkpt lat="52.07282" lon="-0.82508">
        <ele>63.0</ele>
    </trkpt>
    <trkpt lat="52.07267" lon="-0.82591">
        <ele>63.1</ele>
    </trkpt>
    <trkpt lat="52.07248" lon="-0.82663">
        <ele>62.1</ele>
    </trkpt>
    <trkpt lat="52.07242" lon="-0.82684">
        <ele>61.8</ele>
    </trkpt>
    <trkpt lat="52.07216" lon="-0.82774">
        <ele>60.4</ele>
    </trkpt>
    <trkpt lat="52.07209" lon="-0.8281">
        <ele>60.3</ele>
    </trkpt>
    <trkpt lat="52.07213" lon="-0.82847">
        <ele>60.8</ele>
    </trkpt>
    <trkpt lat="52.07217" lon="-0.82893">
        <ele>62.2</ele>
    </trkpt>
    <trkpt lat="52.07212" lon="-0.82951">
        <ele>62.9</ele>
    </trkpt>
    <trkpt lat="52.07207" lon="-0.83001">
        <ele>62.0</ele>
    </trkpt>
    <trkpt lat="52.07204" lon="-0.83042">
        <ele>61.4</ele>
    </trkpt>
    <trkpt lat="52.07196" lon="-0.83091">
        <ele>61.6</ele>
    </trkpt>
    <trkpt lat="52.07188" lon="-0.83123">
        <ele>62.0</ele>
    </trkpt>
    <trkpt lat="52.07165" lon="-0.83181">
        <ele>63.0</ele>
    </trkpt>
    <trkpt lat="52.07136" lon="-0.83219">
        <ele>63.0</ele>
    </trkpt>
    <trkpt lat="52.07131" lon="-0.83226">
        <ele>63.0</ele>
    </trkpt>
    <trkpt lat="52.07111" lon="-0.83244">
        <ele>63.0</ele>
    </trkpt>
    <trkpt lat="52.071" lon="-0.83245">
        <ele>63.1</ele>
    </trkpt>
    <trkpt lat="52.0709" lon="-0.83243">
        <ele>63.2</ele>
    </trkpt>
    <trkpt lat="52.07079" lon="-0.83237">
        <ele>63.6</ele>
    </trkpt>
    <trkpt lat="52.07072" lon="-0.83238">
        <ele>63.8</ele>
    </trkpt>
    <trkpt lat="52.07061" lon="-0.83247">
        <ele>64.3</ele>
    </trkpt>
    <trkpt lat="52.07023" lon="-0.83243">
        <ele>65.3</ele>
    </trkpt>
    <trkpt lat="52.07014" lon="-0.8324">
        <ele>65.5</ele>
    </trkpt>
    <trkpt lat="52.07" lon="-0.83233">
        <ele>65.5</ele>
    </trkpt>
    <trkpt lat="52.06985" lon="-0.83232">
        <ele>65.6</ele>
    </trkpt>
    <trkpt lat="52.06955" lon="-0.83247">
        <ele>65.9</ele>
    </trkpt>
    <trkpt lat="52.06929" lon="-0.83266">
        <ele>66.0</ele>
    </trkpt>
    <trkpt lat="52.06911" lon="-0.83287">
        <ele>66.5</ele>
    </trkpt>
    <trkpt lat="52.069" lon="-0.83299">
        <ele>67.1</ele>
    </trkpt>
    <trkpt lat="52.06893" lon="-0.83309">
        <ele>67.4</ele>
    </trkpt>
    <trkpt lat="52.06888" lon="-0.83325">
        <ele>67.7</ele>
    </trkpt>
    <trkpt lat="52.06884" lon="-0.83334">
        <ele>67.8</ele>
    </trkpt>
    <trkpt lat="52.06875" lon="-0.83349">
        <ele>68.1</ele>
    </trkpt>
    <trkpt lat="52.06866" lon="-0.8336">
        <ele>68.4</ele>
    </trkpt>
    <trkpt lat="52.06864" lon="-0.83364">
        <ele>68.4</ele>
    </trkpt>
    <trkpt lat="52.06861" lon="-0.83364">
        <ele>68.5</ele>
    </trkpt>
    <trkpt lat="52.06856" lon="-0.83363">
        <ele>68.6</ele>
    </trkpt>
    <trkpt lat="52.0685" lon="-0.83361">
        <ele>68.5</ele>
    </trkpt>
    <trkpt lat="52.06841" lon="-0.83373">
        <ele>68.3</ele>
    </trkpt>
    <trkpt lat="52.06821" lon="-0.83398">
        <ele>66.8</ele>
    </trkpt>
    <trkpt lat="52.06815" lon="-0.83413">
        <ele>66.2</ele>
    </trkpt>
    <trkpt lat="52.06811" lon="-0.83422">
        <ele>65.8</ele>
    </trkpt>
    <trkpt lat="52.06805" lon="-0.83425">
        <ele>65.4</ele>
    </trkpt>
    <trkpt lat="52.06743" lon="-0.83471">
        <ele>62.1</ele>
    </trkpt>
    <trkpt lat="52.06721" lon="-0.83492">
        <ele>62.3</ele>
    </trkpt>
    <trkpt lat="52.06706" lon="-0.83504">
        <ele>62.9</ele>
    </trkpt>
    <trkpt lat="52.06676" lon="-0.83513">
        <ele>64.2</ele>
    </trkpt>
    <trkpt lat="52.06634" lon="-0.8354">
        <ele>65.3</ele>
    </trkpt>
    <trkpt lat="52.06585" lon="-0.83598">
        <ele>63.9</ele>
    </trkpt>
    <trkpt lat="52.06573" lon="-0.83612">
        <ele>63.6</ele>
    </trkpt>
    <trkpt lat="52.06553" lon="-0.83631">
        <ele>64.0</ele>
    </trkpt>
    <trkpt lat="52.06534" lon="-0.83654">
        <ele>64.5</ele>
    </trkpt>
    <trkpt lat="52.0652" lon="-0.83681">
        <ele>64.8</ele>
    </trkpt>
    <trkpt lat="52.06517" lon="-0.83688">
        <ele>64.8</ele>
    </trkpt>
    <trkpt lat="52.06505" lon="-0.83705">
        <ele>64.9</ele>
    </trkpt>
    <trkpt lat="52.06493" lon="-0.83731">
        <ele>64.8</ele>
    </trkpt>
    <trkpt lat="52.06477" lon="-0.83761">
        <ele>64.3</ele>
    </trkpt>
    <trkpt lat="52.06458" lon="-0.83791">
        <ele>63.4</ele>
    </trkpt>
    <trkpt lat="52.06439" lon="-0.8381">
        <ele>62.9</ele>
    </trkpt>
    <trkpt lat="52.0641" lon="-0.8384">
        <ele>63.0</ele>
    </trkpt>
    <trkpt lat="52.06398" lon="-0.83859">
        <ele>63.2</ele>
    </trkpt>
    <trkpt lat="52.06387" lon="-0.83889">
        <ele>64.0</ele>
    </trkpt>
    <trkpt lat="52.06378" lon="-0.83904">
        <ele>64.5</ele>
    </trkpt>
    <trkpt lat="52.0636" lon="-0.83917">
        <ele>65.3</ele>
    </trkpt>
    <trkpt lat="52.06356" lon="-0.83919">
        <ele>65.4</ele>
    </trkpt>
    <trkpt lat="52.06354" lon="-0.83924">
        <ele>65.6</ele>
    </trkpt>
    <trkpt lat="52.06349" lon="-0.83932">
        <ele>65.8</ele>
    </trkpt>
    <trkpt lat="52.06343" lon="-0.83942">
        <ele>66.1</ele>
    </trkpt>
    <trkpt lat="52.06336" lon="-0.83942">
        <ele>66.3</ele>
    </trkpt>
    <trkpt lat="52.06309" lon="-0.83924">
        <ele>66.9</ele>
    </trkpt>
    <trkpt lat="52.06302" lon="-0.83927">
        <ele>66.8</ele>
    </trkpt>
    <trkpt lat="52.06292" lon="-0.83946">
        <ele>66.8</ele>
    </trkpt>
    <trkpt lat="52.06282" lon="-0.83982">
        <ele>66.8</ele>
    </trkpt>
    <trkpt lat="52.06274" lon="-0.8403">
        <ele>66.7</ele>
    </trkpt>
    <trkpt lat="52.06266" lon="-0.84085">
        <ele>67.7</ele>
    </trkpt>
    <trkpt lat="52.06262" lon="-0.84116">
        <ele>68.1</ele>
    </trkpt>
    <trkpt lat="52.06258" lon="-0.84131">
        <ele>68.0</ele>
    </trkpt>
    <trkpt lat="52.0625" lon="-0.84157">
        <ele>67.9</ele>
    </trkpt>
    <trkpt lat="52.06248" lon="-0.84164">
        <ele>68.0</ele>
    </trkpt>
    <trkpt lat="52.06257" lon="-0.84171">
        <ele>67.7</ele>
    </trkpt>
    <trkpt lat="52.06254" lon="-0.8418">
        <ele>67.5</ele>
    </trkpt>
    <trkpt lat="52.0625" lon="-0.84192">
        <ele>67.1</ele>
    </trkpt>
    <trkpt lat="52.06234" lon="-0.84234">
        <ele>65.8</ele>
    </trkpt>
    <trkpt lat="52.06234" lon="-0.8424">
        <ele>65.8</ele>
    </trkpt>
    <trkpt lat="52.06236" lon="-0.8425">
        <ele>65.9</ele>
    </trkpt>
    <trkpt lat="52.06253" lon="-0.84319">
        <ele>65.6</ele>
    </trkpt>
    <trkpt lat="52.06262" lon="-0.84355">
        <ele>65.4</ele>
    </trkpt>
    <trkpt lat="52.06261" lon="-0.84372">
        <ele>65.6</ele>
    </trkpt>
    <trkpt lat="52.06255" lon="-0.84422">
        <ele>67.0</ele>
    </trkpt>
    <trkpt lat="52.06253" lon="-0.84456">
        <ele>67.9</ele>
    </trkpt>
    <trkpt lat="52.06259" lon="-0.84506">
        <ele>68.7</ele>
    </trkpt>
    <trkpt lat="52.06261" lon="-0.84535">
        <ele>69.0</ele>
    </trkpt>
    <trkpt lat="52.06264" lon="-0.8457">
        <ele>69.7</ele>
    </trkpt>
    <trkpt lat="52.06261" lon="-0.84587">
        <ele>69.9</ele>
    </trkpt>
    <trkpt lat="52.06264" lon="-0.84592">
        <ele>70.0</ele>
    </trkpt>
    <trkpt lat="52.0627" lon="-0.84599">
        <ele>70.2</ele>
    </trkpt>
    <trkpt lat="52.06275" lon="-0.8461">
        <ele>70.6</ele>
    </trkpt>
    <trkpt lat="52.0628" lon="-0.84635">
        <ele>71.2</ele>
    </trkpt>
    <trkpt lat="52.06295" lon="-0.84684">
        <ele>71.2</ele>
    </trkpt>
    <trkpt lat="52.06305" lon="-0.84725">
        <ele>70.1</ele>
    </trkpt>
    <trkpt lat="52.06338" lon="-0.8482">
        <ele>67.7</ele>
    </trkpt>
    <trkpt lat="52.06348" lon="-0.84867">
        <ele>68.0</ele>
    </trkpt>
    <trkpt lat="52.06358" lon="-0.84898">
        <ele>68.2</ele>
    </trkpt>
    <trkpt lat="52.0637" lon="-0.84905">
        <ele>67.9</ele>
    </trkpt>
    <trkpt lat="52.06378" lon="-0.84902">
        <ele>67.6</ele>
    </trkpt>
    <trkpt lat="52.06384" lon="-0.84901">
        <ele>67.4</ele>
    </trkpt>
    <trkpt lat="52.06396" lon="-0.849">
        <ele>67.0</ele>
    </trkpt>
    <trkpt lat="52.06404" lon="-0.84904">
        <ele>66.7</ele>
    </trkpt>
    <trkpt lat="52.0641" lon="-0.8491">
        <ele>66.5</ele>
    </trkpt>
    <trkpt lat="52.06414" lon="-0.84919">
        <ele>66.5</ele>
    </trkpt>
    <trkpt lat="52.06422" lon="-0.84948">
        <ele>66.5</ele>
    </trkpt>
    <trkpt lat="52.06439" lon="-0.85013">
        <ele>66.8</ele>
    </trkpt>
    <trkpt lat="52.06446" lon="-0.8506">
        <ele>67.6</ele>
    </trkpt>
    <trkpt lat="52.06443" lon="-0.85091">
        <ele>68.1</ele>
    </trkpt>
    <trkpt lat="52.06439" lon="-0.85114">
        <ele>68.2</ele>
    </trkpt>
    <trkpt lat="52.06444" lon="-0.85168">
        <ele>67.6</ele>
    </trkpt>
    <trkpt lat="52.06443" lon="-0.85174">
        <ele>67.5</ele>
    </trkpt>
    <trkpt lat="52.06441" lon="-0.85207">
        <ele>66.7</ele>
    </trkpt>
    <trkpt lat="52.06438" lon="-0.85252">
        <ele>65.7</ele>
    </trkpt>
    <trkpt lat="52.06423" lon="-0.85309">
        <ele>65.0</ele>
    </trkpt>
    <trkpt lat="52.06414" lon="-0.85316">
        <ele>64.8</ele>
    </trkpt>
    <trkpt lat="52.06413" lon="-0.85343">
        <ele>64.6</ele>
    </trkpt>
    <trkpt lat="52.06399" lon="-0.8541">
        <ele>65.1</ele>
    </trkpt>
    <trkpt lat="52.06392" lon="-0.85466">
        <ele>66.0</ele>
    </trkpt>
    <trkpt lat="52.06388" lon="-0.85525">
        <ele>66.0</ele>
    </trkpt>
    <trkpt lat="52.06388" lon="-0.85569">
        <ele>66.2</ele>
    </trkpt>
    <trkpt lat="52.06387" lon="-0.85614">
        <ele>66.7</ele>
    </trkpt>
    <trkpt lat="52.06389" lon="-0.85666">
        <ele>67.2</ele>
    </trkpt>
    <trkpt lat="52.06395" lon="-0.85718">
        <ele>67.2</ele>
    </trkpt>
    <trkpt lat="52.06395" lon="-0.85727">
        <ele>67.1</ele>
    </trkpt>
    <trkpt lat="52.06394" lon="-0.85739">
        <ele>67.1</ele>
    </trkpt>
    <trkpt lat="52.06392" lon="-0.8575">
        <ele>67.0</ele>
    </trkpt>
    <trkpt lat="52.06389" lon="-0.8576">
        <ele>67.0</ele>
    </trkpt>
    <trkpt lat="52.06361" lon="-0.85814">
        <ele>66.7</ele>
    </trkpt>
    <trkpt lat="52.06355" lon="-0.8583">
        <ele>66.7</ele>
    </trkpt>
    <trkpt lat="52.06352" lon="-0.8585">
        <ele>66.9</ele>
    </trkpt>
    <trkpt lat="52.06347" lon="-0.85871">
        <ele>67.4</ele>
    </trkpt>
    <trkpt lat="52.06335" lon="-0.85891">
        <ele>67.8</ele>
    </trkpt>
    <trkpt lat="52.06327" lon="-0.85902">
        <ele>67.6</ele>
    </trkpt>
    <trkpt lat="52.06312" lon="-0.8591">
        <ele>67.4</ele>
    </trkpt>
    <trkpt lat="52.06309" lon="-0.85913">
        <ele>67.4</ele>
    </trkpt>
    <trkpt lat="52.06304" lon="-0.85919">
        <ele>67.3</ele>
    </trkpt>
    <trkpt lat="52.06295" lon="-0.85933">
        <ele>67.5</ele>
    </trkpt>
    <trkpt lat="52.06289" lon="-0.85942">
        <ele>67.5</ele>
    </trkpt>
    <trkpt lat="52.06268" lon="-0.85975">
        <ele>67.5</ele>
    </trkpt>
    <trkpt lat="52.06247" lon="-0.86008">
        <ele>67.6</ele>
    </trkpt>
    <trkpt lat="52.06239" lon="-0.86019">
        <ele>67.8</ele>
    </trkpt>
    <trkpt lat="52.06227" lon="-0.86028">
        <ele>68.1</ele>
    </trkpt>
    <trkpt lat="52.06206" lon="-0.86037">
        <ele>68.8</ele>
    </trkpt>
    <trkpt lat="52.06184" lon="-0.86044">
        <ele>69.4</ele>
    </trkpt>
    <trkpt lat="52.0617" lon="-0.86045">
        <ele>69.3</ele>
    </trkpt>
    <trkpt lat="52.06154" lon="-0.86044">
        <ele>68.8</ele>
    </trkpt>
    <trkpt lat="52.06138" lon="-0.8604">
        <ele>68.5</ele>
    </trkpt>
    <trkpt lat="52.06113" lon="-0.86057">
        <ele>69.7</ele>
    </trkpt>
    <trkpt lat="52.06101" lon="-0.86072">
        <ele>70.4</ele>
    </trkpt>
    <trkpt lat="52.06096" lon="-0.86078">
        <ele>70.7</ele>
    </trkpt>
    <trkpt lat="52.06091" lon="-0.8609">
        <ele>70.7</ele>
    </trkpt>
    <trkpt lat="52.06102" lon="-0.8611">
        <ele>70.6</ele>
    </trkpt>
    <trkpt lat="52.0611" lon="-0.86132">
        <ele>70.8</ele>
    </trkpt>
    <trkpt lat="52.06115" lon="-0.86147">
        <ele>70.9</ele>
    </trkpt>
    <trkpt lat="52.06116" lon="-0.86154">
        <ele>70.9</ele>
    </trkpt>
    <trkpt lat="52.06118" lon="-0.86159">
        <ele>70.9</ele>
    </trkpt>
    <trkpt lat="52.06119" lon="-0.86172">
        <ele>70.9</ele>
    </trkpt>
    <trkpt lat="52.0612" lon="-0.86184">
        <ele>70.9</ele>
    </trkpt>
    <trkpt lat="52.06118" lon="-0.86194">
        <ele>70.9</ele>
    </trkpt>
    <trkpt lat="52.06114" lon="-0.86203">
        <ele>70.8</ele>
    </trkpt>
    <trkpt lat="52.0609" lon="-0.86246">
        <ele>68.9</ele>
    </trkpt>
    <trkpt lat="52.06086" lon="-0.86252">
        <ele>68.5</ele>
    </trkpt>
    <trkpt lat="52.06082" lon="-0.86256">
        <ele>68.0</ele>
    </trkpt>
    <trkpt lat="52.06076" lon="-0.8626">
        <ele>67.6</ele>
    </trkpt>
    <trkpt lat="52.06067" lon="-0.86263">
        <ele>67.2</ele>
    </trkpt>
    <trkpt lat="52.06048" lon="-0.86273">
        <ele>66.2</ele>
    </trkpt>
    <trkpt lat="52.06037" lon="-0.86281">
        <ele>65.7</ele>
    </trkpt>
    <trkpt lat="52.06029" lon="-0.86279">
        <ele>65.5</ele>
    </trkpt>
    <trkpt lat="52.06021" lon="-0.86276">
        <ele>65.5</ele>
    </trkpt>
    <trkpt lat="52.0601" lon="-0.8626">
        <ele>65.3</ele>
    </trkpt>
    <trkpt lat="52.06001" lon="-0.86247">
        <ele>65.1</ele>
    </trkpt>
    <trkpt lat="52.05998" lon="-0.86243">
        <ele>65.0</ele>
    </trkpt>
    <trkpt lat="52.0599" lon="-0.86221">
        <ele>64.9</ele>
    </trkpt>
    <trkpt lat="52.05989" lon="-0.86218">
        <ele>64.9</ele>
    </trkpt>
    <trkpt lat="52.05987" lon="-0.86216">
        <ele>65.0</ele>
    </trkpt>
    <trkpt lat="52.05985" lon="-0.86215">
        <ele>65.0</ele>
    </trkpt>
    <trkpt lat="52.05975" lon="-0.86214">
        <ele>65.3</ele>
    </trkpt>
    <trkpt lat="52.05971" lon="-0.86213">
        <ele>65.4</ele>
    </trkpt>
    <trkpt lat="52.05963" lon="-0.86208">
        <ele>65.6</ele>
    </trkpt>
    <trkpt lat="52.05947" lon="-0.86194">
        <ele>66.1</ele>
    </trkpt>
    <trkpt lat="52.05943" lon="-0.86189">
        <ele>66.2</ele>
    </trkpt>
    <trkpt lat="52.05904" lon="-0.86115">
        <ele>65.4</ele>
    </trkpt>
    <trkpt lat="52.059" lon="-0.86103">
        <ele>65.2</ele>
    </trkpt>
    <trkpt lat="52.05893" lon="-0.86071">
        <ele>65.1</ele>
    </trkpt>
    <trkpt lat="52.05887" lon="-0.86059">
        <ele>65.3</ele>
    </trkpt>
    <trkpt lat="52.0588" lon="-0.86049">
        <ele>65.6</ele>
    </trkpt>
    <trkpt lat="52.05877" lon="-0.86043">
        <ele>65.8</ele>
    </trkpt>
    <trkpt lat="52.05872" lon="-0.8604">
        <ele>65.9</ele>
    </trkpt>
    <trkpt lat="52.05867" lon="-0.86037">
        <ele>66.1</ele>
    </trkpt>
    <trkpt lat="52.05861" lon="-0.86033">
        <ele>66.3</ele>
    </trkpt>
    <trkpt lat="52.05849" lon="-0.86017">
        <ele>66.7</ele>
    </trkpt>
    <trkpt lat="52.05842" lon="-0.86005">
        <ele>66.9</ele>
    </trkpt>
    <trkpt lat="52.0584" lon="-0.86003">
        <ele>66.9</ele>
    </trkpt>
    <trkpt lat="52.05807" lon="-0.85992">
        <ele>66.9</ele>
    </trkpt>
    <trkpt lat="52.05757" lon="-0.85979">
        <ele>67.0</ele>
    </trkpt>
    <trkpt lat="52.0575" lon="-0.85978">
        <ele>67.0</ele>
    </trkpt>
    <trkpt lat="52.05736" lon="-0.85967">
        <ele>66.9</ele>
    </trkpt>
    <trkpt lat="52.05732" lon="-0.85967">
        <ele>66.8</ele>
    </trkpt>
    <trkpt lat="52.05727" lon="-0.85968">
        <ele>66.8</ele>
    </trkpt>
    <trkpt lat="52.05717" lon="-0.85975">
        <ele>66.7</ele>
    </trkpt>
    <trkpt lat="52.0571" lon="-0.8598">
        <ele>66.4</ele>
    </trkpt>
    <trkpt lat="52.05698" lon="-0.85987">
        <ele>65.7</ele>
    </trkpt>
    <trkpt lat="52.05692" lon="-0.85989">
        <ele>65.4</ele>
    </trkpt>
    <trkpt lat="52.05687" lon="-0.85988">
        <ele>65.1</ele>
    </trkpt>
    <trkpt lat="52.05681" lon="-0.85987">
        <ele>64.9</ele>
    </trkpt>
    <trkpt lat="52.05676" lon="-0.85982">
        <ele>65.0</ele>
    </trkpt>
    <trkpt lat="52.05671" lon="-0.85974">
        <ele>65.2</ele>
    </trkpt>
    <trkpt lat="52.05667" lon="-0.85967">
        <ele>65.5</ele>
    </trkpt>
    <trkpt lat="52.05663" lon="-0.85963">
        <ele>65.7</ele>
    </trkpt>
    <trkpt lat="52.05658" lon="-0.85962">
        <ele>65.9</ele>
    </trkpt>
    <trkpt lat="52.05658" lon="-0.85962">
        <ele>65.9</ele>
    </trkpt>
    <trkpt lat="52.05651" lon="-0.85962">
        <ele>66.2</ele>
    </trkpt>
    <trkpt lat="52.05641" lon="-0.85962">
        <ele>66.5</ele>
    </trkpt>
    <trkpt lat="52.05626" lon="-0.85961">
        <ele>66.9</ele>
    </trkpt>
    <trkpt lat="52.05618" lon="-0.85963">
        <ele>67.1</ele>
    </trkpt>
    <trkpt lat="52.05607" lon="-0.85954">
        <ele>67.5</ele>
    </trkpt>
    <trkpt lat="52.05599" lon="-0.85939">
        <ele>67.7</ele>
    </trkpt>
    <trkpt lat="52.05568" lon="-0.85904">
        <ele>67.7</ele>
    </trkpt>
    <trkpt lat="52.05568" lon="-0.85885">
        <ele>67.9</ele>
    </trkpt>
    <trkpt lat="52.05564" lon="-0.85866">
        <ele>68.1</ele>
    </trkpt>
    <trkpt lat="52.05575" lon="-0.85867">
        <ele>68.0</ele>
    </trkpt>
    <trkpt lat="52.05587" lon="-0.85873">
        <ele>68.2</ele>
    </trkpt>
    <trkpt lat="52.05604" lon="-0.85844">
        <ele>68.8</ele>
    </trkpt>
    <trkpt lat="52.05612" lon="-0.85822">
        <ele>68.9</ele>
    </trkpt>
    <trkpt lat="52.05633" lon="-0.85744">
        <ele>69.3</ele>
    </trkpt>
    <trkpt lat="52.05645" lon="-0.85708">
        <ele>69.0</ele>
    </trkpt>
    <trkpt lat="52.05662" lon="-0.85652">
        <ele>68.8</ele>
    </trkpt>
    <trkpt lat="52.05646" lon="-0.85598">
        <ele>68.0</ele>
    </trkpt>
    <trkpt lat="52.05632" lon="-0.85552">
        <ele>68.1</ele>
    </trkpt>
    <trkpt lat="52.05618" lon="-0.85506">
        <ele>69.6</ele>
    </trkpt>
    <trkpt lat="52.05607" lon="-0.8547">
        <ele>70.4</ele>
    </trkpt>
    <trkpt lat="52.05605" lon="-0.85468">
        <ele>70.4</ele>
    </trkpt>
    <trkpt lat="52.05601" lon="-0.85463">
        <ele>70.5</ele>
    </trkpt>
    <trkpt lat="52.05589" lon="-0.85442">
        <ele>70.8</ele>
    </trkpt>
    <trkpt lat="52.05552" lon="-0.85391">
        <ele>70.5</ele>
    </trkpt>
    <trkpt lat="52.0553" lon="-0.85364">
        <ele>70.0</ele>
    </trkpt>
    <trkpt lat="52.0549" lon="-0.85315">
        <ele>70.0</ele>
    </trkpt>
    <trkpt lat="52.05473" lon="-0.85292">
        <ele>70.7</ele>
    </trkpt>
    <trkpt lat="52.05455" lon="-0.85264">
        <ele>72.0</ele>
    </trkpt>
    <trkpt lat="52.05447" lon="-0.85253">
        <ele>72.6</ele>
    </trkpt>
    <trkpt lat="52.05433" lon="-0.85234">
        <ele>72.8</ele>
    </trkpt>
    <trkpt lat="52.0542" lon="-0.85213">
        <ele>72.9</ele>
    </trkpt>
    <trkpt lat="52.05427" lon="-0.85208">
        <ele>73.2</ele>
    </trkpt>
    <trkpt lat="52.05434" lon="-0.85202">
        <ele>73.5</ele>
    </trkpt>
    <trkpt lat="52.05445" lon="-0.85193">
        <ele>74.0</ele>
    </trkpt>
    <trkpt lat="52.05454" lon="-0.85184">
        <ele>74.3</ele>
    </trkpt>
    <trkpt lat="52.05457" lon="-0.8518">
        <ele>74.4</ele>
    </trkpt>
    <trkpt lat="52.05473" lon="-0.85161">
        <ele>74.5</ele>
    </trkpt>
    <trkpt lat="52.05484" lon="-0.8515">
        <ele>74.3</ele>
    </trkpt>
    <trkpt lat="52.05501" lon="-0.8513">
        <ele>73.6</ele>
    </trkpt>
    <trkpt lat="52.05521" lon="-0.85102">
        <ele>72.7</ele>
    </trkpt>
    <trkpt lat="52.05531" lon="-0.85087">
        <ele>72.2</ele>
    </trkpt>
    <trkpt lat="52.0554" lon="-0.85074">
        <ele>71.5</ele>
    </trkpt>
    <trkpt lat="52.05546" lon="-0.85062">
        <ele>71.1</ele>
    </trkpt>
    <trkpt lat="52.05553" lon="-0.85051">
        <ele>70.6</ele>
    </trkpt>
    <trkpt lat="52.05571" lon="-0.85069">
        <ele>70.1</ele>
    </trkpt>
    <trkpt lat="52.05584" lon="-0.85083">
        <ele>69.9</ele>
    </trkpt>
    <trkpt lat="52.05595" lon="-0.85068">
        <ele>69.8</ele>
    </trkpt>
    <trkpt lat="52.05608" lon="-0.85048">
        <ele>69.4</ele>
    </trkpt>
    <trkpt lat="52.05617" lon="-0.85032">
        <ele>69.2</ele>
    </trkpt>
    <trkpt lat="52.05632" lon="-0.85009">
        <ele>69.4</ele>
    </trkpt>
    <trkpt lat="52.05645" lon="-0.84985">
        <ele>69.8</ele>
    </trkpt>
    <trkpt lat="52.05675" lon="-0.84932">
        <ele>70.0</ele>
    </trkpt>
    <trkpt lat="52.0568" lon="-0.84922">
        <ele>70.0</ele>
    </trkpt>
    <trkpt lat="52.05687" lon="-0.84906">
        <ele>70.1</ele>
    </trkpt>
    <trkpt lat="52.05706" lon="-0.84849">
        <ele>70.4</ele>
    </trkpt>
    <trkpt lat="52.05739" lon="-0.84754">
        <ele>70.0</ele>
    </trkpt>
    <trkpt lat="52.05765" lon="-0.84676">
        <ele>71.6</ele>
    </trkpt>
    <trkpt lat="52.05768" lon="-0.84667">
        <ele>71.9</ele>
    </trkpt>
    <trkpt lat="52.05775" lon="-0.84645">
        <ele>72.4</ele>
    </trkpt>
    <trkpt lat="52.05784" lon="-0.84617">
        <ele>72.7</ele>
    </trkpt>
    <trkpt lat="52.05793" lon="-0.8459">
        <ele>72.7</ele>
    </trkpt>
    <trkpt lat="52.05818" lon="-0.84508">
        <ele>72.8</ele>
    </trkpt>
    <trkpt lat="52.05827" lon="-0.84475">
        <ele>72.9</ele>
    </trkpt>
    <trkpt lat="52.05836" lon="-0.84435">
        <ele>73.0</ele>
    </trkpt>
    <trkpt lat="52.05844" lon="-0.84441">
        <ele>73.0</ele>
    </trkpt>
    <trkpt lat="52.05867" lon="-0.84336">
        <ele>73.9</ele>
    </trkpt>
    <trkpt lat="52.05854" lon="-0.84325">
        <ele>74.3</ele>
    </trkpt>
    <trkpt lat="52.05859" lon="-0.84305">
        <ele>74.5</ele>
    </trkpt>
    <trkpt lat="52.05873" lon="-0.84245">
        <ele>74.4</ele>
    </trkpt>
    <trkpt lat="52.05875" lon="-0.84221">
        <ele>73.9</ele>
    </trkpt>
    <trkpt lat="52.05865" lon="-0.84177">
        <ele>73.4</ele>
    </trkpt>
    <trkpt lat="52.05871" lon="-0.84157">
        <ele>73.2</ele>
    </trkpt>
    <trkpt lat="52.05874" lon="-0.84151">
        <ele>73.1</ele>
    </trkpt>
    <trkpt lat="52.0588" lon="-0.84148">
        <ele>73.0</ele>
    </trkpt>
    <trkpt lat="52.05888" lon="-0.84142">
        <ele>72.9</ele>
    </trkpt>
    <trkpt lat="52.05897" lon="-0.84136">
        <ele>73.2</ele>
    </trkpt>
    <trkpt lat="52.059" lon="-0.84131">
        <ele>73.3</ele>
    </trkpt>
    <trkpt lat="52.05902" lon="-0.84126">
        <ele>73.5</ele>
    </trkpt>
    <trkpt lat="52.05909" lon="-0.8409">
        <ele>73.8</ele>
    </trkpt>
    <trkpt lat="52.05911" lon="-0.84079">
        <ele>73.8</ele>
    </trkpt>
    <trkpt lat="52.05919" lon="-0.84043">
        <ele>72.7</ele>
    </trkpt>
    <trkpt lat="52.05935" lon="-0.83975">
        <ele>70.6</ele>
    </trkpt>
    <trkpt lat="52.0594" lon="-0.83952">
        <ele>70.8</ele>
    </trkpt>
    <trkpt lat="52.05961" lon="-0.83861">
        <ele>73.7</ele>
    </trkpt>
    <trkpt lat="52.05986" lon="-0.83755">
        <ele>70.9</ele>
    </trkpt>
    <trkpt lat="52.06039" lon="-0.83592">
        <ele>69.8</ele>
    </trkpt>
    <trkpt lat="52.06085" lon="-0.83436">
        <ele>68.9</ele>
    </trkpt>
    <trkpt lat="52.06128" lon="-0.83267">
        <ele>71.9</ele>
    </trkpt>
    <trkpt lat="52.06131" lon="-0.83258">
        <ele>72.4</ele>
    </trkpt>
    <trkpt lat="52.06143" lon="-0.83156">
        <ele>77.7</ele>
    </trkpt>
    <trkpt lat="52.06147" lon="-0.8309">
        <ele>78.4</ele>
    </trkpt>
    <trkpt lat="52.06157" lon="-0.82973">
        <ele>76.7</ele>
    </trkpt>
    <trkpt lat="52.06149" lon="-0.82966">
        <ele>76.6</ele>
    </trkpt>
    <trkpt lat="52.0615" lon="-0.82946">
        <ele>77.0</ele>
    </trkpt>
    <trkpt lat="52.06149" lon="-0.82921">
        <ele>77.5</ele>
    </trkpt>
    <trkpt lat="52.06158" lon="-0.82913">
        <ele>77.9</ele>
    </trkpt>
    <trkpt lat="52.06162" lon="-0.82848">
        <ele>80.4</ele>
    </trkpt>
    <trkpt lat="52.06167" lon="-0.82778">
        <ele>82.0</ele>
    </trkpt>
    <trkpt lat="52.06175" lon="-0.82666">
        <ele>81.8</ele>
    </trkpt>
    <trkpt lat="52.06202" lon="-0.82284">
        <ele>80.7</ele>
    </trkpt>
    <trkpt lat="52.06215" lon="-0.82093">
        <ele>82.3</ele>
    </trkpt>
    <trkpt lat="52.06129" lon="-0.82055">
        <ele>83.1</ele>
    </trkpt>
    <trkpt lat="52.06022" lon="-0.81999">
        <ele>85.8</ele>
    </trkpt>
    <trkpt lat="52.05976" lon="-0.81974">
        <ele>86.1</ele>
    </trkpt>
    <trkpt lat="52.05901" lon="-0.81915">
        <ele>87.3</ele>
    </trkpt>
    <trkpt lat="52.05868" lon="-0.81886">
        <ele>88.0</ele>
    </trkpt>
    <trkpt lat="52.05842" lon="-0.81865">
        <ele>88.0</ele>
    </trkpt>
    <trkpt lat="52.05831" lon="-0.8186">
        <ele>88.0</ele>
    </trkpt>
    <trkpt lat="52.05816" lon="-0.81854">
        <ele>88.1</ele>
    </trkpt>
    <trkpt lat="52.05804" lon="-0.81849">
        <ele>88.3</ele>
    </trkpt>
    <trkpt lat="52.05788" lon="-0.81847">
        <ele>89.2</ele>
    </trkpt>
    <trkpt lat="52.05791" lon="-0.81843">
        <ele>89.6</ele>
    </trkpt>
    <trkpt lat="52.05794" lon="-0.81839">
        <ele>89.9</ele>
    </trkpt>
    <trkpt lat="52.05772" lon="-0.818">
        <ele>92.3</ele>
    </trkpt>
    <trkpt lat="52.05571" lon="-0.81501">
        <ele>92.1</ele>
    </trkpt>
    <trkpt lat="52.05508" lon="-0.814">
        <ele>93.1</ele>
    </trkpt>
    <trkpt lat="52.05461" lon="-0.81331">
        <ele>95.3</ele>
    </trkpt>
    <trkpt lat="52.05413" lon="-0.81257">
        <ele>95.9</ele>
    </trkpt>
    <trkpt lat="52.05408" lon="-0.81241">
        <ele>96.0</ele>
    </trkpt>
    <trkpt lat="52.05408" lon="-0.81223">
        <ele>96.2</ele>
    </trkpt>
    <trkpt lat="52.05381" lon="-0.81185">
        <ele>96.9</ele>
    </trkpt>
    <trkpt lat="52.05368" lon="-0.81166">
        <ele>96.7</ele>
    </trkpt>
    <trkpt lat="52.05327" lon="-0.811">
        <ele>93.7</ele>
    </trkpt>
    <trkpt lat="52.05338" lon="-0.81042">
        <ele>92.8</ele>
    </trkpt>
    <trkpt lat="52.05398" lon="-0.80864">
        <ele>91.5</ele>
    </trkpt>
    <trkpt lat="52.05416" lon="-0.80805">
        <ele>90.8</ele>
    </trkpt>
    <trkpt lat="52.0546" lon="-0.8065">
        <ele>88.0</ele>
    </trkpt>
    <trkpt lat="52.05461" lon="-0.80646">
        <ele>88.1</ele>
    </trkpt>
    <trkpt lat="52.05467" lon="-0.80647">
        <ele>88.3</ele>
    </trkpt>
    <trkpt lat="52.05473" lon="-0.80615">
        <ele>90.1</ele>
    </trkpt>
    <trkpt lat="52.05503" lon="-0.80451">
        <ele>90.1</ele>
    </trkpt>
    <trkpt lat="52.05509" lon="-0.80418">
        <ele>89.3</ele>
    </trkpt>
    <trkpt lat="52.0552" lon="-0.80348">
        <ele>88.1</ele>
    </trkpt>
    <trkpt lat="52.05529" lon="-0.80311">
        <ele>88.0</ele>
    </trkpt>
    <trkpt lat="52.05514" lon="-0.80302">
        <ele>87.9</ele>
    </trkpt>
    <trkpt lat="52.05516" lon="-0.80293">
        <ele>87.9</ele>
    </trkpt>
    <trkpt lat="52.05518" lon="-0.80295">
        <ele>87.9</ele>
    </trkpt>
  </trkseg>
</trk>
</gpx>
