<?xml version="1.0"?>
<gpx version="1.1" creator="GDAL 2.2.3" xmlns:xsi="http://www.w3.org/2001/XMLSchema-instance" xmlns="http://www.topografix.com/GPX/1/1" xsi:schemaLocation="http://www.topografix.com/GPX/1/1 http://www.topografix.com/GPX/1/1/gpx.xsd">
<metadata><bounds minlat="52.065779995824528" minlon="-0.745299987470204" maxlat="52.069899995827754" maxlon="-0.734229987462850"/></metadata>                  
<rte>
  <rtept lat="52.066599995825214" lon="-0.745299987470204">
    <ele>74.0</ele>
  </rtept>
  <rtept lat="52.066459995825092" lon="-0.744819987470038">
    <ele>72.5</ele>
  </rtept>
  <rtept lat="52.066419995825065" lon="-0.744729987470014">
    <ele>72.3</ele>
  </rtept>
  <rtept lat="52.066379995825052" lon="-0.744669987470006">
    <ele>72.1</ele>
  </rtept>
  <rtept lat="52.066059995824773" lon="-0.743629987469657">
    <ele>68.9</ele>
  </rtept>
  <rtept lat="52.066019995824746" lon="-0.743459987469593">
    <ele>68.5</ele>
  </rtept>
  <rtept lat="52.066059995824759" lon="-0.743189987469436">
    <ele>68.1</ele>
  </rtept>
  <rtept lat="52.066069995824776" lon="-0.743119987469396">
    <ele>68.0</ele>
  </rtept>
  <rtept lat="52.066129995824831" lon="-0.743029987469317">
    <ele>68.1</ele>
  </rtept>
  <rtept lat="52.066089995824811" lon="-0.742899987469274">
    <ele>68.0</ele>
  </rtept>
  <rtept lat="52.066049995824741" lon="-0.742739987469215">
    <ele>68.0</ele>
  </rtept>
  <rtept lat="52.065889995824641" lon="-0.742349987469105">
    <ele>68.3</ele>
  </rtept>
  <rtept lat="52.065859995824589" lon="-0.742199987469046">
    <ele>68.7</ele>
  </rtept>
  <rtept lat="52.065839995824597" lon="-0.742129987469022">
    <ele>68.9</ele>
  </rtept>
  <rtept lat="52.065779995824528" lon="-0.742049987469015">
    <ele>69.1</ele>
  </rtept>
  <rtept lat="52.066019995824732" lon="-0.741649987468683">
    <ele>68.9</ele>
  </rtept>
  <rtept lat="52.066309995824959" lon="-0.741169987468284">
    <ele>68.3</ele>
  </rtept>
  <rtept lat="52.066379995825017" lon="-0.741029987468176">
    <ele>68.1</ele>
  </rtept>
  <rtept lat="52.066559995825145" lon="-0.740619987467872">
    <ele>67.8</ele>
  </rtept>
  <rtept lat="52.066609995825175" lon="-0.740519987467795">
    <ele>67.8</ele>
  </rtept>
  <rtept lat="52.066879995825396" lon="-0.740019987467398">
    <ele>67.9</ele>
  </rtept>
  <rtept lat="52.06696999582546" lon="-0.739849987467263">
    <ele>68.4</ele>
  </rtept>
  <rtept lat="52.067049995825535" lon="-0.739749987467169">
    <ele>68.8</ele>
  </rtept>
  <rtept lat="52.067089995825562" lon="-0.739679987467113">
    <ele>68.9</ele>
  </rtept>
  <rtept lat="52.067139995825613" lon="-0.739599987467045">
    <ele>69.0</ele>
  </rtept>
  <rtept lat="52.06720999582565" lon="-0.739489987466952">
    <ele>69.1</ele>
  </rtept>
  <rtept lat="52.067229995825663" lon="-0.739389987466891">
    <ele>69.0</ele>
  </rtept>
  <rtept lat="52.067259995825708" lon="-0.739259987466809">
    <ele>68.8</ele>
  </rtept>
  <rtept lat="52.067279995825707" lon="-0.739129987466733">
    <ele>68.5</ele>
  </rtept>
  <rtept lat="52.067279995825707" lon="-0.739129987466733">
    <ele>68.5</ele>
  </rtept>
  <rtept lat="52.067269995825697" lon="-0.738929987466638">
    <ele>68.1</ele>
  </rtept>
  <rtept lat="52.067239995825673" lon="-0.738689987466534">
    <ele>67.3</ele>
  </rtept>
  <rtept lat="52.067259995825687" lon="-0.738369987466363">
    <ele>66.4</ele>
  </rtept>
  <rtept lat="52.067269995825683" lon="-0.738299987466322">
    <ele>66.5</ele>
  </rtept>
  <rtept lat="52.067459995825843" lon="-0.737879987466007">
    <ele>67.0</ele>
  </rtept>
  <rtept lat="52.067539995825904" lon="-0.737719987465883">
    <ele>67.1</ele>
  </rtept>
  <rtept lat="52.067699995826025" lon="-0.737419987465647">
    <ele>66.7</ele>
  </rtept>
  <rtept lat="52.067739995826066" lon="-0.737339987465584">
    <ele>66.8</ele>
  </rtept>
  <rtept lat="52.068079995826331" lon="-0.737169987465315">
    <ele>67.0</ele>
  </rtept>
  <rtept lat="52.068439995826601" lon="-0.736399987464732">
    <ele>65.7</ele>
  </rtept>
  <rtept lat="52.068469995826632" lon="-0.73590998746447">
    <ele>65.9</ele>
  </rtept>
  <rtept lat="52.06849999582667" lon="-0.735859987464428">
    <ele>65.9</ele>
  </rtept>
  <rtept lat="52.068569995826714" lon="-0.73573998746433">
    <ele>65.7</ele>
  </rtept>
  <rtept lat="52.068949995827005" lon="-0.735039987463773">
    <ele>64.6</ele>
  </rtept>
  <rtept lat="52.069329995827303" lon="-0.73446998746328">
    <ele>65.6</ele>
  </rtept>
  <rtept lat="52.069429995827377" lon="-0.734339987463161">
    <ele>65.3</ele>
  </rtept>
  <rtept lat="52.069529995827494" lon="-0.734309987463093">
    <ele>64.6</ele>
  </rtept>
  <rtept lat="52.06962999582754" lon="-0.734319987463042">
    <ele>64.0</ele>
  </rtept>
  <rtept lat="52.069729995827629" lon="-0.734359987463008">
    <ele>63.4</ele>
  </rtept>
  <rtept lat="52.069789995827662" lon="-0.73434998746297">
    <ele>63.0</ele>
  </rtept>
  <rtept lat="52.069829995827703" lon="-0.734339987462944">
    <ele>62.8</ele>
  </rtept>
  <rtept lat="52.069899995827754" lon="-0.73422998746285">
    <ele>62.8</ele>
  </rtept>
</rte>
</gpx>
