<?xml version="1.0"?>
<gpx version="1.1" creator="GDAL 2.2.3" xmlns:xsi="http://www.w3.org/2001/XMLSchema-instance" xmlns="http://www.topografix.com/GPX/1/1" xsi:schemaLocation="http://www.topografix.com/GPX/1/1 http://www.topografix.com/GPX/1/1/gpx.xsd">
<metadata><bounds minlat="52.049840000000003" minlon="-0.765540000000000" maxlat="52.086550000000003" maxlon="-0.717820000000000"/></metadata>                  
<trk>
  <trkseg>
    <trkpt lat="52.05069" lon="-0.72587">
        <ele>65.5</ele>
    </trkpt>
    <trkpt lat="52.05078" lon="-0.72524">
        <ele>63.7</ele>
    </trkpt>
    <trkpt lat="52.05078" lon="-0.72525">
        <ele>63.7</ele>
    </trkpt>
    <trkpt lat="52.05087" lon="-0.72457">
        <ele>62.2</ele>
    </trkpt>
    <trkpt lat="52.05088" lon="-0.72457">
        <ele>62.1</ele>
    </trkpt>
    <trkpt lat="52.0509" lon="-0.72455">
        <ele>62.1</ele>
    </trkpt>
    <trkpt lat="52.05091" lon="-0.72453">
        <ele>62.1</ele>
    </trkpt>
    <trkpt lat="52.05093" lon="-0.72448">
        <ele>62.1</ele>
    </trkpt>
    <trkpt lat="52.051" lon="-0.72449">
        <ele>62.3</ele>
    </trkpt>
    <trkpt lat="52.05108" lon="-0.7245">
        <ele>62.6</ele>
    </trkpt>
    <trkpt lat="52.05115" lon="-0.7245">
        <ele>62.9</ele>
    </trkpt>
    <trkpt lat="52.05121" lon="-0.72448">
        <ele>63.1</ele>
    </trkpt>
    <trkpt lat="52.05122" lon="-0.72448">
        <ele>63.1</ele>
    </trkpt>
    <trkpt lat="52.05129" lon="-0.72444">
        <ele>63.5</ele>
    </trkpt>
    <trkpt lat="52.05136" lon="-0.72438">
        <ele>63.8</ele>
    </trkpt>
    <trkpt lat="52.05141" lon="-0.72433">
        <ele>64.1</ele>
    </trkpt>
    <trkpt lat="52.05146" lon="-0.72426">
        <ele>64.5</ele>
    </trkpt>
    <trkpt lat="52.05151" lon="-0.72418">
        <ele>64.8</ele>
    </trkpt>
    <trkpt lat="52.05157" lon="-0.72407">
        <ele>64.6</ele>
    </trkpt>
    <trkpt lat="52.0516" lon="-0.72399">
        <ele>64.1</ele>
    </trkpt>
    <trkpt lat="52.05167" lon="-0.72395">
        <ele>63.6</ele>
    </trkpt>
    <trkpt lat="52.0517" lon="-0.72394">
        <ele>63.3</ele>
    </trkpt>
    <trkpt lat="52.05174" lon="-0.72393">
        <ele>63.0</ele>
    </trkpt>
    <trkpt lat="52.0518" lon="-0.72394">
        <ele>62.6</ele>
    </trkpt>
    <trkpt lat="52.05185" lon="-0.72396">
        <ele>62.6</ele>
    </trkpt>
    <trkpt lat="52.05188" lon="-0.72399">
        <ele>62.6</ele>
    </trkpt>
    <trkpt lat="52.0519" lon="-0.72401">
        <ele>62.6</ele>
    </trkpt>
    <trkpt lat="52.05193" lon="-0.72406">
        <ele>62.6</ele>
    </trkpt>
    <trkpt lat="52.05196" lon="-0.72411">
        <ele>62.6</ele>
    </trkpt>
    <trkpt lat="52.05207" lon="-0.72433">
        <ele>62.8</ele>
    </trkpt>
    <trkpt lat="52.05213" lon="-0.7244">
        <ele>63.1</ele>
    </trkpt>
    <trkpt lat="52.05219" lon="-0.72448">
        <ele>63.3</ele>
    </trkpt>
    <trkpt lat="52.05224" lon="-0.72451">
        <ele>63.4</ele>
    </trkpt>
    <trkpt lat="52.05238" lon="-0.7246">
        <ele>63.7</ele>
    </trkpt>
    <trkpt lat="52.05237" lon="-0.72463">
        <ele>63.8</ele>
    </trkpt>
    <trkpt lat="52.05237" lon="-0.72466">
        <ele>63.8</ele>
    </trkpt>
    <trkpt lat="52.05238" lon="-0.7247">
        <ele>63.8</ele>
    </trkpt>
    <trkpt lat="52.0524" lon="-0.72472">
        <ele>63.8</ele>
    </trkpt>
    <trkpt lat="52.05243" lon="-0.72474">
        <ele>63.8</ele>
    </trkpt>
    <trkpt lat="52.05245" lon="-0.72474">
        <ele>63.8</ele>
    </trkpt>
    <trkpt lat="52.05247" lon="-0.72472">
        <ele>63.9</ele>
    </trkpt>
    <trkpt lat="52.05249" lon="-0.7247">
        <ele>63.9</ele>
    </trkpt>
    <trkpt lat="52.05249" lon="-0.72469">
        <ele>63.9</ele>
    </trkpt>
    <trkpt lat="52.05255" lon="-0.72473">
        <ele>63.8</ele>
    </trkpt>
    <trkpt lat="52.05255" lon="-0.72473">
        <ele>63.8</ele>
    </trkpt>
    <trkpt lat="52.05264" lon="-0.7248">
        <ele>63.6</ele>
    </trkpt>
    <trkpt lat="52.05281" lon="-0.72495">
        <ele>63.4</ele>
    </trkpt>
    <trkpt lat="52.05304" lon="-0.72503">
        <ele>63.9</ele>
    </trkpt>
    <trkpt lat="52.05332" lon="-0.72508">
        <ele>64.7</ele>
    </trkpt>
    <trkpt lat="52.05356" lon="-0.72498">
        <ele>64.7</ele>
    </trkpt>
    <trkpt lat="52.05376" lon="-0.72483">
        <ele>64.3</ele>
    </trkpt>
    <trkpt lat="52.05389" lon="-0.72469">
        <ele>64.1</ele>
    </trkpt>
    <trkpt lat="52.05397" lon="-0.72456">
        <ele>63.9</ele>
    </trkpt>
    <trkpt lat="52.05417" lon="-0.72427">
        <ele>62.6</ele>
    </trkpt>
    <trkpt lat="52.0543" lon="-0.72404">
        <ele>62.2</ele>
    </trkpt>
    <trkpt lat="52.05437" lon="-0.72397">
        <ele>62.5</ele>
    </trkpt>
    <trkpt lat="52.05444" lon="-0.72392">
        <ele>62.8</ele>
    </trkpt>
    <trkpt lat="52.05458" lon="-0.72384">
        <ele>63.3</ele>
    </trkpt>
    <trkpt lat="52.05465" lon="-0.72384">
        <ele>63.4</ele>
    </trkpt>
    <trkpt lat="52.0548" lon="-0.72389">
        <ele>63.6</ele>
    </trkpt>
    <trkpt lat="52.05503" lon="-0.72394">
        <ele>63.8</ele>
    </trkpt>
    <trkpt lat="52.05522" lon="-0.724">
        <ele>63.6</ele>
    </trkpt>
    <trkpt lat="52.05526" lon="-0.72402">
        <ele>63.1</ele>
    </trkpt>
    <trkpt lat="52.05531" lon="-0.72405">
        <ele>62.4</ele>
    </trkpt>
    <trkpt lat="52.05572" lon="-0.72427">
        <ele>62.7</ele>
    </trkpt>
    <trkpt lat="52.05593" lon="-0.72438">
        <ele>64.4</ele>
    </trkpt>
    <trkpt lat="52.05611" lon="-0.72448">
        <ele>64.8</ele>
    </trkpt>
    <trkpt lat="52.05656" lon="-0.72412">
        <ele>63.3</ele>
    </trkpt>
    <trkpt lat="52.05682" lon="-0.72388">
        <ele>62.2</ele>
    </trkpt>
    <trkpt lat="52.0571" lon="-0.72364">
        <ele>61.2</ele>
    </trkpt>
    <trkpt lat="52.05732" lon="-0.72355">
        <ele>60.4</ele>
    </trkpt>
    <trkpt lat="52.05754" lon="-0.72348">
        <ele>59.5</ele>
    </trkpt>
    <trkpt lat="52.05758" lon="-0.72347">
        <ele>59.3</ele>
    </trkpt>
    <trkpt lat="52.05788" lon="-0.72341">
        <ele>58.7</ele>
    </trkpt>
    <trkpt lat="52.05806" lon="-0.72336">
        <ele>58.6</ele>
    </trkpt>
    <trkpt lat="52.05846" lon="-0.72331">
        <ele>58.7</ele>
    </trkpt>
    <trkpt lat="52.05909" lon="-0.7233">
        <ele>60.1</ele>
    </trkpt>
    <trkpt lat="52.05923" lon="-0.72327">
        <ele>60.9</ele>
    </trkpt>
    <trkpt lat="52.05938" lon="-0.7232">
        <ele>61.5</ele>
    </trkpt>
    <trkpt lat="52.05995" lon="-0.7228">
        <ele>62.4</ele>
    </trkpt>
    <trkpt lat="52.06032" lon="-0.72263">
        <ele>65.4</ele>
    </trkpt>
    <trkpt lat="52.0609" lon="-0.72243">
        <ele>67.5</ele>
    </trkpt>
    <trkpt lat="52.0613" lon="-0.72229">
        <ele>65.1</ele>
    </trkpt>
    <trkpt lat="52.06135" lon="-0.72227">
        <ele>64.9</ele>
    </trkpt>
    <trkpt lat="52.06142" lon="-0.72224">
        <ele>64.7</ele>
    </trkpt>
    <trkpt lat="52.06177" lon="-0.72207">
        <ele>63.9</ele>
    </trkpt>
    <trkpt lat="52.06208" lon="-0.72195">
        <ele>64.0</ele>
    </trkpt>
    <trkpt lat="52.06219" lon="-0.72193">
        <ele>64.2</ele>
    </trkpt>
    <trkpt lat="52.0628" lon="-0.72179">
        <ele>70.4</ele>
    </trkpt>
    <trkpt lat="52.06302" lon="-0.72162">
        <ele>71.0</ele>
    </trkpt>
    <trkpt lat="52.06314" lon="-0.72154">
        <ele>70.6</ele>
    </trkpt>
    <trkpt lat="52.06329" lon="-0.7218">
        <ele>70.7</ele>
    </trkpt>
    <trkpt lat="52.06312" lon="-0.72262">
        <ele>70.4</ele>
    </trkpt>
    <trkpt lat="52.06303" lon="-0.7237">
        <ele>66.9</ele>
    </trkpt>
    <trkpt lat="52.063" lon="-0.72458">
        <ele>67.4</ele>
    </trkpt>
    <trkpt lat="52.06298" lon="-0.72527">
        <ele>68.7</ele>
    </trkpt>
    <trkpt lat="52.06296" lon="-0.72578">
        <ele>70.8</ele>
    </trkpt>
    <trkpt lat="52.06295" lon="-0.72589">
        <ele>71.2</ele>
    </trkpt>
    <trkpt lat="52.06295" lon="-0.72604">
        <ele>71.9</ele>
    </trkpt>
    <trkpt lat="52.06343" lon="-0.72607">
        <ele>72.7</ele>
    </trkpt>
    <trkpt lat="52.06359" lon="-0.72612">
        <ele>72.2</ele>
    </trkpt>
    <trkpt lat="52.06368" lon="-0.72615">
        <ele>72.0</ele>
    </trkpt>
    <trkpt lat="52.06377" lon="-0.72626">
        <ele>71.7</ele>
    </trkpt>
    <trkpt lat="52.06384" lon="-0.72643">
        <ele>71.4</ele>
    </trkpt>
    <trkpt lat="52.06392" lon="-0.72636">
        <ele>71.1</ele>
    </trkpt>
    <trkpt lat="52.0641" lon="-0.72621">
        <ele>70.6</ele>
    </trkpt>
    <trkpt lat="52.06423" lon="-0.72612">
        <ele>70.5</ele>
    </trkpt>
    <trkpt lat="52.06428" lon="-0.72608">
        <ele>70.7</ele>
    </trkpt>
    <trkpt lat="52.06439" lon="-0.72603">
        <ele>71.0</ele>
    </trkpt>
    <trkpt lat="52.06456" lon="-0.72601">
        <ele>71.6</ele>
    </trkpt>
    <trkpt lat="52.06472" lon="-0.72603">
        <ele>72.1</ele>
    </trkpt>
    <trkpt lat="52.06481" lon="-0.72606">
        <ele>72.4</ele>
    </trkpt>
    <trkpt lat="52.06495" lon="-0.72611">
        <ele>72.0</ele>
    </trkpt>
    <trkpt lat="52.06514" lon="-0.7262">
        <ele>71.3</ele>
    </trkpt>
    <trkpt lat="52.06525" lon="-0.72625">
        <ele>70.8</ele>
    </trkpt>
    <trkpt lat="52.06527" lon="-0.72627">
        <ele>70.7</ele>
    </trkpt>
    <trkpt lat="52.06545" lon="-0.72635">
        <ele>69.9</ele>
    </trkpt>
    <trkpt lat="52.06561" lon="-0.72641">
        <ele>69.9</ele>
    </trkpt>
    <trkpt lat="52.06567" lon="-0.72667">
        <ele>70.0</ele>
    </trkpt>
    <trkpt lat="52.06564" lon="-0.72709">
        <ele>70.3</ele>
    </trkpt>
    <trkpt lat="52.06577" lon="-0.72745">
        <ele>69.7</ele>
    </trkpt>
    <trkpt lat="52.06596" lon="-0.72758">
        <ele>69.0</ele>
    </trkpt>
    <trkpt lat="52.06692" lon="-0.7283">
        <ele>66.5</ele>
    </trkpt>
    <trkpt lat="52.06767" lon="-0.72908">
        <ele>66.1</ele>
    </trkpt>
    <trkpt lat="52.06805" lon="-0.72938">
        <ele>66.5</ele>
    </trkpt>
    <trkpt lat="52.06823" lon="-0.72988">
        <ele>67.2</ele>
    </trkpt>
    <trkpt lat="52.06847" lon="-0.73032">
        <ele>67.0</ele>
    </trkpt>
    <trkpt lat="52.06858" lon="-0.73052">
        <ele>66.6</ele>
    </trkpt>
    <trkpt lat="52.06919" lon="-0.73187">
        <ele>64.6</ele>
    </trkpt>
    <trkpt lat="52.06967" lon="-0.7335">
        <ele>64.5</ele>
    </trkpt>
    <trkpt lat="52.06976" lon="-0.73383">
        <ele>64.0</ele>
    </trkpt>
    <trkpt lat="52.06991" lon="-0.7338">
        <ele>63.6</ele>
    </trkpt>
    <trkpt lat="52.07001" lon="-0.73355">
        <ele>62.9</ele>
    </trkpt>
    <trkpt lat="52.07008" lon="-0.73346">
        <ele>62.5</ele>
    </trkpt>
    <trkpt lat="52.07026" lon="-0.73321">
        <ele>61.5</ele>
    </trkpt>
    <trkpt lat="52.07046" lon="-0.73293">
        <ele>60.4</ele>
    </trkpt>
    <trkpt lat="52.07078" lon="-0.73247">
        <ele>61.2</ele>
    </trkpt>
    <trkpt lat="52.07106" lon="-0.73208">
        <ele>62.6</ele>
    </trkpt>
    <trkpt lat="52.0713" lon="-0.73174">
        <ele>63.4</ele>
    </trkpt>
    <trkpt lat="52.0714" lon="-0.73161">
        <ele>63.7</ele>
    </trkpt>
    <trkpt lat="52.07172" lon="-0.73136">
        <ele>64.0</ele>
    </trkpt>
    <trkpt lat="52.07203" lon="-0.73131">
        <ele>64.3</ele>
    </trkpt>
    <trkpt lat="52.07281" lon="-0.73137">
        <ele>65.4</ele>
    </trkpt>
    <trkpt lat="52.07301" lon="-0.7313">
        <ele>65.4</ele>
    </trkpt>
    <trkpt lat="52.07317" lon="-0.73113">
        <ele>65.0</ele>
    </trkpt>
    <trkpt lat="52.07356" lon="-0.7306">
        <ele>63.6</ele>
    </trkpt>
    <trkpt lat="52.0738" lon="-0.73014">
        <ele>64.2</ele>
    </trkpt>
    <trkpt lat="52.07434" lon="-0.7285">
        <ele>61.0</ele>
    </trkpt>
    <trkpt lat="52.07462" lon="-0.72774">
        <ele>63.8</ele>
    </trkpt>
    <trkpt lat="52.07513" lon="-0.72666">
        <ele>61.6</ele>
    </trkpt>
    <trkpt lat="52.07518" lon="-0.7265">
        <ele>61.8</ele>
    </trkpt>
    <trkpt lat="52.07518" lon="-0.72557">
        <ele>61.7</ele>
    </trkpt>
    <trkpt lat="52.07527" lon="-0.72529">
        <ele>61.3</ele>
    </trkpt>
    <trkpt lat="52.07566" lon="-0.72474">
        <ele>60.4</ele>
    </trkpt>
    <trkpt lat="52.07649" lon="-0.72422">
        <ele>59.4</ele>
    </trkpt>
    <trkpt lat="52.07683" lon="-0.72412">
        <ele>59.5</ele>
    </trkpt>
    <trkpt lat="52.07742" lon="-0.72373">
        <ele>61.3</ele>
    </trkpt>
    <trkpt lat="52.07753" lon="-0.72363">
        <ele>61.1</ele>
    </trkpt>
    <trkpt lat="52.07774" lon="-0.72343">
        <ele>60.2</ele>
    </trkpt>
    <trkpt lat="52.07806" lon="-0.72299">
        <ele>59.2</ele>
    </trkpt>
    <trkpt lat="52.07814" lon="-0.72313">
        <ele>59.2</ele>
    </trkpt>
    <trkpt lat="52.07824" lon="-0.72306">
        <ele>59.2</ele>
    </trkpt>
    <trkpt lat="52.07846" lon="-0.72304">
        <ele>59.0</ele>
    </trkpt>
    <trkpt lat="52.07847" lon="-0.72298">
        <ele>59.0</ele>
    </trkpt>
    <trkpt lat="52.07849" lon="-0.7229">
        <ele>58.9</ele>
    </trkpt>
    <trkpt lat="52.07853" lon="-0.72272">
        <ele>58.8</ele>
    </trkpt>
    <trkpt lat="52.0786" lon="-0.72261">
        <ele>58.7</ele>
    </trkpt>
    <trkpt lat="52.07869" lon="-0.72246">
        <ele>58.5</ele>
    </trkpt>
    <trkpt lat="52.07873" lon="-0.72238">
        <ele>58.4</ele>
    </trkpt>
    <trkpt lat="52.07881" lon="-0.72225">
        <ele>58.3</ele>
    </trkpt>
    <trkpt lat="52.0789" lon="-0.7221">
        <ele>58.1</ele>
    </trkpt>
    <trkpt lat="52.07919" lon="-0.72189">
        <ele>57.7</ele>
    </trkpt>
    <trkpt lat="52.07936" lon="-0.72177">
        <ele>57.5</ele>
    </trkpt>
    <trkpt lat="52.07948" lon="-0.72171">
        <ele>57.5</ele>
    </trkpt>
    <trkpt lat="52.07961" lon="-0.72162">
        <ele>57.5</ele>
    </trkpt>
    <trkpt lat="52.07968" lon="-0.72157">
        <ele>57.5</ele>
    </trkpt>
    <trkpt lat="52.07979" lon="-0.72154">
        <ele>57.6</ele>
    </trkpt>
    <trkpt lat="52.07984" lon="-0.72152">
        <ele>57.7</ele>
    </trkpt>
    <trkpt lat="52.07995" lon="-0.72154">
        <ele>57.8</ele>
    </trkpt>
    <trkpt lat="52.08007" lon="-0.7216">
        <ele>57.9</ele>
    </trkpt>
    <trkpt lat="52.08009" lon="-0.72156">
        <ele>58.0</ele>
    </trkpt>
    <trkpt lat="52.08013" lon="-0.72145">
        <ele>58.0</ele>
    </trkpt>
    <trkpt lat="52.08009" lon="-0.72141">
        <ele>58.0</ele>
    </trkpt>
    <trkpt lat="52.07999" lon="-0.72133">
        <ele>58.0</ele>
    </trkpt>
    <trkpt lat="52.08043" lon="-0.72008">
        <ele>57.2</ele>
    </trkpt>
    <trkpt lat="52.08052" lon="-0.71984">
        <ele>56.7</ele>
    </trkpt>
    <trkpt lat="52.08066" lon="-0.71954">
        <ele>56.5</ele>
    </trkpt>
    <trkpt lat="52.08072" lon="-0.71941">
        <ele>56.6</ele>
    </trkpt>
    <trkpt lat="52.08076" lon="-0.71941">
        <ele>56.6</ele>
    </trkpt>
    <trkpt lat="52.0808" lon="-0.71945">
        <ele>56.7</ele>
    </trkpt>
    <trkpt lat="52.08102" lon="-0.7198">
        <ele>56.7</ele>
    </trkpt>
    <trkpt lat="52.08113" lon="-0.71999">
        <ele>56.2</ele>
    </trkpt>
    <trkpt lat="52.08124" lon="-0.72019">
        <ele>55.9</ele>
    </trkpt>
    <trkpt lat="52.08136" lon="-0.72045">
        <ele>55.7</ele>
    </trkpt>
    <trkpt lat="52.08136" lon="-0.72045">
        <ele>55.7</ele>
    </trkpt>
    <trkpt lat="52.08152" lon="-0.72083">
        <ele>55.1</ele>
    </trkpt>
    <trkpt lat="52.08162" lon="-0.72105">
        <ele>54.4</ele>
    </trkpt>
    <trkpt lat="52.08174" lon="-0.72126">
        <ele>53.4</ele>
    </trkpt>
    <trkpt lat="52.08184" lon="-0.72147">
        <ele>53.5</ele>
    </trkpt>
    <trkpt lat="52.08187" lon="-0.72163">
        <ele>54.2</ele>
    </trkpt>
    <trkpt lat="52.0819" lon="-0.72192">
        <ele>55.3</ele>
    </trkpt>
    <trkpt lat="52.0819" lon="-0.7222">
        <ele>56.9</ele>
    </trkpt>
    <trkpt lat="52.08188" lon="-0.72248">
        <ele>58.1</ele>
    </trkpt>
    <trkpt lat="52.08187" lon="-0.72261">
        <ele>58.3</ele>
    </trkpt>
    <trkpt lat="52.08188" lon="-0.72271">
        <ele>58.4</ele>
    </trkpt>
    <trkpt lat="52.08191" lon="-0.7228">
        <ele>58.5</ele>
    </trkpt>
    <trkpt lat="52.08197" lon="-0.72292">
        <ele>58.5</ele>
    </trkpt>
    <trkpt lat="52.08206" lon="-0.72303">
        <ele>58.3</ele>
    </trkpt>
    <trkpt lat="52.08215" lon="-0.72308">
        <ele>58.1</ele>
    </trkpt>
    <trkpt lat="52.08228" lon="-0.72311">
        <ele>58.0</ele>
    </trkpt>
    <trkpt lat="52.08241" lon="-0.72307">
        <ele>58.2</ele>
    </trkpt>
    <trkpt lat="52.08256" lon="-0.72298">
        <ele>58.3</ele>
    </trkpt>
    <trkpt lat="52.08266" lon="-0.72292">
        <ele>58.3</ele>
    </trkpt>
    <trkpt lat="52.08281" lon="-0.7229">
        <ele>58.2</ele>
    </trkpt>
    <trkpt lat="52.08288" lon="-0.72289">
        <ele>58.2</ele>
    </trkpt>
    <trkpt lat="52.08296" lon="-0.72284">
        <ele>58.1</ele>
    </trkpt>
    <trkpt lat="52.08306" lon="-0.72274">
        <ele>57.9</ele>
    </trkpt>
    <trkpt lat="52.08313" lon="-0.72257">
        <ele>57.7</ele>
    </trkpt>
    <trkpt lat="52.08322" lon="-0.72227">
        <ele>57.6</ele>
    </trkpt>
    <trkpt lat="52.08329" lon="-0.72206">
        <ele>57.6</ele>
    </trkpt>
    <trkpt lat="52.08337" lon="-0.72188">
        <ele>58.2</ele>
    </trkpt>
    <trkpt lat="52.08347" lon="-0.72174">
        <ele>58.7</ele>
    </trkpt>
    <trkpt lat="52.08362" lon="-0.72158">
        <ele>59.0</ele>
    </trkpt>
    <trkpt lat="52.08377" lon="-0.72144">
        <ele>59.3</ele>
    </trkpt>
    <trkpt lat="52.08387" lon="-0.72138">
        <ele>59.1</ele>
    </trkpt>
    <trkpt lat="52.08406" lon="-0.72131">
        <ele>58.6</ele>
    </trkpt>
    <trkpt lat="52.08432" lon="-0.72115">
        <ele>58.2</ele>
    </trkpt>
    <trkpt lat="52.08437" lon="-0.72108">
        <ele>58.2</ele>
    </trkpt>
    <trkpt lat="52.0844" lon="-0.72103">
        <ele>58.1</ele>
    </trkpt>
    <trkpt lat="52.08442" lon="-0.72093">
        <ele>58.1</ele>
    </trkpt>
    <trkpt lat="52.08443" lon="-0.7208">
        <ele>58.0</ele>
    </trkpt>
    <trkpt lat="52.08443" lon="-0.72076">
        <ele>58.0</ele>
    </trkpt>
    <trkpt lat="52.08441" lon="-0.72039">
        <ele>57.8</ele>
    </trkpt>
    <trkpt lat="52.0844" lon="-0.72021">
        <ele>57.6</ele>
    </trkpt>
    <trkpt lat="52.08439" lon="-0.72003">
        <ele>57.5</ele>
    </trkpt>
    <trkpt lat="52.08437" lon="-0.71974">
        <ele>57.6</ele>
    </trkpt>
    <trkpt lat="52.0843" lon="-0.71976">
        <ele>57.6</ele>
    </trkpt>
    <trkpt lat="52.08403" lon="-0.71976">
        <ele>57.8</ele>
    </trkpt>
    <trkpt lat="52.08393" lon="-0.71975">
        <ele>57.9</ele>
    </trkpt>
    <trkpt lat="52.08393" lon="-0.71943">
        <ele>57.6</ele>
    </trkpt>
    <trkpt lat="52.08392" lon="-0.71934">
        <ele>57.6</ele>
    </trkpt>
    <trkpt lat="52.08387" lon="-0.7189">
        <ele>58.1</ele>
    </trkpt>
    <trkpt lat="52.08386" lon="-0.71878">
        <ele>58.3</ele>
    </trkpt>
    <trkpt lat="52.08396" lon="-0.71874">
        <ele>58.6</ele>
    </trkpt>
    <trkpt lat="52.08414" lon="-0.71861">
        <ele>59.3</ele>
    </trkpt>
    <trkpt lat="52.08431" lon="-0.71844">
        <ele>59.7</ele>
    </trkpt>
    <trkpt lat="52.08461" lon="-0.71815">
        <ele>59.6</ele>
    </trkpt>
    <trkpt lat="52.08465" lon="-0.71811">
        <ele>59.5</ele>
    </trkpt>
    <trkpt lat="52.08473" lon="-0.71803">
        <ele>59.3</ele>
    </trkpt>
    <trkpt lat="52.08479" lon="-0.71797">
        <ele>59.2</ele>
    </trkpt>
    <trkpt lat="52.08493" lon="-0.71782">
        <ele>58.8</ele>
    </trkpt>
    <trkpt lat="52.08499" lon="-0.71797">
        <ele>58.6</ele>
    </trkpt>
    <trkpt lat="52.08504" lon="-0.71811">
        <ele>58.5</ele>
    </trkpt>
    <trkpt lat="52.08506" lon="-0.71816">
        <ele>58.5</ele>
    </trkpt>
    <trkpt lat="52.08512" lon="-0.7183">
        <ele>58.3</ele>
    </trkpt>
    <trkpt lat="52.08516" lon="-0.7184">
        <ele>58.2</ele>
    </trkpt>
    <trkpt lat="52.08525" lon="-0.71862">
        <ele>58.4</ele>
    </trkpt>
    <trkpt lat="52.08538" lon="-0.71884">
        <ele>58.8</ele>
    </trkpt>
    <trkpt lat="52.08549" lon="-0.71905">
        <ele>58.8</ele>
    </trkpt>
    <trkpt lat="52.08556" lon="-0.71922">
        <ele>58.9</ele>
    </trkpt>
    <trkpt lat="52.08567" lon="-0.71949">
        <ele>58.8</ele>
    </trkpt>
    <trkpt lat="52.08596" lon="-0.72044">
        <ele>60.5</ele>
    </trkpt>
    <trkpt lat="52.086" lon="-0.72057">
        <ele>61.1</ele>
    </trkpt>
    <trkpt lat="52.08618" lon="-0.7212">
        <ele>63.9</ele>
    </trkpt>
    <trkpt lat="52.08622" lon="-0.72132">
        <ele>64.2</ele>
    </trkpt>
    <trkpt lat="52.08631" lon="-0.72163">
        <ele>64.8</ele>
    </trkpt>
    <trkpt lat="52.08641" lon="-0.72191">
        <ele>64.4</ele>
    </trkpt>
    <trkpt lat="52.08648" lon="-0.72202">
        <ele>64.1</ele>
    </trkpt>
    <trkpt lat="52.08655" lon="-0.7221">
        <ele>63.7</ele>
    </trkpt>
    <trkpt lat="52.08644" lon="-0.72225">
        <ele>63.2</ele>
    </trkpt>
    <trkpt lat="52.08606" lon="-0.7224">
        <ele>60.9</ele>
    </trkpt>
    <trkpt lat="52.08584" lon="-0.72248">
        <ele>59.4</ele>
    </trkpt>
    <trkpt lat="52.08525" lon="-0.7227">
        <ele>57.8</ele>
    </trkpt>
    <trkpt lat="52.08506" lon="-0.72288">
        <ele>58.1</ele>
    </trkpt>
    <trkpt lat="52.08496" lon="-0.7229">
        <ele>58.4</ele>
    </trkpt>
    <trkpt lat="52.08473" lon="-0.72294">
        <ele>59.0</ele>
    </trkpt>
    <trkpt lat="52.08464" lon="-0.72295">
        <ele>59.1</ele>
    </trkpt>
    <trkpt lat="52.08456" lon="-0.72302">
        <ele>59.1</ele>
    </trkpt>
    <trkpt lat="52.08447" lon="-0.72312">
        <ele>59.1</ele>
    </trkpt>
    <trkpt lat="52.08437" lon="-0.72326">
        <ele>59.2</ele>
    </trkpt>
    <trkpt lat="52.0843" lon="-0.72342">
        <ele>59.4</ele>
    </trkpt>
    <trkpt lat="52.08412" lon="-0.72391">
        <ele>59.5</ele>
    </trkpt>
    <trkpt lat="52.08406" lon="-0.72401">
        <ele>59.4</ele>
    </trkpt>
    <trkpt lat="52.08388" lon="-0.72433">
        <ele>58.8</ele>
    </trkpt>
    <trkpt lat="52.08364" lon="-0.72471">
        <ele>58.3</ele>
    </trkpt>
    <trkpt lat="52.08353" lon="-0.72482">
        <ele>58.5</ele>
    </trkpt>
    <trkpt lat="52.08346" lon="-0.72487">
        <ele>58.5</ele>
    </trkpt>
    <trkpt lat="52.08355" lon="-0.72512">
        <ele>58.7</ele>
    </trkpt>
    <trkpt lat="52.08361" lon="-0.72537">
        <ele>58.8</ele>
    </trkpt>
    <trkpt lat="52.08365" lon="-0.72556">
        <ele>58.8</ele>
    </trkpt>
    <trkpt lat="52.08366" lon="-0.72577">
        <ele>58.8</ele>
    </trkpt>
    <trkpt lat="52.08367" lon="-0.72598">
        <ele>58.8</ele>
    </trkpt>
    <trkpt lat="52.08372" lon="-0.72632">
        <ele>58.7</ele>
    </trkpt>
    <trkpt lat="52.08379" lon="-0.7267">
        <ele>58.4</ele>
    </trkpt>
    <trkpt lat="52.08397" lon="-0.72765">
        <ele>58.5</ele>
    </trkpt>
    <trkpt lat="52.08413" lon="-0.72813">
        <ele>58.0</ele>
    </trkpt>
    <trkpt lat="52.08407" lon="-0.72828">
        <ele>58.0</ele>
    </trkpt>
    <trkpt lat="52.08396" lon="-0.72845">
        <ele>58.0</ele>
    </trkpt>
    <trkpt lat="52.08373" lon="-0.72881">
        <ele>58.2</ele>
    </trkpt>
    <trkpt lat="52.08366" lon="-0.7291">
        <ele>58.3</ele>
    </trkpt>
    <trkpt lat="52.08361" lon="-0.72939">
        <ele>58.4</ele>
    </trkpt>
    <trkpt lat="52.08357" lon="-0.72957">
        <ele>58.7</ele>
    </trkpt>
    <trkpt lat="52.08348" lon="-0.72989">
        <ele>59.1</ele>
    </trkpt>
    <trkpt lat="52.08352" lon="-0.72993">
        <ele>59.1</ele>
    </trkpt>
    <trkpt lat="52.08364" lon="-0.73006">
        <ele>59.0</ele>
    </trkpt>
    <trkpt lat="52.0837" lon="-0.73022">
        <ele>59.0</ele>
    </trkpt>
    <trkpt lat="52.08363" lon="-0.73045">
        <ele>59.1</ele>
    </trkpt>
    <trkpt lat="52.08357" lon="-0.7306">
        <ele>59.1</ele>
    </trkpt>
    <trkpt lat="52.08351" lon="-0.73074">
        <ele>59.1</ele>
    </trkpt>
    <trkpt lat="52.08344" lon="-0.73091">
        <ele>59.1</ele>
    </trkpt>
    <trkpt lat="52.08341" lon="-0.73099">
        <ele>59.0</ele>
    </trkpt>
    <trkpt lat="52.08335" lon="-0.7311">
        <ele>59.0</ele>
    </trkpt>
    <trkpt lat="52.08331" lon="-0.73128">
        <ele>59.0</ele>
    </trkpt>
    <trkpt lat="52.08328" lon="-0.73144">
        <ele>59.0</ele>
    </trkpt>
    <trkpt lat="52.08326" lon="-0.73154">
        <ele>59.0</ele>
    </trkpt>
    <trkpt lat="52.08321" lon="-0.73173">
        <ele>59.1</ele>
    </trkpt>
    <trkpt lat="52.0831" lon="-0.73242">
        <ele>59.7</ele>
    </trkpt>
    <trkpt lat="52.08306" lon="-0.73271">
        <ele>60.2</ele>
    </trkpt>
    <trkpt lat="52.08297" lon="-0.73338">
        <ele>61.9</ele>
    </trkpt>
    <trkpt lat="52.08284" lon="-0.73415">
        <ele>63.0</ele>
    </trkpt>
    <trkpt lat="52.08283" lon="-0.73424">
        <ele>63.0</ele>
    </trkpt>
    <trkpt lat="52.0828" lon="-0.73438">
        <ele>63.3</ele>
    </trkpt>
    <trkpt lat="52.08262" lon="-0.73518">
        <ele>64.8</ele>
    </trkpt>
    <trkpt lat="52.08259" lon="-0.73533">
        <ele>65.0</ele>
    </trkpt>
    <trkpt lat="52.08233" lon="-0.7361">
        <ele>64.3</ele>
    </trkpt>
    <trkpt lat="52.08227" lon="-0.73628">
        <ele>64.1</ele>
    </trkpt>
    <trkpt lat="52.08224" lon="-0.73637">
        <ele>64.1</ele>
    </trkpt>
    <trkpt lat="52.082" lon="-0.73708">
        <ele>64.0</ele>
    </trkpt>
    <trkpt lat="52.08193" lon="-0.73729">
        <ele>64.0</ele>
    </trkpt>
    <trkpt lat="52.08169" lon="-0.73793">
        <ele>64.0</ele>
    </trkpt>
    <trkpt lat="52.08138" lon="-0.73873">
        <ele>64.4</ele>
    </trkpt>
    <trkpt lat="52.08125" lon="-0.73907">
        <ele>64.8</ele>
    </trkpt>
    <trkpt lat="52.08071" lon="-0.74052">
        <ele>66.9</ele>
    </trkpt>
    <trkpt lat="52.0805" lon="-0.74116">
        <ele>67.0</ele>
    </trkpt>
    <trkpt lat="52.08038" lon="-0.74152">
        <ele>67.5</ele>
    </trkpt>
    <trkpt lat="52.0802" lon="-0.74199">
        <ele>68.6</ele>
    </trkpt>
    <trkpt lat="52.08014" lon="-0.7424">
        <ele>69.3</ele>
    </trkpt>
    <trkpt lat="52.08009" lon="-0.74261">
        <ele>68.9</ele>
    </trkpt>
    <trkpt lat="52.07999" lon="-0.74287">
        <ele>68.3</ele>
    </trkpt>
    <trkpt lat="52.07978" lon="-0.74337">
        <ele>67.5</ele>
    </trkpt>
    <trkpt lat="52.07965" lon="-0.74365">
        <ele>67.4</ele>
    </trkpt>
    <trkpt lat="52.07936" lon="-0.7443">
        <ele>67.4</ele>
    </trkpt>
    <trkpt lat="52.07904" lon="-0.74489">
        <ele>68.1</ele>
    </trkpt>
    <trkpt lat="52.07894" lon="-0.74508">
        <ele>68.1</ele>
    </trkpt>
    <trkpt lat="52.0785" lon="-0.74567">
        <ele>68.1</ele>
    </trkpt>
    <trkpt lat="52.07798" lon="-0.74644">
        <ele>67.3</ele>
    </trkpt>
    <trkpt lat="52.07784" lon="-0.74671">
        <ele>67.9</ele>
    </trkpt>
    <trkpt lat="52.07776" lon="-0.74689">
        <ele>68.3</ele>
    </trkpt>
    <trkpt lat="52.07769" lon="-0.747">
        <ele>68.5</ele>
    </trkpt>
    <trkpt lat="52.07755" lon="-0.74729">
        <ele>68.9</ele>
    </trkpt>
    <trkpt lat="52.07745" lon="-0.74748">
        <ele>68.9</ele>
    </trkpt>
    <trkpt lat="52.07739" lon="-0.74761">
        <ele>69.0</ele>
    </trkpt>
    <trkpt lat="52.07717" lon="-0.74814">
        <ele>69.0</ele>
    </trkpt>
    <trkpt lat="52.07716" lon="-0.74817">
        <ele>69.0</ele>
    </trkpt>
    <trkpt lat="52.07701" lon="-0.74851">
        <ele>69.1</ele>
    </trkpt>
    <trkpt lat="52.07692" lon="-0.74878">
        <ele>69.4</ele>
    </trkpt>
    <trkpt lat="52.07663" lon="-0.74958">
        <ele>70.9</ele>
    </trkpt>
    <trkpt lat="52.07648" lon="-0.75019">
        <ele>71.6</ele>
    </trkpt>
    <trkpt lat="52.07638" lon="-0.75061">
        <ele>71.9</ele>
    </trkpt>
    <trkpt lat="52.07619" lon="-0.75162">
        <ele>71.9</ele>
    </trkpt>
    <trkpt lat="52.07616" lon="-0.75183">
        <ele>71.9</ele>
    </trkpt>
    <trkpt lat="52.07615" lon="-0.75195">
        <ele>72.0</ele>
    </trkpt>
    <trkpt lat="52.07612" lon="-0.75216">
        <ele>72.0</ele>
    </trkpt>
    <trkpt lat="52.0761" lon="-0.7524">
        <ele>72.0</ele>
    </trkpt>
    <trkpt lat="52.07587" lon="-0.75366">
        <ele>71.1</ele>
    </trkpt>
    <trkpt lat="52.07573" lon="-0.75438">
        <ele>69.9</ele>
    </trkpt>
    <trkpt lat="52.07567" lon="-0.75466">
        <ele>70.0</ele>
    </trkpt>
    <trkpt lat="52.07524" lon="-0.75648">
        <ele>68.6</ele>
    </trkpt>
    <trkpt lat="52.07506" lon="-0.7573">
        <ele>70.0</ele>
    </trkpt>
    <trkpt lat="52.07469" lon="-0.75889">
        <ele>71.5</ele>
    </trkpt>
    <trkpt lat="52.07462" lon="-0.75922">
        <ele>72.2</ele>
    </trkpt>
    <trkpt lat="52.07446" lon="-0.7599">
        <ele>73.3</ele>
    </trkpt>
    <trkpt lat="52.07435" lon="-0.76034">
        <ele>71.8</ele>
    </trkpt>
    <trkpt lat="52.07416" lon="-0.76106">
        <ele>71.0</ele>
    </trkpt>
    <trkpt lat="52.07406" lon="-0.76138">
        <ele>71.8</ele>
    </trkpt>
    <trkpt lat="52.07387" lon="-0.76195">
        <ele>73.7</ele>
    </trkpt>
    <trkpt lat="52.07366" lon="-0.76251">
        <ele>75.7</ele>
    </trkpt>
    <trkpt lat="52.07349" lon="-0.76298">
        <ele>76.3</ele>
    </trkpt>
    <trkpt lat="52.07318" lon="-0.76372">
        <ele>76.2</ele>
    </trkpt>
    <trkpt lat="52.07278" lon="-0.76445">
        <ele>75.1</ele>
    </trkpt>
    <trkpt lat="52.0726" lon="-0.76474">
        <ele>75.7</ele>
    </trkpt>
    <trkpt lat="52.07252" lon="-0.76484">
        <ele>76.0</ele>
    </trkpt>
    <trkpt lat="52.0724" lon="-0.76503">
        <ele>76.8</ele>
    </trkpt>
    <trkpt lat="52.07219" lon="-0.76532">
        <ele>78.4</ele>
    </trkpt>
    <trkpt lat="52.07202" lon="-0.76554">
        <ele>79.7</ele>
    </trkpt>
    <trkpt lat="52.07203" lon="-0.76543">
        <ele>79.8</ele>
    </trkpt>
    <trkpt lat="52.07213" lon="-0.76521">
        <ele>79.3</ele>
    </trkpt>
    <trkpt lat="52.07222" lon="-0.76505">
        <ele>79.2</ele>
    </trkpt>
    <trkpt lat="52.07222" lon="-0.76499">
        <ele>79.2</ele>
    </trkpt>
    <trkpt lat="52.0723" lon="-0.76424">
        <ele>79.4</ele>
    </trkpt>
    <trkpt lat="52.07234" lon="-0.76401">
        <ele>78.8</ele>
    </trkpt>
    <trkpt lat="52.07237" lon="-0.76389">
        <ele>78.4</ele>
    </trkpt>
    <trkpt lat="52.07243" lon="-0.7638">
        <ele>78.1</ele>
    </trkpt>
    <trkpt lat="52.07247" lon="-0.76374">
        <ele>77.8</ele>
    </trkpt>
    <trkpt lat="52.07254" lon="-0.76364">
        <ele>77.4</ele>
    </trkpt>
    <trkpt lat="52.07259" lon="-0.76354">
        <ele>77.1</ele>
    </trkpt>
    <trkpt lat="52.07276" lon="-0.76307">
        <ele>76.3</ele>
    </trkpt>
    <trkpt lat="52.07283" lon="-0.76286">
        <ele>76.1</ele>
    </trkpt>
    <trkpt lat="52.07286" lon="-0.76266">
        <ele>75.9</ele>
    </trkpt>
    <trkpt lat="52.07287" lon="-0.76257">
        <ele>75.8</ele>
    </trkpt>
    <trkpt lat="52.07289" lon="-0.76239">
        <ele>75.6</ele>
    </trkpt>
    <trkpt lat="52.07292" lon="-0.76194">
        <ele>75.4</ele>
    </trkpt>
    <trkpt lat="52.07295" lon="-0.76157">
        <ele>75.9</ele>
    </trkpt>
    <trkpt lat="52.07298" lon="-0.76117">
        <ele>77.0</ele>
    </trkpt>
    <trkpt lat="52.07302" lon="-0.76046">
        <ele>78.3</ele>
    </trkpt>
    <trkpt lat="52.07301" lon="-0.76034">
        <ele>78.4</ele>
    </trkpt>
    <trkpt lat="52.07301" lon="-0.76014">
        <ele>78.5</ele>
    </trkpt>
    <trkpt lat="52.07296" lon="-0.75982">
        <ele>78.5</ele>
    </trkpt>
    <trkpt lat="52.0729" lon="-0.7596">
        <ele>78.5</ele>
    </trkpt>
    <trkpt lat="52.07285" lon="-0.75941">
        <ele>78.6</ele>
    </trkpt>
    <trkpt lat="52.07278" lon="-0.75919">
        <ele>78.8</ele>
    </trkpt>
    <trkpt lat="52.07277" lon="-0.75915">
        <ele>78.9</ele>
    </trkpt>
    <trkpt lat="52.07271" lon="-0.75896">
        <ele>79.2</ele>
    </trkpt>
    <trkpt lat="52.0726" lon="-0.75874">
        <ele>79.6</ele>
    </trkpt>
    <trkpt lat="52.07255" lon="-0.75863">
        <ele>79.5</ele>
    </trkpt>
    <trkpt lat="52.07247" lon="-0.75854">
        <ele>79.4</ele>
    </trkpt>
    <trkpt lat="52.07222" lon="-0.75847">
        <ele>78.9</ele>
    </trkpt>
    <trkpt lat="52.07201" lon="-0.75842">
        <ele>78.6</ele>
    </trkpt>
    <trkpt lat="52.07184" lon="-0.75836">
        <ele>78.8</ele>
    </trkpt>
    <trkpt lat="52.07165" lon="-0.75826">
        <ele>79.2</ele>
    </trkpt>
    <trkpt lat="52.07154" lon="-0.75821">
        <ele>79.5</ele>
    </trkpt>
    <trkpt lat="52.07147" lon="-0.75815">
        <ele>79.8</ele>
    </trkpt>
    <trkpt lat="52.07136" lon="-0.75818">
        <ele>80.2</ele>
    </trkpt>
    <trkpt lat="52.0712" lon="-0.75809">
        <ele>80.6</ele>
    </trkpt>
    <trkpt lat="52.07099" lon="-0.75798">
        <ele>81.1</ele>
    </trkpt>
    <trkpt lat="52.0708" lon="-0.75788">
        <ele>81.9</ele>
    </trkpt>
    <trkpt lat="52.07067" lon="-0.7578">
        <ele>82.3</ele>
    </trkpt>
    <trkpt lat="52.07062" lon="-0.75778">
        <ele>82.4</ele>
    </trkpt>
    <trkpt lat="52.07048" lon="-0.7577">
        <ele>82.8</ele>
    </trkpt>
    <trkpt lat="52.07033" lon="-0.75764">
        <ele>83.0</ele>
    </trkpt>
    <trkpt lat="52.07018" lon="-0.75757">
        <ele>83.0</ele>
    </trkpt>
    <trkpt lat="52.07014" lon="-0.75754">
        <ele>83.0</ele>
    </trkpt>
    <trkpt lat="52.07008" lon="-0.7575">
        <ele>83.0</ele>
    </trkpt>
    <trkpt lat="52.07002" lon="-0.75746">
        <ele>83.1</ele>
    </trkpt>
    <trkpt lat="52.06992" lon="-0.75739">
        <ele>83.3</ele>
    </trkpt>
    <trkpt lat="52.06976" lon="-0.75725">
        <ele>83.7</ele>
    </trkpt>
    <trkpt lat="52.06948" lon="-0.75699">
        <ele>84.7</ele>
    </trkpt>
    <trkpt lat="52.0694" lon="-0.7569">
        <ele>84.9</ele>
    </trkpt>
    <trkpt lat="52.06933" lon="-0.75681">
        <ele>85.1</ele>
    </trkpt>
    <trkpt lat="52.06927" lon="-0.75671">
        <ele>85.2</ele>
    </trkpt>
    <trkpt lat="52.06923" lon="-0.75662">
        <ele>85.3</ele>
    </trkpt>
    <trkpt lat="52.06918" lon="-0.75653">
        <ele>85.4</ele>
    </trkpt>
    <trkpt lat="52.06917" lon="-0.75648">
        <ele>85.5</ele>
    </trkpt>
    <trkpt lat="52.06917" lon="-0.75643">
        <ele>85.5</ele>
    </trkpt>
    <trkpt lat="52.06911" lon="-0.75637">
        <ele>85.6</ele>
    </trkpt>
    <trkpt lat="52.06905" lon="-0.75626">
        <ele>85.7</ele>
    </trkpt>
    <trkpt lat="52.06892" lon="-0.75604">
        <ele>85.9</ele>
    </trkpt>
    <trkpt lat="52.06878" lon="-0.75586">
        <ele>86.0</ele>
    </trkpt>
    <trkpt lat="52.06875" lon="-0.75582">
        <ele>86.0</ele>
    </trkpt>
    <trkpt lat="52.06838" lon="-0.75547">
        <ele>85.6</ele>
    </trkpt>
    <trkpt lat="52.06826" lon="-0.75536">
        <ele>85.5</ele>
    </trkpt>
    <trkpt lat="52.06783" lon="-0.7545">
        <ele>86.8</ele>
    </trkpt>
    <trkpt lat="52.06768" lon="-0.7542">
        <ele>86.8</ele>
    </trkpt>
    <trkpt lat="52.06749" lon="-0.75384">
        <ele>86.6</ele>
    </trkpt>
    <trkpt lat="52.06732" lon="-0.75356">
        <ele>86.4</ele>
    </trkpt>
    <trkpt lat="52.06732" lon="-0.75335">
        <ele>86.5</ele>
    </trkpt>
    <trkpt lat="52.06737" lon="-0.75308">
        <ele>86.6</ele>
    </trkpt>
    <trkpt lat="52.06747" lon="-0.75281">
        <ele>86.9</ele>
    </trkpt>
    <trkpt lat="52.06749" lon="-0.75273">
        <ele>86.9</ele>
    </trkpt>
    <trkpt lat="52.06752" lon="-0.75266">
        <ele>87.0</ele>
    </trkpt>
    <trkpt lat="52.06757" lon="-0.7525">
        <ele>87.4</ele>
    </trkpt>
    <trkpt lat="52.06761" lon="-0.7521">
        <ele>88.1</ele>
    </trkpt>
    <trkpt lat="52.0676" lon="-0.75172">
        <ele>88.4</ele>
    </trkpt>
    <trkpt lat="52.06757" lon="-0.75144">
        <ele>88.4</ele>
    </trkpt>
    <trkpt lat="52.06756" lon="-0.75131">
        <ele>88.4</ele>
    </trkpt>
    <trkpt lat="52.06765" lon="-0.75089">
        <ele>87.7</ele>
    </trkpt>
    <trkpt lat="52.0678" lon="-0.75042">
        <ele>86.5</ele>
    </trkpt>
    <trkpt lat="52.06789" lon="-0.75006">
        <ele>85.9</ele>
    </trkpt>
    <trkpt lat="52.06791" lon="-0.74994">
        <ele>85.8</ele>
    </trkpt>
    <trkpt lat="52.06793" lon="-0.7498">
        <ele>85.7</ele>
    </trkpt>
    <trkpt lat="52.06792" lon="-0.7496">
        <ele>85.6</ele>
    </trkpt>
    <trkpt lat="52.0679" lon="-0.74947">
        <ele>85.4</ele>
    </trkpt>
    <trkpt lat="52.0679" lon="-0.74928">
        <ele>85.2</ele>
    </trkpt>
    <trkpt lat="52.06791" lon="-0.74906">
        <ele>84.9</ele>
    </trkpt>
    <trkpt lat="52.06779" lon="-0.74911">
        <ele>84.8</ele>
    </trkpt>
    <trkpt lat="52.06778" lon="-0.74907">
        <ele>84.8</ele>
    </trkpt>
    <trkpt lat="52.06773" lon="-0.74877">
        <ele>84.5</ele>
    </trkpt>
    <trkpt lat="52.0677" lon="-0.74866">
        <ele>84.3</ele>
    </trkpt>
    <trkpt lat="52.06767" lon="-0.7485">
        <ele>84.1</ele>
    </trkpt>
    <trkpt lat="52.06759" lon="-0.74821">
        <ele>83.6</ele>
    </trkpt>
    <trkpt lat="52.06751" lon="-0.74801">
        <ele>83.1</ele>
    </trkpt>
    <trkpt lat="52.0673" lon="-0.74746">
        <ele>81.1</ele>
    </trkpt>
    <trkpt lat="52.06711" lon="-0.74689">
        <ele>78.6</ele>
    </trkpt>
    <trkpt lat="52.06696" lon="-0.7464">
        <ele>77.3</ele>
    </trkpt>
    <trkpt lat="52.06686" lon="-0.74605">
        <ele>76.4</ele>
    </trkpt>
    <trkpt lat="52.06682" lon="-0.74593">
        <ele>76.1</ele>
    </trkpt>
    <trkpt lat="52.06671" lon="-0.74563">
        <ele>75.3</ele>
    </trkpt>
    <trkpt lat="52.06668" lon="-0.74555">
        <ele>75.0</ele>
    </trkpt>
    <trkpt lat="52.06668" lon="-0.74554">
        <ele>75.0</ele>
    </trkpt>
    <trkpt lat="52.06662" lon="-0.74534">
        <ele>74.1</ele>
    </trkpt>
    <trkpt lat="52.0666" lon="-0.74529">
        <ele>73.9</ele>
    </trkpt>
    <trkpt lat="52.06645" lon="-0.74541">
        <ele>73.2</ele>
    </trkpt>
    <trkpt lat="52.06633" lon="-0.74548">
        <ele>72.9</ele>
    </trkpt>
    <trkpt lat="52.0662" lon="-0.74553">
        <ele>72.5</ele>
    </trkpt>
    <trkpt lat="52.0661" lon="-0.74554">
        <ele>72.4</ele>
    </trkpt>
    <trkpt lat="52.06597" lon="-0.74554">
        <ele>72.3</ele>
    </trkpt>
    <trkpt lat="52.0658" lon="-0.74548">
        <ele>72.1</ele>
    </trkpt>
    <trkpt lat="52.06569" lon="-0.74543">
        <ele>72.1</ele>
    </trkpt>
    <trkpt lat="52.06549" lon="-0.74527">
        <ele>72.1</ele>
    </trkpt>
    <trkpt lat="52.06535" lon="-0.74513">
        <ele>72.4</ele>
    </trkpt>
    <trkpt lat="52.06523" lon="-0.745">
        <ele>72.6</ele>
    </trkpt>
    <trkpt lat="52.06512" lon="-0.74491">
        <ele>73.0</ele>
    </trkpt>
    <trkpt lat="52.06498" lon="-0.74485">
        <ele>73.5</ele>
    </trkpt>
    <trkpt lat="52.06489" lon="-0.74485">
        <ele>74.2</ele>
    </trkpt>
    <trkpt lat="52.06477" lon="-0.74486">
        <ele>75.2</ele>
    </trkpt>
    <trkpt lat="52.06443" lon="-0.74481">
        <ele>77.2</ele>
    </trkpt>
    <trkpt lat="52.06427" lon="-0.74476">
        <ele>77.6</ele>
    </trkpt>
    <trkpt lat="52.06413" lon="-0.74467">
        <ele>77.2</ele>
    </trkpt>
    <trkpt lat="52.06408" lon="-0.74462">
        <ele>77.1</ele>
    </trkpt>
    <trkpt lat="52.06403" lon="-0.74453">
        <ele>76.9</ele>
    </trkpt>
    <trkpt lat="52.06399" lon="-0.74446">
        <ele>76.7</ele>
    </trkpt>
    <trkpt lat="52.06393" lon="-0.74423">
        <ele>76.1</ele>
    </trkpt>
    <trkpt lat="52.06383" lon="-0.74384">
        <ele>75.1</ele>
    </trkpt>
    <trkpt lat="52.06382" lon="-0.74362">
        <ele>74.6</ele>
    </trkpt>
    <trkpt lat="52.06382" lon="-0.74336">
        <ele>74.0</ele>
    </trkpt>
    <trkpt lat="52.0639" lon="-0.74251">
        <ele>72.4</ele>
    </trkpt>
    <trkpt lat="52.0639" lon="-0.74231">
        <ele>72.3</ele>
    </trkpt>
    <trkpt lat="52.0639" lon="-0.74218">
        <ele>72.3</ele>
    </trkpt>
    <trkpt lat="52.06384" lon="-0.74146">
        <ele>71.2</ele>
    </trkpt>
    <trkpt lat="52.0638" lon="-0.74119">
        <ele>71.1</ele>
    </trkpt>
    <trkpt lat="52.06367" lon="-0.74075">
        <ele>71.8</ele>
    </trkpt>
    <trkpt lat="52.06364" lon="-0.74067">
        <ele>72.2</ele>
    </trkpt>
    <trkpt lat="52.06354" lon="-0.74057">
        <ele>72.9</ele>
    </trkpt>
    <trkpt lat="52.06344" lon="-0.74038">
        <ele>73.5</ele>
    </trkpt>
    <trkpt lat="52.0634" lon="-0.74016">
        <ele>73.8</ele>
    </trkpt>
    <trkpt lat="52.06331" lon="-0.73999">
        <ele>73.8</ele>
    </trkpt>
    <trkpt lat="52.06294" lon="-0.73955">
        <ele>72.8</ele>
    </trkpt>
    <trkpt lat="52.06285" lon="-0.73944">
        <ele>72.5</ele>
    </trkpt>
    <trkpt lat="52.06269" lon="-0.7393">
        <ele>72.5</ele>
    </trkpt>
    <trkpt lat="52.06242" lon="-0.73911">
        <ele>73.4</ele>
    </trkpt>
    <trkpt lat="52.06192" lon="-0.73884">
        <ele>75.3</ele>
    </trkpt>
    <trkpt lat="52.06161" lon="-0.73872">
        <ele>75.6</ele>
    </trkpt>
    <trkpt lat="52.06144" lon="-0.73876">
        <ele>75.5</ele>
    </trkpt>
    <trkpt lat="52.06129" lon="-0.73867">
        <ele>75.4</ele>
    </trkpt>
    <trkpt lat="52.06126" lon="-0.73866">
        <ele>75.3</ele>
    </trkpt>
    <trkpt lat="52.06117" lon="-0.73861">
        <ele>75.3</ele>
    </trkpt>
    <trkpt lat="52.06109" lon="-0.73856">
        <ele>75.2</ele>
    </trkpt>
    <trkpt lat="52.06097" lon="-0.73848">
        <ele>75.2</ele>
    </trkpt>
    <trkpt lat="52.06082" lon="-0.73832">
        <ele>74.7</ele>
    </trkpt>
    <trkpt lat="52.06061" lon="-0.73808">
        <ele>73.7</ele>
    </trkpt>
    <trkpt lat="52.06052" lon="-0.73798">
        <ele>73.2</ele>
    </trkpt>
    <trkpt lat="52.06045" lon="-0.73789">
        <ele>72.9</ele>
    </trkpt>
    <trkpt lat="52.06018" lon="-0.73764">
        <ele>72.0</ele>
    </trkpt>
    <trkpt lat="52.0601" lon="-0.73754">
        <ele>71.8</ele>
    </trkpt>
    <trkpt lat="52.05993" lon="-0.73732">
        <ele>72.1</ele>
    </trkpt>
    <trkpt lat="52.0598" lon="-0.73716">
        <ele>72.5</ele>
    </trkpt>
    <trkpt lat="52.05961" lon="-0.7369">
        <ele>74.1</ele>
    </trkpt>
    <trkpt lat="52.05945" lon="-0.73667">
        <ele>74.7</ele>
    </trkpt>
    <trkpt lat="52.0592" lon="-0.73621">
        <ele>74.2</ele>
    </trkpt>
    <trkpt lat="52.05907" lon="-0.73591">
        <ele>73.6</ele>
    </trkpt>
    <trkpt lat="52.05904" lon="-0.73587">
        <ele>73.6</ele>
    </trkpt>
    <trkpt lat="52.05902" lon="-0.73581">
        <ele>73.6</ele>
    </trkpt>
    <trkpt lat="52.05894" lon="-0.73576">
        <ele>73.7</ele>
    </trkpt>
    <trkpt lat="52.05884" lon="-0.73567">
        <ele>73.7</ele>
    </trkpt>
    <trkpt lat="52.05877" lon="-0.73554">
        <ele>73.8</ele>
    </trkpt>
    <trkpt lat="52.05871" lon="-0.73551">
        <ele>73.9</ele>
    </trkpt>
    <trkpt lat="52.05869" lon="-0.73552">
        <ele>73.9</ele>
    </trkpt>
    <trkpt lat="52.05852" lon="-0.73567">
        <ele>74.3</ele>
    </trkpt>
    <trkpt lat="52.05851" lon="-0.73581">
        <ele>74.6</ele>
    </trkpt>
    <trkpt lat="52.05847" lon="-0.73591">
        <ele>74.8</ele>
    </trkpt>
    <trkpt lat="52.0584" lon="-0.7358">
        <ele>75.0</ele>
    </trkpt>
    <trkpt lat="52.05836" lon="-0.73566">
        <ele>75.1</ele>
    </trkpt>
    <trkpt lat="52.05835" lon="-0.73557">
        <ele>75.2</ele>
    </trkpt>
    <trkpt lat="52.0583" lon="-0.73523">
        <ele>74.7</ele>
    </trkpt>
    <trkpt lat="52.05819" lon="-0.73499">
        <ele>74.1</ele>
    </trkpt>
    <trkpt lat="52.05811" lon="-0.73474">
        <ele>73.2</ele>
    </trkpt>
    <trkpt lat="52.05807" lon="-0.73436">
        <ele>72.7</ele>
    </trkpt>
    <trkpt lat="52.058" lon="-0.73403">
        <ele>72.7</ele>
    </trkpt>
    <trkpt lat="52.0579" lon="-0.7336">
        <ele>73.9</ele>
    </trkpt>
    <trkpt lat="52.05781" lon="-0.73326">
        <ele>75.0</ele>
    </trkpt>
    <trkpt lat="52.05779" lon="-0.73321">
        <ele>75.2</ele>
    </trkpt>
    <trkpt lat="52.05764" lon="-0.73289">
        <ele>74.9</ele>
    </trkpt>
    <trkpt lat="52.05754" lon="-0.73273">
        <ele>74.2</ele>
    </trkpt>
    <trkpt lat="52.05741" lon="-0.73257">
        <ele>73.9</ele>
    </trkpt>
    <trkpt lat="52.05731" lon="-0.73247">
        <ele>73.8</ele>
    </trkpt>
    <trkpt lat="52.0572" lon="-0.73238">
        <ele>73.8</ele>
    </trkpt>
    <trkpt lat="52.05711" lon="-0.73233">
        <ele>74.1</ele>
    </trkpt>
    <trkpt lat="52.05702" lon="-0.7323">
        <ele>74.3</ele>
    </trkpt>
    <trkpt lat="52.05689" lon="-0.73232">
        <ele>74.7</ele>
    </trkpt>
    <trkpt lat="52.05679" lon="-0.73238">
        <ele>74.9</ele>
    </trkpt>
    <trkpt lat="52.05671" lon="-0.73243">
        <ele>75.1</ele>
    </trkpt>
    <trkpt lat="52.05659" lon="-0.73255">
        <ele>75.4</ele>
    </trkpt>
    <trkpt lat="52.05651" lon="-0.73268">
        <ele>75.3</ele>
    </trkpt>
    <trkpt lat="52.05629" lon="-0.73301">
        <ele>75.2</ele>
    </trkpt>
    <trkpt lat="52.05604" lon="-0.7334">
        <ele>75.1</ele>
    </trkpt>
    <trkpt lat="52.05575" lon="-0.73384">
        <ele>75.2</ele>
    </trkpt>
    <trkpt lat="52.05552" lon="-0.73413">
        <ele>75.8</ele>
    </trkpt>
    <trkpt lat="52.05538" lon="-0.73428">
        <ele>76.5</ele>
    </trkpt>
    <trkpt lat="52.05502" lon="-0.73453">
        <ele>76.4</ele>
    </trkpt>
    <trkpt lat="52.05483" lon="-0.73466">
        <ele>75.0</ele>
    </trkpt>
    <trkpt lat="52.05468" lon="-0.73473">
        <ele>74.2</ele>
    </trkpt>
    <trkpt lat="52.05464" lon="-0.73475">
        <ele>74.0</ele>
    </trkpt>
    <trkpt lat="52.05437" lon="-0.73496">
        <ele>73.0</ele>
    </trkpt>
    <trkpt lat="52.05409" lon="-0.73517">
        <ele>72.6</ele>
    </trkpt>
    <trkpt lat="52.05402" lon="-0.73525">
        <ele>72.9</ele>
    </trkpt>
    <trkpt lat="52.05395" lon="-0.73535">
        <ele>73.2</ele>
    </trkpt>
    <trkpt lat="52.05388" lon="-0.73543">
        <ele>73.5</ele>
    </trkpt>
    <trkpt lat="52.05379" lon="-0.7355">
        <ele>73.8</ele>
    </trkpt>
    <trkpt lat="52.05361" lon="-0.73562">
        <ele>74.7</ele>
    </trkpt>
    <trkpt lat="52.05308" lon="-0.7359">
        <ele>73.7</ele>
    </trkpt>
    <trkpt lat="52.05291" lon="-0.73604">
        <ele>73.2</ele>
    </trkpt>
    <trkpt lat="52.05276" lon="-0.73614">
        <ele>73.2</ele>
    </trkpt>
    <trkpt lat="52.05259" lon="-0.73619">
        <ele>73.1</ele>
    </trkpt>
    <trkpt lat="52.05242" lon="-0.7362">
        <ele>72.7</ele>
    </trkpt>
    <trkpt lat="52.05226" lon="-0.7362">
        <ele>72.3</ele>
    </trkpt>
    <trkpt lat="52.05211" lon="-0.73616">
        <ele>72.7</ele>
    </trkpt>
    <trkpt lat="52.05189" lon="-0.73608">
        <ele>73.3</ele>
    </trkpt>
    <trkpt lat="52.05174" lon="-0.73597">
        <ele>73.3</ele>
    </trkpt>
    <trkpt lat="52.05153" lon="-0.73577">
        <ele>73.7</ele>
    </trkpt>
    <trkpt lat="52.05141" lon="-0.73564">
        <ele>74.1</ele>
    </trkpt>
    <trkpt lat="52.05127" lon="-0.73548">
        <ele>74.5</ele>
    </trkpt>
    <trkpt lat="52.05119" lon="-0.73537">
        <ele>74.6</ele>
    </trkpt>
    <trkpt lat="52.05111" lon="-0.73526">
        <ele>74.7</ele>
    </trkpt>
    <trkpt lat="52.05103" lon="-0.7351">
        <ele>74.7</ele>
    </trkpt>
    <trkpt lat="52.05093" lon="-0.73486">
        <ele>74.6</ele>
    </trkpt>
    <trkpt lat="52.05088" lon="-0.73473">
        <ele>74.4</ele>
    </trkpt>
    <trkpt lat="52.05079" lon="-0.73447">
        <ele>73.7</ele>
    </trkpt>
    <trkpt lat="52.05063" lon="-0.73457">
        <ele>73.2</ele>
    </trkpt>
    <trkpt lat="52.0506" lon="-0.73459">
        <ele>73.2</ele>
    </trkpt>
    <trkpt lat="52.05056" lon="-0.73462">
        <ele>73.2</ele>
    </trkpt>
    <trkpt lat="52.05054" lon="-0.73462">
        <ele>73.3</ele>
    </trkpt>
    <trkpt lat="52.05051" lon="-0.73464">
        <ele>73.3</ele>
    </trkpt>
    <trkpt lat="52.05046" lon="-0.73465">
        <ele>73.3</ele>
    </trkpt>
    <trkpt lat="52.05042" lon="-0.73465">
        <ele>73.3</ele>
    </trkpt>
    <trkpt lat="52.05039" lon="-0.73464">
        <ele>73.4</ele>
    </trkpt>
    <trkpt lat="52.05034" lon="-0.73462">
        <ele>73.6</ele>
    </trkpt>
    <trkpt lat="52.0503" lon="-0.7346">
        <ele>73.9</ele>
    </trkpt>
    <trkpt lat="52.05025" lon="-0.73454">
        <ele>74.3</ele>
    </trkpt>
    <trkpt lat="52.05022" lon="-0.7345">
        <ele>74.6</ele>
    </trkpt>
    <trkpt lat="52.05018" lon="-0.73445">
        <ele>74.9</ele>
    </trkpt>
    <trkpt lat="52.05015" lon="-0.7344">
        <ele>75.1</ele>
    </trkpt>
    <trkpt lat="52.05012" lon="-0.73434">
        <ele>75.4</ele>
    </trkpt>
    <trkpt lat="52.05009" lon="-0.73429">
        <ele>75.7</ele>
    </trkpt>
    <trkpt lat="52.05007" lon="-0.73424">
        <ele>75.9</ele>
    </trkpt>
    <trkpt lat="52.05005" lon="-0.7342">
        <ele>76.1</ele>
    </trkpt>
    <trkpt lat="52.05002" lon="-0.73418">
        <ele>76.3</ele>
    </trkpt>
    <trkpt lat="52.05001" lon="-0.73415">
        <ele>76.5</ele>
    </trkpt>
    <trkpt lat="52.04998" lon="-0.73413">
        <ele>76.6</ele>
    </trkpt>
    <trkpt lat="52.04991" lon="-0.73409">
        <ele>77.1</ele>
    </trkpt>
    <trkpt lat="52.04988" lon="-0.73406">
        <ele>77.3</ele>
    </trkpt>
    <trkpt lat="52.04989" lon="-0.73402">
        <ele>77.3</ele>
    </trkpt>
    <trkpt lat="52.04991" lon="-0.73392">
        <ele>77.1</ele>
    </trkpt>
    <trkpt lat="52.04993" lon="-0.73386">
        <ele>77.0</ele>
    </trkpt>
    <trkpt lat="52.04993" lon="-0.73379">
        <ele>76.9</ele>
    </trkpt>
    <trkpt lat="52.04996" lon="-0.73349">
        <ele>76.2</ele>
    </trkpt>
    <trkpt lat="52.05" lon="-0.73315">
        <ele>75.4</ele>
    </trkpt>
    <trkpt lat="52.05001" lon="-0.73303">
        <ele>75.1</ele>
    </trkpt>
    <trkpt lat="52.05004" lon="-0.73269">
        <ele>74.4</ele>
    </trkpt>
    <trkpt lat="52.05005" lon="-0.73261">
        <ele>74.2</ele>
    </trkpt>
    <trkpt lat="52.04984" lon="-0.73262">
        <ele>73.9</ele>
    </trkpt>
    <trkpt lat="52.04989" lon="-0.73247">
        <ele>73.6</ele>
    </trkpt>
    <trkpt lat="52.04998" lon="-0.73235">
        <ele>73.2</ele>
    </trkpt>
    <trkpt lat="52.05008" lon="-0.73231">
        <ele>72.9</ele>
    </trkpt>
    <trkpt lat="52.05011" lon="-0.73205">
        <ele>72.1</ele>
    </trkpt>
    <trkpt lat="52.05013" lon="-0.73188">
        <ele>71.6</ele>
    </trkpt>
    <trkpt lat="52.05017" lon="-0.73143">
        <ele>70.6</ele>
    </trkpt>
    <trkpt lat="52.05019" lon="-0.73115">
        <ele>70.0</ele>
    </trkpt>
    <trkpt lat="52.0502" lon="-0.73087">
        <ele>69.2</ele>
    </trkpt>
    <trkpt lat="52.05022" lon="-0.73058">
        <ele>68.5</ele>
    </trkpt>
    <trkpt lat="52.05024" lon="-0.72999">
        <ele>66.9</ele>
    </trkpt>
    <trkpt lat="52.05024" lon="-0.72964">
        <ele>65.4</ele>
    </trkpt>
    <trkpt lat="52.05025" lon="-0.72942">
        <ele>65.2</ele>
    </trkpt>
    <trkpt lat="52.05028" lon="-0.72917">
        <ele>65.2</ele>
    </trkpt>
    <trkpt lat="52.05034" lon="-0.72859">
        <ele>67.2</ele>
    </trkpt>
    <trkpt lat="52.05038" lon="-0.72822">
        <ele>68.3</ele>
    </trkpt>
    <trkpt lat="52.05042" lon="-0.72785">
        <ele>69.0</ele>
    </trkpt>
    <trkpt lat="52.05045" lon="-0.72763">
        <ele>69.1</ele>
    </trkpt>
    <trkpt lat="52.05051" lon="-0.72719">
        <ele>68.1</ele>
    </trkpt>
    <trkpt lat="52.05052" lon="-0.72707">
        <ele>67.6</ele>
    </trkpt>
    <trkpt lat="52.05061" lon="-0.72641">
        <ele>65.9</ele>
    </trkpt>
    <trkpt lat="52.05064" lon="-0.72626">
        <ele>65.8</ele>
    </trkpt>
    <trkpt lat="52.05068" lon="-0.72596">
        <ele>65.5</ele>
    </trkpt>
    <trkpt lat="52.05069" lon="-0.72587">
        <ele>65.5</ele>
    </trkpt>
    <trkpt lat="52.05069" lon="-0.72587">
        <ele>65.5</ele>
    </trkpt>
  </trkseg>
</trk>
</gpx>
