<?xml version="1.0"?>
<gpx version="1.1" creator="GDAL 2.2.3" xmlns:xsi="http://www.w3.org/2001/XMLSchema-instance" xmlns:ogr="http://osgeo.org/gdal" xmlns="http://www.topografix.com/GPX/1/1" xsi:schemaLocation="http://www.topografix.com/GPX/1/1 http://www.topografix.com/GPX/1/1/gpx.xsd">
<metadata><bounds minlat="51.991709995765788" minlon="-0.797789987530357" maxlat="52.032269995798018" maxlon="-0.759769987504668"/></metadata>                  
<trk>
  <name>Route E
</name>
  <type>MAIN</type>
  <extensions>
    <ogr:descriptio>Statistics computed from imported data&lt;br&gt;&lt;br&gt;Distance: 13.2 km&lt;br&gt;Minimum Elevation: 74 m&lt;br&gt;Maximum Elevation: 118 m&lt;br&gt;Total climb: 86 m&lt;br&gt;Total descent: 83 m</ogr:descriptio>
    <ogr:tessellate>1.0</ogr:tessellate>
    <ogr:extrude>0.0</ogr:extrude>
    <ogr:visibility>-1.0</ogr:visibility>
    <ogr:orig_ogc_fid>0</ogr:orig_ogc_fid>
  </extensions>
  <trkseg>
    <trkpt lat="52.015509995784555" lon="-0.760699987505673">
    </trkpt>
    <trkpt lat="52.015609995784644" lon="-0.760649987505593">
    </trkpt>
    <trkpt lat="52.015719995784707" lon="-0.760529987505475">
    </trkpt>
    <trkpt lat="52.015909995784867" lon="-0.760319987505265">
    </trkpt>
    <trkpt lat="52.015969995784921" lon="-0.760259987505202">
    </trkpt>
    <trkpt lat="52.015979995784932" lon="-0.760259987505197">
    </trkpt>
    <trkpt lat="52.015989995784928" lon="-0.760239987505182">
    </trkpt>
    <trkpt lat="52.016029995784983" lon="-0.76019998750514">
    </trkpt>
    <trkpt lat="52.01639999578525" lon="-0.759809987504743">
    </trkpt>
    <trkpt lat="52.016429995785288" lon="-0.759779987504712">
    </trkpt>
    <trkpt lat="52.016469995785307" lon="-0.759769987504685">
    </trkpt>
    <trkpt lat="52.016499995785352" lon="-0.759769987504668">
    </trkpt>
    <trkpt lat="52.016519995785352" lon="-0.759779987504662">
    </trkpt>
    <trkpt lat="52.016519995785352" lon="-0.759809987504677">
    </trkpt>
    <trkpt lat="52.016519995785337" lon="-0.759919987504733">
    </trkpt>
    <trkpt lat="52.016519995785366" lon="-0.759989987504768">
    </trkpt>
    <trkpt lat="52.016529995785376" lon="-0.760029987504782">
    </trkpt>
    <trkpt lat="52.016539995785365" lon="-0.760079987504803">
    </trkpt>
    <trkpt lat="52.016559995785386" lon="-0.760129987504817">
    </trkpt>
    <trkpt lat="52.016569995785382" lon="-0.760199987504846">
    </trkpt>
    <trkpt lat="52.016589995785409" lon="-0.760269987504871">
    </trkpt>
    <trkpt lat="52.016599995785398" lon="-0.7603399875049">
    </trkpt>
    <trkpt lat="52.016629995785436" lon="-0.760439987504934">
    </trkpt>
    <trkpt lat="52.016649995785464" lon="-0.760499987504954">
    </trkpt>
    <trkpt lat="52.016649995785464" lon="-0.760539987504973">
    </trkpt>
    <trkpt lat="52.016639995785461" lon="-0.760569987504994">
    </trkpt>
    <trkpt lat="52.016639995785454" lon="-0.760599987505009">
    </trkpt>
    <trkpt lat="52.016619995785433" lon="-0.76063998750504">
    </trkpt>
    <trkpt lat="52.016609995785458" lon="-0.760669987505061">
    </trkpt>
    <trkpt lat="52.016589995785402" lon="-0.760709987505091">
    </trkpt>
    <trkpt lat="52.01656999578541" lon="-0.760739987505117">
    </trkpt>
    <trkpt lat="52.0165599957854" lon="-0.760749987505128">
    </trkpt>
    <trkpt lat="52.016609995785423" lon="-0.760869987505162">
    </trkpt>
    <trkpt lat="52.016639995785468" lon="-0.760949987505185">
    </trkpt>
    <trkpt lat="52.016689995785512" lon="-0.761009987505188">
    </trkpt>
    <trkpt lat="52.016699995785501" lon="-0.761049987505202">
    </trkpt>
    <trkpt lat="52.016709995785511" lon="-0.761139987505242">
    </trkpt>
    <trkpt lat="52.016769995785566" lon="-0.76147998750538">
    </trkpt>
    <trkpt lat="52.016799995785604" lon="-0.76160998750543">
    </trkpt>
    <trkpt lat="52.016819995785596" lon="-0.761729987505478">
    </trkpt>
    <trkpt lat="52.016869995785633" lon="-0.761909987505542">
    </trkpt>
    <trkpt lat="52.016899995785657" lon="-0.762019987505581">
    </trkpt>
    <trkpt lat="52.01695999578574" lon="-0.762169987505623">
    </trkpt>
    <trkpt lat="52.017079995785821" lon="-0.762409987505679">
    </trkpt>
    <trkpt lat="52.017119995785862" lon="-0.762469987505687">
    </trkpt>
    <trkpt lat="52.017129995785837" lon="-0.762469987505683">
    </trkpt>
    <trkpt lat="52.017219995785929" lon="-0.762529987505663">
    </trkpt>
    <trkpt lat="52.017339995786017" lon="-0.762599987505633">
    </trkpt>
    <trkpt lat="52.017389995786075" lon="-0.762609987505611">
    </trkpt>
    <trkpt lat="52.017489995786143" lon="-0.762629987505567">
    </trkpt>
    <trkpt lat="52.017599995786249" lon="-0.762649987505517">
    </trkpt>
    <trkpt lat="52.017659995786289" lon="-0.762649987505485">
    </trkpt>
    <trkpt lat="52.017709995786319" lon="-0.762619987505443">
    </trkpt>
    <trkpt lat="52.017749995786374" lon="-0.762609987505416">
    </trkpt>
    <trkpt lat="52.017819995786411" lon="-0.762789987505467">
    </trkpt>
    <trkpt lat="52.017859995786445" lon="-0.762779987505441">
    </trkpt>
    <trkpt lat="52.017909995786496" lon="-0.762769987505408">
    </trkpt>
    <trkpt lat="52.018049995786591" lon="-0.762819987505358">
    </trkpt>
    <trkpt lat="52.018309995786787" lon="-0.762929987505272">
    </trkpt>
    <trkpt lat="52.018499995786954" lon="-0.762989987505199">
    </trkpt>
    <trkpt lat="52.018649995787079" lon="-0.763009987505128">
    </trkpt>
    <trkpt lat="52.018769995787174" lon="-0.762999987505057">
    </trkpt>
    <trkpt lat="52.018939995787299" lon="-0.76290998750492">
    </trkpt>
    <trkpt lat="52.019059995787416" lon="-0.762829987504815">
    </trkpt>
    <trkpt lat="52.019169995787507" lon="-0.762769987504724">
    </trkpt>
    <trkpt lat="52.019259995787564" lon="-0.762729987504656">
    </trkpt>
    <trkpt lat="52.019299995787598" lon="-0.762729987504634">
    </trkpt>
    <trkpt lat="52.019379995787652" lon="-0.762749987504601">
    </trkpt>
    <trkpt lat="52.019429995787689" lon="-0.762799987504599">
    </trkpt>
    <trkpt lat="52.019489995787744" lon="-0.762849987504591">
    </trkpt>
    <trkpt lat="52.019649995787866" lon="-0.763059987504609">
    </trkpt>
    <trkpt lat="52.019779995787971" lon="-0.76323998750463">
    </trkpt>
    <trkpt lat="52.020029995788178" lon="-0.763569987504659">
    </trkpt>
    <trkpt lat="52.020159995788283" lon="-0.763719987504665">
    </trkpt>
    <trkpt lat="52.020279995788378" lon="-0.763799987504639">
    </trkpt>
    <trkpt lat="52.020409995788484" lon="-0.763859987504599">
    </trkpt>
    <trkpt lat="52.02041999578848" lon="-0.763859987504594">
    </trkpt>
    <trkpt lat="52.020509995788565" lon="-0.763899987504564">
    </trkpt>
    <trkpt lat="52.02063999578867" lon="-0.763929987504509">
    </trkpt>
    <trkpt lat="52.020869995788857" lon="-0.763909987504374">
    </trkpt>
    <trkpt lat="52.020979995788927" lon="-0.763879987504299">
    </trkpt>
    <trkpt lat="52.021149995789052" lon="-0.763769987504152">
    </trkpt>
    <trkpt lat="52.021279995789172" lon="-0.763659987504025">
    </trkpt>
    <trkpt lat="52.021449995789318" lon="-0.763499987503852">
    </trkpt>
    <trkpt lat="52.021579995789416" lon="-0.763439987503752">
    </trkpt>
    <trkpt lat="52.021669995789487" lon="-0.763409987503688">
    </trkpt>
    <trkpt lat="52.021819995789599" lon="-0.763369987503587">
    </trkpt>
    <trkpt lat="52.02188999578965" lon="-0.763369987503549">
    </trkpt>
    <trkpt lat="52.021979995789714" lon="-0.763439987503535">
    </trkpt>
    <trkpt lat="52.02205999578981" lon="-0.763559987503552">
    </trkpt>
    <trkpt lat="52.022179995789898" lon="-0.763739987503577">
    </trkpt>
    <trkpt lat="52.02229999579" lon="-0.763919987503603">
    </trkpt>
    <trkpt lat="52.022439995790094" lon="-0.763979987503557">
    </trkpt>
    <trkpt lat="52.022499995790135" lon="-0.763999987503534">
    </trkpt>
    <trkpt lat="52.022569995790221" lon="-0.764019987503506">
    </trkpt>
    <trkpt lat="52.022739995790353" lon="-0.764209987503509">
    </trkpt>
    <trkpt lat="52.022899995790461" lon="-0.764449987503543">
    </trkpt>
    <trkpt lat="52.023029995790566" lon="-0.764759987503629">
    </trkpt>
    <trkpt lat="52.023119995790658" lon="-0.76501998750371">
    </trkpt>
    <trkpt lat="52.023239995790739" lon="-0.765379987503826">
    </trkpt>
    <trkpt lat="52.023379995790862" lon="-0.76559998750386">
    </trkpt>
    <trkpt lat="52.023569995791021" lon="-0.765769987503842">
    </trkpt>
    <trkpt lat="52.023659995791071" lon="-0.765819987503819">
    </trkpt>
    <trkpt lat="52.023669995791089" lon="-0.765819987503814">
    </trkpt>
    <trkpt lat="52.023739995791146" lon="-0.765809987503771">
    </trkpt>
    <trkpt lat="52.023809995791197" lon="-0.765779987503718">
    </trkpt>
    <trkpt lat="52.023869995791266" lon="-0.765699987503644">
    </trkpt>
    <trkpt lat="52.023939995791302" lon="-0.765529987503522">
    </trkpt>
    <trkpt lat="52.02401999579137" lon="-0.765299987503362">
    </trkpt>
    <trkpt lat="52.024079995791425" lon="-0.76517998750327">
    </trkpt>
    <trkpt lat="52.024149995791461" lon="-0.765109987503195">
    </trkpt>
    <trkpt lat="52.024239995791547" lon="-0.765039987503112">
    </trkpt>
    <trkpt lat="52.024249995791564" lon="-0.765029987503102">
    </trkpt>
    <trkpt lat="52.024359995791649" lon="-0.764969987503011">
    </trkpt>
    <trkpt lat="52.024419995791689" lon="-0.764939987502964">
    </trkpt>
    <trkpt lat="52.024519995791771" lon="-0.76493998750291">
    </trkpt>
    <trkpt lat="52.024649995791883" lon="-0.764969987502855">
    </trkpt>
    <trkpt lat="52.024809995792005" lon="-0.765009987502788">
    </trkpt>
    <trkpt lat="52.025019995792171" lon="-0.765109987502724">
    </trkpt>
    <trkpt lat="52.025149995792262" lon="-0.765169987502684">
    </trkpt>
    <trkpt lat="52.025349995792439" lon="-0.765329987502656">
    </trkpt>
    <trkpt lat="52.025559995792605" lon="-0.765519987502637">
    </trkpt>
    <trkpt lat="52.026099995793025" lon="-0.76606998750262">
    </trkpt>
    <trkpt lat="52.026769995793572" lon="-0.766769987502609">
    </trkpt>
    <trkpt lat="52.026939995793711" lon="-0.766969987502616">
    </trkpt>
    <trkpt lat="52.027059995793813" lon="-0.767129987502632">
    </trkpt>
    <trkpt lat="52.027389995794074" lon="-0.767569987502674">
    </trkpt>
    <trkpt lat="52.027709995794339" lon="-0.768019987502727">
    </trkpt>
    <trkpt lat="52.027789995794393" lon="-0.768189987502769">
    </trkpt>
    <trkpt lat="52.027859995794458" lon="-0.768369987502821">
    </trkpt>
    <trkpt lat="52.02807999579462" lon="-0.768899987502969">
    </trkpt>
    <trkpt lat="52.028469995794943" lon="-0.769689987503155">
    </trkpt>
    <trkpt lat="52.028649995795099" lon="-0.770039987503233">
    </trkpt>
    <trkpt lat="52.028869995795283" lon="-0.77046998750333">
    </trkpt>
    <trkpt lat="52.02897999579536" lon="-0.770639987503356">
    </trkpt>
    <trkpt lat="52.029059995795443" lon="-0.770709987503348">
    </trkpt>
    <trkpt lat="52.029139995795475" lon="-0.770769987503335">
    </trkpt>
    <trkpt lat="52.02921999579555" lon="-0.770789987503302">
    </trkpt>
    <trkpt lat="52.029329995795642" lon="-0.770829987503262">
    </trkpt>
    <trkpt lat="52.029449995795737" lon="-0.770829987503197">
    </trkpt>
    <trkpt lat="52.029519995795788" lon="-0.770809987503149">
    </trkpt>
    <trkpt lat="52.029619995795869" lon="-0.770749987503065">
    </trkpt>
    <trkpt lat="52.029709995795933" lon="-0.770679987502981">
    </trkpt>
    <trkpt lat="52.029769995796002" lon="-0.770649987502933">
    </trkpt>
    <trkpt lat="52.029849995796063" lon="-0.770669987502899">
    </trkpt>
    <trkpt lat="52.029889995796104" lon="-0.770699987502893">
    </trkpt>
    <trkpt lat="52.029959995796133" lon="-0.770749987502879">
    </trkpt>
    <trkpt lat="52.030169995796314" lon="-0.771029987502907">
    </trkpt>
    <trkpt lat="52.030209995796348" lon="-0.771069987502905">
    </trkpt>
    <trkpt lat="52.030269995796417" lon="-0.771159987502918">
    </trkpt>
    <trkpt lat="52.030369995796477" lon="-0.77128998750293">
    </trkpt>
    <trkpt lat="52.030449995796545" lon="-0.771479987502981">
    </trkpt>
    <trkpt lat="52.030489995796579" lon="-0.771559987503">
    </trkpt>
    <trkpt lat="52.030509995796606" lon="-0.771619987503019">
    </trkpt>
    <trkpt lat="52.030619995796684" lon="-0.77185998750308">
    </trkpt>
    <trkpt lat="52.030719995796758" lon="-0.771989987503092">
    </trkpt>
    <trkpt lat="52.030929995796946" lon="-0.772199987503083">
    </trkpt>
    <trkpt lat="52.031209995797155" lon="-0.772509987503088">
    </trkpt>
    <trkpt lat="52.031329995797243" lon="-0.772629987503083">
    </trkpt>
    <trkpt lat="52.03145999579737" lon="-0.772839987503118">
    </trkpt>
    <trkpt lat="52.031809995797651" lon="-0.773439987503231">
    </trkpt>
    <trkpt lat="52.032239995798001" lon="-0.774149987503355">
    </trkpt>
    <trkpt lat="52.032269995798018" lon="-0.77420998750337">
    </trkpt>
    <trkpt lat="52.032239995798001" lon="-0.774149987503355">
    </trkpt>
    <trkpt lat="52.032229995797998" lon="-0.774309987503441">
    </trkpt>
    <trkpt lat="52.03213999579792" lon="-0.774409987503539">
    </trkpt>
    <trkpt lat="52.031779995797628" lon="-0.774969987504018">
    </trkpt>
    <trkpt lat="52.031669995797543" lon="-0.775089987504138">
    </trkpt>
    <trkpt lat="52.031489995797394" lon="-0.77523998750431">
    </trkpt>
    <trkpt lat="52.031229995797183" lon="-0.775389987504527">
    </trkpt>
    <trkpt lat="52.030829995796871" lon="-0.775599987504849">
    </trkpt>
    <trkpt lat="52.030579995796664" lon="-0.77574998750506">
    </trkpt>
    <trkpt lat="52.030469995796615" lon="-0.775799987505146">
    </trkpt>
    <trkpt lat="52.030449995796566" lon="-0.775819987505166">
    </trkpt>
    <trkpt lat="52.030419995796557" lon="-0.775849987505198">
    </trkpt>
    <trkpt lat="52.030409995796553" lon="-0.775879987505219">
    </trkpt>
    <trkpt lat="52.030399995796543" lon="-0.775929987505249">
    </trkpt>
    <trkpt lat="52.030389995796519" lon="-0.775939987505259">
    </trkpt>
    <trkpt lat="52.030339995796517" lon="-0.776209987505423">
    </trkpt>
    <trkpt lat="52.030309995796479" lon="-0.776409987505539">
    </trkpt>
    <trkpt lat="52.030309995796486" lon="-0.776659987505665">
    </trkpt>
    <trkpt lat="52.030319995796489" lon="-0.77667998750567">
    </trkpt>
    <trkpt lat="52.030379995796537" lon="-0.77723998750592">
    </trkpt>
    <trkpt lat="52.030469995796629" lon="-0.777859987506183">
    </trkpt>
    <trkpt lat="52.030419995796564" lon="-0.778249987506406">
    </trkpt>
    <trkpt lat="52.030359995796523" lon="-0.778789987506712">
    </trkpt>
    <trkpt lat="52.030359995796537" lon="-0.779219987506929">
    </trkpt>
    <trkpt lat="52.030399995796564" lon="-0.779629987507113">
    </trkpt>
    <trkpt lat="52.030449995796609" lon="-0.779829987507187">
    </trkpt>
    <trkpt lat="52.030519995796652" lon="-0.78002998750725">
    </trkpt>
    <trkpt lat="52.030619995796741" lon="-0.780249987507307">
    </trkpt>
    <trkpt lat="52.030789995796873" lon="-0.780549987507366">
    </trkpt>
    <trkpt lat="52.030629995796765" lon="-0.780879987507619">
    </trkpt>
    <trkpt lat="52.030559995796693" lon="-0.781069987507752">
    </trkpt>
    <trkpt lat="52.030549995796704" lon="-0.781089987507768">
    </trkpt>
    <trkpt lat="52.030559995796708" lon="-0.781289987507864">
    </trkpt>
    <trkpt lat="52.030569995796711" lon="-0.781539987507984">
    </trkpt>
    <trkpt lat="52.030619995796762" lon="-0.781819987508097">
    </trkpt>
    <trkpt lat="52.030669995796806" lon="-0.782009987508167">
    </trkpt>
    <trkpt lat="52.030749995796846" lon="-0.782209987508224">
    </trkpt>
    <trkpt lat="52.030859995796959" lon="-0.78239998750826">
    </trkpt>
    <trkpt lat="52.03092999579701" lon="-0.782619987508333">
    </trkpt>
    <trkpt lat="52.030979995797061" lon="-0.782789987508392">
    </trkpt>
    <trkpt lat="52.030979995797054" lon="-0.782929987508463">
    </trkpt>
    <trkpt lat="52.030979995797047" lon="-0.783119987508558">
    </trkpt>
    <trkpt lat="52.030969995797051" lon="-0.783169987508589">
    </trkpt>
    <trkpt lat="52.030719995796851" lon="-0.78315998750872">
    </trkpt>
    <trkpt lat="52.03058999579676" lon="-0.783159987508789">
    </trkpt>
    <trkpt lat="52.030519995796681" lon="-0.783189987508842">
    </trkpt>
    <trkpt lat="52.030489995796664" lon="-0.783199987508865">
    </trkpt>
    <trkpt lat="52.030349995796549" lon="-0.783279987508981">
    </trkpt>
    <trkpt lat="52.030259995796499" lon="-0.783339987509059">
    </trkpt>
    <trkpt lat="52.029119995795575" lon="-0.784239987510131">
    </trkpt>
    <trkpt lat="52.028879995795393" lon="-0.784429987510357">
    </trkpt>
    <trkpt lat="52.028659995795216" lon="-0.784629987510577">
    </trkpt>
    <trkpt lat="52.028649995795227" lon="-0.784639987510587">
    </trkpt>
    <trkpt lat="52.028599995795176" lon="-0.78474998751067">
    </trkpt>
    <trkpt lat="52.028559995795142" lon="-0.784879987510758">
    </trkpt>
    <trkpt lat="52.028529995795125" lon="-0.785009987510839">
    </trkpt>
    <trkpt lat="52.028519995795129" lon="-0.785209987510946">
    </trkpt>
    <trkpt lat="52.028499995795087" lon="-0.785369987511037">
    </trkpt>
    <trkpt lat="52.028469995795085" lon="-0.785459987511098">
    </trkpt>
    <trkpt lat="52.028429995795051" lon="-0.78551998751115">
    </trkpt>
    <trkpt lat="52.028339995794958" lon="-0.785319987511098">
    </trkpt>
    <trkpt lat="52.028429995795051" lon="-0.78551998751115">
    </trkpt>
    <trkpt lat="52.028379995795" lon="-0.785579987511208">
    </trkpt>
    <trkpt lat="52.028249995794887" lon="-0.785249987511112">
    </trkpt>
    <trkpt lat="52.028149995794791" lon="-0.785319987511202">
    </trkpt>
    <trkpt lat="52.028069995794752" lon="-0.78538998751128">
    </trkpt>
    <trkpt lat="52.027939995794647" lon="-0.785459987511386">
    </trkpt>
    <trkpt lat="52.027829995794562" lon="-0.785559987511496">
    </trkpt>
    <trkpt lat="52.02715999579403" lon="-0.786359987512262">
    </trkpt>
    <trkpt lat="52.027009995793897" lon="-0.78656998751245">
    </trkpt>
    <trkpt lat="52.026949995793892" lon="-0.786729987512563">
    </trkpt>
    <trkpt lat="52.02692999579385" lon="-0.786759987512589">
    </trkpt>
    <trkpt lat="52.026859995793814" lon="-0.786919987512707">
    </trkpt>
    <trkpt lat="52.026859995793792" lon="-0.786929987512713">
    </trkpt>
    <trkpt lat="52.026579995793568" lon="-0.78701998751291">
    </trkpt>
    <trkpt lat="52.026459995793473" lon="-0.78704998751299">
    </trkpt>
    <trkpt lat="52.026439995793474" lon="-0.787059987513006">
    </trkpt>
    <trkpt lat="52.026309995793348" lon="-0.787089987513091">
    </trkpt>
    <trkpt lat="52.02617999579325" lon="-0.787119987513177">
    </trkpt>
    <trkpt lat="52.025849995792981" lon="-0.787189987513392">
    </trkpt>
    <trkpt lat="52.025579995792768" lon="-0.787219987513553">
    </trkpt>
    <trkpt lat="52.025269995792513" lon="-0.787209987513716">
    </trkpt>
    <trkpt lat="52.025019995792334" lon="-0.787199987513846">
    </trkpt>
    <trkpt lat="52.024859995792191" lon="-0.787189987513929">
    </trkpt>
    <trkpt lat="52.024689995792073" lon="-0.787199987514025">
    </trkpt>
    <trkpt lat="52.024559995791968" lon="-0.787199987514096">
    </trkpt>
    <trkpt lat="52.024559995791947" lon="-0.78698998751399">
    </trkpt>
    <trkpt lat="52.0244799957919" lon="-0.786989987514033">
    </trkpt>
    <trkpt lat="52.024459995791872" lon="-0.786989987514043">
    </trkpt>
    <trkpt lat="52.024419995791845" lon="-0.786999987514071">
    </trkpt>
    <trkpt lat="52.024369995791808" lon="-0.787029987514112">
    </trkpt>
    <trkpt lat="52.024279995791744" lon="-0.787159987514227">
    </trkpt>
    <trkpt lat="52.024189995791659" lon="-0.787279987514336">
    </trkpt>
    <trkpt lat="52.024089995791591" lon="-0.787349987514426">
    </trkpt>
    <trkpt lat="52.023879995791432" lon="-0.78742998751458">
    </trkpt>
    <trkpt lat="52.023759995791309" lon="-0.787459987514661">
    </trkpt>
    <trkpt lat="52.023539995791147" lon="-0.787529987514815">
    </trkpt>
    <trkpt lat="52.023259995790916" lon="-0.787569987514987">
    </trkpt>
    <trkpt lat="52.022689995790479" lon="-0.787459987515241">
    </trkpt>
    <trkpt lat="52.02262999579041" lon="-0.787449987515268">
    </trkpt>
    <trkpt lat="52.022589995790398" lon="-0.787469987515299">
    </trkpt>
    <trkpt lat="52.022539995790325" lon="-0.787489987515337">
    </trkpt>
    <trkpt lat="52.022489995790302" lon="-0.787539987515389">
    </trkpt>
    <trkpt lat="52.022439995790279" lon="-0.787599987515447">
    </trkpt>
    <trkpt lat="52.022359995790197" lon="-0.78773998751556">
    </trkpt>
    <trkpt lat="52.022219995790095" lon="-0.788049987515793">
    </trkpt>
    <trkpt lat="52.022139995790042" lon="-0.788199987515912">
    </trkpt>
    <trkpt lat="52.022109995790011" lon="-0.788269987515963">
    </trkpt>
    <trkpt lat="52.022079995789987" lon="-0.788319987516005">
    </trkpt>
    <trkpt lat="52.022039995789953" lon="-0.788369987516051">
    </trkpt>
    <trkpt lat="52.021959995789899" lon="-0.788469987516145">
    </trkpt>
    <trkpt lat="52.021909995789855" lon="-0.788519987516197">
    </trkpt>
    <trkpt lat="52.021839995789797" lon="-0.788559987516256">
    </trkpt>
    <trkpt lat="52.021779995789743" lon="-0.788589987516304">
    </trkpt>
    <trkpt lat="52.021699995789689" lon="-0.788599987516352">
    </trkpt>
    <trkpt lat="52.0215999957896" lon="-0.788589987516401">
    </trkpt>
    <trkpt lat="52.021529995789578" lon="-0.788979987516635">
    </trkpt>
    <trkpt lat="52.021449995789482" lon="-0.789499987516942">
    </trkpt>
    <trkpt lat="52.021399995789452" lon="-0.790269987517357">
    </trkpt>
    <trkpt lat="52.021369995789442" lon="-0.790789987517636">
    </trkpt>
    <trkpt lat="52.021359995789417" lon="-0.791109987517802">
    </trkpt>
    <trkpt lat="52.021349995789421" lon="-0.79136998751794">
    </trkpt>
    <trkpt lat="52.021319995789412" lon="-0.791809987518177">
    </trkpt>
    <trkpt lat="52.021309995789395" lon="-0.791909987518233">
    </trkpt>
    <trkpt lat="52.020769995788967" lon="-0.79177998751846">
    </trkpt>
    <trkpt lat="52.020559995788794" lon="-0.791779987518574">
    </trkpt>
    <trkpt lat="52.020349995788642" lon="-0.791819987518707">
    </trkpt>
    <trkpt lat="52.020109995788431" lon="-0.791909987518883">
    </trkpt>
    <trkpt lat="52.01996999578833" lon="-0.791919987518964">
    </trkpt>
    <trkpt lat="52.019819995788211" lon="-0.79188998751903">
    </trkpt>
    <trkpt lat="52.019789995788173" lon="-0.791879987519042">
    </trkpt>
    <trkpt lat="52.01971999578813" lon="-0.791829987519055">
    </trkpt>
    <trkpt lat="52.019689995788106" lon="-0.791919987519115">
    </trkpt>
    <trkpt lat="52.01962999578808" lon="-0.792109987519244">
    </trkpt>
    <trkpt lat="52.019589995788017" lon="-0.792219987519322">
    </trkpt>
    <trkpt lat="52.01952999578797" lon="-0.792339987519414">
    </trkpt>
    <trkpt lat="52.01948999578795" lon="-0.792409987519471">
    </trkpt>
    <trkpt lat="52.019449995787902" lon="-0.792469987519523">
    </trkpt>
    <trkpt lat="52.019419995787885" lon="-0.792539987519575">
    </trkpt>
    <trkpt lat="52.019389995787868" lon="-0.792639987519641">
    </trkpt>
    <trkpt lat="52.019369995787862" lon="-0.792709987519688">
    </trkpt>
    <trkpt lat="52.019359995787831" lon="-0.792769987519723">
    </trkpt>
    <trkpt lat="52.019359995787845" lon="-0.792849987519764">
    </trkpt>
    <trkpt lat="52.019349995787842" lon="-0.792919987519805">
    </trkpt>
    <trkpt lat="52.019329995787828" lon="-0.792969987519841">
    </trkpt>
    <trkpt lat="52.019279995787798" lon="-0.792989987519878">
    </trkpt>
    <trkpt lat="52.019239995787757" lon="-0.793019987519914">
    </trkpt>
    <trkpt lat="52.019089995787631" lon="-0.793099987520036">
    </trkpt>
    <trkpt lat="52.01904999578759" lon="-0.793109987520063">
    </trkpt>
    <trkpt lat="52.018799995787404" lon="-0.793259987520274">
    </trkpt>
    <trkpt lat="52.018729995787346" lon="-0.793299987520332">
    </trkpt>
    <trkpt lat="52.018599995787262" lon="-0.793369987520438">
    </trkpt>
    <trkpt lat="52.018579995787235" lon="-0.793379987520454">
    </trkpt>
    <trkpt lat="52.018549995787197" lon="-0.793399987520481">
    </trkpt>
    <trkpt lat="52.018469995787122" lon="-0.793439987520544">
    </trkpt>
    <trkpt lat="52.018459995787133" lon="-0.793439987520549">
    </trkpt>
    <trkpt lat="52.018449995787122" lon="-0.793439987520555">
    </trkpt>
    <trkpt lat="52.018469995787115" lon="-0.79352998752059">
    </trkpt>
    <trkpt lat="52.018479995787153" lon="-0.793599987520619">
    </trkpt>
    <trkpt lat="52.018469995787129" lon="-0.793719987520685">
    </trkpt>
    <trkpt lat="52.018439995787126" lon="-0.793919987520802">
    </trkpt>
    <trkpt lat="52.018429995787109" lon="-0.793999987520849">
    </trkpt>
    <trkpt lat="52.018419995787106" lon="-0.794039987520874">
    </trkpt>
    <trkpt lat="52.018399995787092" lon="-0.794079987520905">
    </trkpt>
    <trkpt lat="52.018399995787092" lon="-0.794109987520919">
    </trkpt>
    <trkpt lat="52.018379995787079" lon="-0.794209987520981">
    </trkpt>
    <trkpt lat="52.018359995787065" lon="-0.794299987521038">
    </trkpt>
    <trkpt lat="52.018349995787048" lon="-0.794389987521089">
    </trkpt>
    <trkpt lat="52.018349995787048" lon="-0.794489987521138">
    </trkpt>
    <trkpt lat="52.018379995787093" lon="-0.794689987521224">
    </trkpt>
    <trkpt lat="52.018439995787126" lon="-0.795359987521529">
    </trkpt>
    <trkpt lat="52.018519995787202" lon="-0.79611998752187">
    </trkpt>
    <trkpt lat="52.018539995787201" lon="-0.79647998752204">
    </trkpt>
    <trkpt lat="52.018549995787225" lon="-0.796589987522089">
    </trkpt>
    <trkpt lat="52.018549995787225" lon="-0.796649987522121">
    </trkpt>
    <trkpt lat="52.018529995787205" lon="-0.796679987522146">
    </trkpt>
    <trkpt lat="52.018449995787151" lon="-0.79673998752222">
    </trkpt>
    <trkpt lat="52.018369995787083" lon="-0.796779987522283">
    </trkpt>
    <trkpt lat="52.018279995786997" lon="-0.796799987522343">
    </trkpt>
    <trkpt lat="52.01810999578688" lon="-0.796829987522449">
    </trkpt>
    <trkpt lat="52.018049995786832" lon="-0.796839987522488">
    </trkpt>
    <trkpt lat="52.017929995786737" lon="-0.796879987522572">
    </trkpt>
    <trkpt lat="52.017779995786633" lon="-0.796909987522669">
    </trkpt>
    <trkpt lat="52.017649995786513" lon="-0.796909987522739">
    </trkpt>
    <trkpt lat="52.017489995786384" lon="-0.796929987522836">
    </trkpt>
    <trkpt lat="52.017399995786299" lon="-0.7969599875229">
    </trkpt>
    <trkpt lat="52.017229995786167" lon="-0.797029987523027">
    </trkpt>
    <trkpt lat="52.017119995786089" lon="-0.797099987523122">
    </trkpt>
    <trkpt lat="52.017049995786017" lon="-0.79713998752318">
    </trkpt>
    <trkpt lat="52.016989995785998" lon="-0.797179987523234">
    </trkpt>
    <trkpt lat="52.016879995785906" lon="-0.797259987523334">
    </trkpt>
    <trkpt lat="52.016799995785831" lon="-0.797319987523407">
    </trkpt>
    <trkpt lat="52.016699995785764" lon="-0.797389987523497">
    </trkpt>
    <trkpt lat="52.016549995785638" lon="-0.797479987523623">
    </trkpt>
    <trkpt lat="52.016329995785469" lon="-0.797589987523798">
    </trkpt>
    <trkpt lat="52.016219995785377" lon="-0.797619987523873">
    </trkpt>
    <trkpt lat="52.016179995785329" lon="-0.797639987523905">
    </trkpt>
    <trkpt lat="52.016049995785245" lon="-0.797659987523985">
    </trkpt>
    <trkpt lat="52.015969995785184" lon="-0.797669987524033">
    </trkpt>
    <trkpt lat="52.015689995784953" lon="-0.7976999875242">
    </trkpt>
    <trkpt lat="52.015469995784777" lon="-0.797709987524325">
    </trkpt>
    <trkpt lat="52.015299995784673" lon="-0.797709987524417">
    </trkpt>
    <trkpt lat="52.015099995784468" lon="-0.797689987524516">
    </trkpt>
    <trkpt lat="52.014989995784376" lon="-0.797689987524574">
    </trkpt>
    <trkpt lat="52.014889995784316" lon="-0.797679987524624">
    </trkpt>
    <trkpt lat="52.014769995784206" lon="-0.797649987524674">
    </trkpt>
    <trkpt lat="52.014619995784109" lon="-0.797629987524745">
    </trkpt>
    <trkpt lat="52.014479995783979" lon="-0.7975899875248">
    </trkpt>
    <trkpt lat="52.014449995783956" lon="-0.797569987524807">
    </trkpt>
    <trkpt lat="52.014399995783933" lon="-0.797569987524834">
    </trkpt>
    <trkpt lat="52.01435999578387" lon="-0.797589987524866">
    </trkpt>
    <trkpt lat="52.014339995783864" lon="-0.797619987524892">
    </trkpt>
    <trkpt lat="52.01431999578385" lon="-0.797629987524907">
    </trkpt>
    <trkpt lat="52.01429999578383" lon="-0.797629987524918">
    </trkpt>
    <trkpt lat="52.014269995783813" lon="-0.797609987524925">
    </trkpt>
    <trkpt lat="52.014249995783786" lon="-0.797599987524931">
    </trkpt>
    <trkpt lat="52.014219995783776" lon="-0.797639987524967">
    </trkpt>
    <trkpt lat="52.014179995783756" lon="-0.797689987525014">
    </trkpt>
    <trkpt lat="52.014169995783739" lon="-0.797739987525044">
    </trkpt>
    <trkpt lat="52.014139995783722" lon="-0.797709987525045">
    </trkpt>
    <trkpt lat="52.014119995783702" lon="-0.797719987525062">
    </trkpt>
    <trkpt lat="52.014099995783681" lon="-0.797689987525058">
    </trkpt>
    <trkpt lat="52.014079995783661" lon="-0.797669987525058">
    </trkpt>
    <trkpt lat="52.014059995783654" lon="-0.797619987525043">
    </trkpt>
    <trkpt lat="52.013859995783498" lon="-0.797759987525222">
    </trkpt>
    <trkpt lat="52.013639995783315" lon="-0.797779987525352">
    </trkpt>
    <trkpt lat="52.013499995783199" lon="-0.797749987525413">
    </trkpt>
    <trkpt lat="52.013449995783176" lon="-0.797739987525435">
    </trkpt>
    <trkpt lat="52.013299995783044" lon="-0.797669987525481">
    </trkpt>
    <trkpt lat="52.013079995782867" lon="-0.79750998752552">
    </trkpt>
    <trkpt lat="52.012689995782559" lon="-0.796969987525459">
    </trkpt>
    <trkpt lat="52.012559995782439" lon="-0.796789987525438">
    </trkpt>
    <trkpt lat="52.012429995782348" lon="-0.796589987525408">
    </trkpt>
    <trkpt lat="52.012509995782395" lon="-0.796459987525298">
    </trkpt>
    <trkpt lat="52.012509995782388" lon="-0.796449987525293">
    </trkpt>
    <trkpt lat="52.012509995782395" lon="-0.796439987525288">
    </trkpt>
    <trkpt lat="52.012459995782379" lon="-0.79636998752528">
    </trkpt>
    <trkpt lat="52.012409995782335" lon="-0.796269987525257">
    </trkpt>
    <trkpt lat="52.012379995782311" lon="-0.796229987525253">
    </trkpt>
    <trkpt lat="52.01235999578229" lon="-0.796169987525233">
    </trkpt>
    <trkpt lat="52.012359995782298" lon="-0.796099987525199">
    </trkpt>
    <trkpt lat="52.01237999578229" lon="-0.796009987525142">
    </trkpt>
    <trkpt lat="52.012409995782342" lon="-0.795909987525075">
    </trkpt>
    <trkpt lat="52.012439995782351" lon="-0.795809987525008">
    </trkpt>
    <trkpt lat="52.012449995782369" lon="-0.795719987524958">
    </trkpt>
    <trkpt lat="52.012439995782337" lon="-0.795659987524933">
    </trkpt>
    <trkpt lat="52.012429995782355" lon="-0.795599987524908">
    </trkpt>
    <trkpt lat="52.012389995782321" lon="-0.7955399875249">
    </trkpt>
    <trkpt lat="52.012299995782236" lon="-0.795399987524877">
    </trkpt>
    <trkpt lat="52.012219995782196" lon="-0.795289987524865">
    </trkpt>
    <trkpt lat="52.012119995782079" lon="-0.795149987524849">
    </trkpt>
    <trkpt lat="52.012049995782029" lon="-0.795049987524837">
    </trkpt>
    <trkpt lat="52.011929995781934" lon="-0.794899987524826">
    </trkpt>
    <trkpt lat="52.011849995781859" lon="-0.794779987524809">
    </trkpt>
    <trkpt lat="52.011729995781764" lon="-0.794609987524788">
    </trkpt>
    <trkpt lat="52.011529995781622" lon="-0.794419987524801">
    </trkpt>
    <trkpt lat="52.011149995781309" lon="-0.793839987524714">
    </trkpt>
    <trkpt lat="52.010989995781188" lon="-0.793529987524645">
    </trkpt>
    <trkpt lat="52.010949995781147" lon="-0.793399987524601">
    </trkpt>
    <trkpt lat="52.01090999578112" lon="-0.793299987524573">
    </trkpt>
    <trkpt lat="52.010879995781089" lon="-0.793129987524503">
    </trkpt>
    <trkpt lat="52.010849995781072" lon="-0.792959987524434">
    </trkpt>
    <trkpt lat="52.010839995781048" lon="-0.792789987524353">
    </trkpt>
    <trkpt lat="52.010859995781061" lon="-0.792669987524282">
    </trkpt>
    <trkpt lat="52.01086999578105" lon="-0.792569987524226">
    </trkpt>
    <trkpt lat="52.010879995781089" lon="-0.79250998752419">
    </trkpt>
    <trkpt lat="52.010869995781071" lon="-0.792479987524181">
    </trkpt>
    <trkpt lat="52.010849995781058" lon="-0.792459987524182">
    </trkpt>
    <trkpt lat="52.010819995781027" lon="-0.792419987524177">
    </trkpt>
    <trkpt lat="52.010799995781007" lon="-0.792389987524173">
    </trkpt>
    <trkpt lat="52.010769995780997" lon="-0.792349987524169">
    </trkpt>
    <trkpt lat="52.010759995780973" lon="-0.79229998752415">
    </trkpt>
    <trkpt lat="52.010739995780952" lon="-0.79221998752412">
    </trkpt>
    <trkpt lat="52.010739995780973" lon="-0.792179987524099">
    </trkpt>
    <trkpt lat="52.010739995780959" lon="-0.79209998752406">
    </trkpt>
    <trkpt lat="52.010719995780953" lon="-0.792049987524045">
    </trkpt>
    <trkpt lat="52.010709995780935" lon="-0.79196998752401">
    </trkpt>
    <trkpt lat="52.010649995780909" lon="-0.791839987523978">
    </trkpt>
    <trkpt lat="52.010589995780848" lon="-0.791749987523964">
    </trkpt>
    <trkpt lat="52.010529995780807" lon="-0.791659987523952">
    </trkpt>
    <trkpt lat="52.010479995780756" lon="-0.791629987523964">
    </trkpt>
    <trkpt lat="52.010339995780633" lon="-0.791449987523948">
    </trkpt>
    <trkpt lat="52.0102799957806" lon="-0.791349987523931">
    </trkpt>
    <trkpt lat="52.010219995780552" lon="-0.791319987523949">
    </trkpt>
    <trkpt lat="52.010139995780492" lon="-0.791299987523982">
    </trkpt>
    <trkpt lat="52.010079995780451" lon="-0.791279987524004">
    </trkpt>
    <trkpt lat="52.010019995780375" lon="-0.791259987524027">
    </trkpt>
    <trkpt lat="52.009919995780308" lon="-0.791209987524056">
    </trkpt>
    <trkpt lat="52.009789995780217" lon="-0.791009987524025">
    </trkpt>
    <trkpt lat="52.009759995780172" lon="-0.790879987523976">
    </trkpt>
    <trkpt lat="52.009749995780169" lon="-0.790759987523921">
    </trkpt>
    <trkpt lat="52.009739995780158" lon="-0.790619987523856">
    </trkpt>
    <trkpt lat="52.00973999578018" lon="-0.790439987523765">
    </trkpt>
    <trkpt lat="52.009719995780138" lon="-0.790239987523676">
    </trkpt>
    <trkpt lat="52.009689995780086" lon="-0.790099987523621">
    </trkpt>
    <trkpt lat="52.009669995780115" lon="-0.790049987523607">
    </trkpt>
    <trkpt lat="52.00962999578006" lon="-0.789959987523583">
    </trkpt>
    <trkpt lat="52.009559995780009" lon="-0.789779987523531">
    </trkpt>
    <trkpt lat="52.009559995780016" lon="-0.789759987523521">
    </trkpt>
    <trkpt lat="52.009529995779985" lon="-0.789799987523557">
    </trkpt>
    <trkpt lat="52.009519995779961" lon="-0.789809987523566">
    </trkpt>
    <trkpt lat="52.009519995779968" lon="-0.789819987523572">
    </trkpt>
    <trkpt lat="52.009509995779958" lon="-0.789829987523583">
    </trkpt>
    <trkpt lat="52.009509995779958" lon="-0.789839987523589">
    </trkpt>
    <trkpt lat="52.009529995779971" lon="-0.789969987523643">
    </trkpt>
    <trkpt lat="52.009319995779833" lon="-0.790269987523908">
    </trkpt>
    <trkpt lat="52.009069995779626" lon="-0.790809987524316">
    </trkpt>
    <trkpt lat="52.009029995779599" lon="-0.790899987524383">
    </trkpt>
    <trkpt lat="52.008969995779552" lon="-0.79100998752447">
    </trkpt>
    <trkpt lat="52.008929995779532" lon="-0.791069987524522">
    </trkpt>
    <trkpt lat="52.008699995779317" lon="-0.791349987524788">
    </trkpt>
    <trkpt lat="52.008509995779185" lon="-0.791569987525003">
    </trkpt>
    <trkpt lat="52.008399995779108" lon="-0.791699987525127">
    </trkpt>
    <trkpt lat="52.008279995778992" lon="-0.791459987525072">
    </trkpt>
    <trkpt lat="52.008239995778972" lon="-0.791419987525073">
    </trkpt>
    <trkpt lat="52.008199995778924" lon="-0.791399987525085">
    </trkpt>
    <trkpt lat="52.008159995778911" lon="-0.791429987525121">
    </trkpt>
    <trkpt lat="52.008139995778876" lon="-0.791439987525138">
    </trkpt>
    <trkpt lat="52.00812999577888" lon="-0.791449987525148">
    </trkpt>
    <trkpt lat="52.008109995778874" lon="-0.79148998752518">
    </trkpt>
    <trkpt lat="52.008089995778853" lon="-0.791519987525204">
    </trkpt>
    <trkpt lat="52.008079995778843" lon="-0.791569987525235">
    </trkpt>
    <trkpt lat="52.008079995778829" lon="-0.791619987525261">
    </trkpt>
    <trkpt lat="52.008089995778832" lon="-0.79166998752528">
    </trkpt>
    <trkpt lat="52.008219995778973" lon="-0.791939987525347">
    </trkpt>
    <trkpt lat="52.00807999577885" lon="-0.792159987525533">
    </trkpt>
    <trkpt lat="52.007719995778572" lon="-0.79275998752603">
    </trkpt>
    <trkpt lat="52.007319995778253" lon="-0.793469987526605">
    </trkpt>
    <trkpt lat="52.007239995778178" lon="-0.793609987526719">
    </trkpt>
    <trkpt lat="52.007199995778144" lon="-0.793699987526786">
    </trkpt>
    <trkpt lat="52.007169995778135" lon="-0.793749987526827">
    </trkpt>
    <trkpt lat="52.007089995778045" lon="-0.793909987526952">
    </trkpt>
    <trkpt lat="52.007039995778023" lon="-0.793979987527014">
    </trkpt>
    <trkpt lat="52.007039995778037" lon="-0.79398998752702">
    </trkpt>
    <trkpt lat="52.006999995777996" lon="-0.794059987527075">
    </trkpt>
    <trkpt lat="52.006699995777765" lon="-0.794589987527506">
    </trkpt>
    <trkpt lat="52.006169995777341" lon="-0.795509987528258">
    </trkpt>
    <trkpt lat="52.006139995777332" lon="-0.795559987528299">
    </trkpt>
    <trkpt lat="52.006119995777297" lon="-0.795529987528295">
    </trkpt>
    <trkpt lat="52.00610999577728" lon="-0.795519987528294">
    </trkpt>
    <trkpt lat="52.006069995777267" lon="-0.795489987528302">
    </trkpt>
    <trkpt lat="52.00600999577722" lon="-0.795479987528329">
    </trkpt>
    <trkpt lat="52.005939995777169" lon="-0.795479987528367">
    </trkpt>
    <trkpt lat="52.005869995777118" lon="-0.795519987528425">
    </trkpt>
    <trkpt lat="52.005829995777077" lon="-0.795589987528483">
    </trkpt>
    <trkpt lat="52.005819995777067" lon="-0.795609987528498">
    </trkpt>
    <trkpt lat="52.005789995777043" lon="-0.795689987528554">
    </trkpt>
    <trkpt lat="52.005769995777037" lon="-0.795779987528611">
    </trkpt>
    <trkpt lat="52.005749995777002" lon="-0.795859987528661">
    </trkpt>
    <trkpt lat="52.005679995776966" lon="-0.796119987528831">
    </trkpt>
    <trkpt lat="52.005619995776911" lon="-0.796329987528969">
    </trkpt>
    <trkpt lat="52.005589995776909" lon="-0.796389987529015">
    </trkpt>
    <trkpt lat="52.005549995776853" lon="-0.796429987529057">
    </trkpt>
    <trkpt lat="52.005519995776837" lon="-0.796469987529094">
    </trkpt>
    <trkpt lat="52.005499995776816" lon="-0.796489987529115">
    </trkpt>
    <trkpt lat="52.005469995776799" lon="-0.796509987529142">
    </trkpt>
    <trkpt lat="52.005399995776749" lon="-0.796579987529215">
    </trkpt>
    <trkpt lat="52.005379995776728" lon="-0.796589987529231">
    </trkpt>
    <trkpt lat="52.005259995776626" lon="-0.796709987529356">
    </trkpt>
    <trkpt lat="52.005249995776623" lon="-0.796709987529362">
    </trkpt>
    <trkpt lat="52.005139995776531" lon="-0.796809987529471">
    </trkpt>
    <trkpt lat="52.004919995776355" lon="-0.797009987529692">
    </trkpt>
    <trkpt lat="52.004829995776284" lon="-0.797079987529776">
    </trkpt>
    <trkpt lat="52.004779995776261" lon="-0.797119987529823">
    </trkpt>
    <trkpt lat="52.004729995776195" lon="-0.797169987529876">
    </trkpt>
    <trkpt lat="52.004689995776168" lon="-0.797229987529928">
    </trkpt>
    <trkpt lat="52.004659995776152" lon="-0.797279987529969">
    </trkpt>
    <trkpt lat="52.00459999577609" lon="-0.797399987530062">
    </trkpt>
    <trkpt lat="52.004589995776122" lon="-0.797419987530077">
    </trkpt>
    <trkpt lat="52.004459995775989" lon="-0.7977199875303">
    </trkpt>
    <trkpt lat="52.004419995775976" lon="-0.797789987530357">
    </trkpt>
    <trkpt lat="52.004229995775802" lon="-0.797649987530388">
    </trkpt>
    <trkpt lat="52.004059995775684" lon="-0.797479987530395">
    </trkpt>
    <trkpt lat="52.00395999577561" lon="-0.797369987530394">
    </trkpt>
    <trkpt lat="52.003859995775521" lon="-0.797229987530378">
    </trkpt>
    <trkpt lat="52.003839995775493" lon="-0.797209987530378">
    </trkpt>
    <trkpt lat="52.003799995775474" lon="-0.797159987530375">
    </trkpt>
    <trkpt lat="52.003729995775402" lon="-0.796979987530322">
    </trkpt>
    <trkpt lat="52.003639995775337" lon="-0.796809987530285">
    </trkpt>
    <trkpt lat="52.003619995775317" lon="-0.796779987530281">
    </trkpt>
    <trkpt lat="52.003509995775211" lon="-0.79657998753024">
    </trkpt>
    <trkpt lat="52.003419995775175" lon="-0.796449987530223">
    </trkpt>
    <trkpt lat="52.003369995775117" lon="-0.7963499875302">
    </trkpt>
    <trkpt lat="52.003339995775086" lon="-0.796279987530181">
    </trkpt>
    <trkpt lat="52.00329999577508" lon="-0.796219987530173">
    </trkpt>
    <trkpt lat="52.003129995774898" lon="-0.796019987530164">
    </trkpt>
    <trkpt lat="52.002949995774777" lon="-0.79581998753016">
    </trkpt>
    <trkpt lat="52.002709995774566" lon="-0.795539987530149">
    </trkpt>
    <trkpt lat="52.002529995774431" lon="-0.795309987530131">
    </trkpt>
    <trkpt lat="52.002389995774344" lon="-0.795139987530121">
    </trkpt>
    <trkpt lat="52.002299995774244" lon="-0.795039987530119">
    </trkpt>
    <trkpt lat="52.002239995774197" lon="-0.794969987530117">
    </trkpt>
    <trkpt lat="52.002219995774198" lon="-0.794949987530118">
    </trkpt>
    <trkpt lat="52.002189995774152" lon="-0.794939987530129">
    </trkpt>
    <trkpt lat="52.002129995774119" lon="-0.794929987530157">
    </trkpt>
    <trkpt lat="52.002099995774095" lon="-0.794909987530163">
    </trkpt>
    <trkpt lat="52.002079995774075" lon="-0.794889987530164">
    </trkpt>
    <trkpt lat="52.002029995774038" lon="-0.794829987530161">
    </trkpt>
    <trkpt lat="52.001999995774014" lon="-0.794769987530147">
    </trkpt>
    <trkpt lat="52.001989995773997" lon="-0.794759987530148">
    </trkpt>
    <trkpt lat="52.001979995774008" lon="-0.794749987530147">
    </trkpt>
    <trkpt lat="52.001939995773959" lon="-0.794659987530125">
    </trkpt>
    <trkpt lat="52.001879995773919" lon="-0.794539987530096">
    </trkpt>
    <trkpt lat="52.001839995773906" lon="-0.794459987530078">
    </trkpt>
    <trkpt lat="52.001799995773844" lon="-0.794389987530064">
    </trkpt>
    <trkpt lat="52.001779995773838" lon="-0.794349987530054">
    </trkpt>
    <trkpt lat="52.001749995773821" lon="-0.794329987530061">
    </trkpt>
    <trkpt lat="52.001729995773815" lon="-0.794319987530067">
    </trkpt>
    <trkpt lat="52.001699995773784" lon="-0.794319987530083">
    </trkpt>
    <trkpt lat="52.001649995773732" lon="-0.7942999875301">
    </trkpt>
    <trkpt lat="52.001619995773694" lon="-0.794279987530106">
    </trkpt>
    <trkpt lat="52.001569995773671" lon="-0.794229987530108">
    </trkpt>
    <trkpt lat="52.001489995773603" lon="-0.794109987530091">
    </trkpt>
    <trkpt lat="52.001479995773607" lon="-0.794109987530096">
    </trkpt>
    <trkpt lat="52.001389995773508" lon="-0.793979987530079">
    </trkpt>
    <trkpt lat="52.001319995773471" lon="-0.793879987530067">
    </trkpt>
    <trkpt lat="52.001229995773414" lon="-0.793779987530066">
    </trkpt>
    <trkpt lat="52.001169995773353" lon="-0.793709987530063">
    </trkpt>
    <trkpt lat="52.001099995773288" lon="-0.793649987530071">
    </trkpt>
    <trkpt lat="52.000989995773217" lon="-0.793559987530085">
    </trkpt>
    <trkpt lat="52.000829995773074" lon="-0.793479987530131">
    </trkpt>
    <trkpt lat="52.000599995772887" lon="-0.793379987530206">
    </trkpt>
    <trkpt lat="52.000389995772728" lon="-0.793279987530269">
    </trkpt>
    <trkpt lat="52.00030999577266" lon="-0.793249987530298">
    </trkpt>
    <trkpt lat="52.000259995772623" lon="-0.79321998753031">
    </trkpt>
    <trkpt lat="52.000209995772572" lon="-0.793199987530328">
    </trkpt>
    <trkpt lat="52.000179995772584" lon="-0.793189987530338">
    </trkpt>
    <trkpt lat="52.000159995772542" lon="-0.793199987530354">
    </trkpt>
    <trkpt lat="52.000129995772525" lon="-0.79321998753038">
    </trkpt>
    <trkpt lat="52.000079995772452" lon="-0.793289987530444">
    </trkpt>
    <trkpt lat="52.000029995772429" lon="-0.79330998753048">
    </trkpt>
    <trkpt lat="51.999899995772331" lon="-0.793289987530541">
    </trkpt>
    <trkpt lat="51.999769995772233" lon="-0.793269987530601">
    </trkpt>
    <trkpt lat="51.999679995772141" lon="-0.793259987530644">
    </trkpt>
    <trkpt lat="51.999569995772063" lon="-0.793239987530694">
    </trkpt>
    <trkpt lat="51.999499995772027" lon="-0.793189987530707">
    </trkpt>
    <trkpt lat="51.99944999577199" lon="-0.793159987530719">
    </trkpt>
    <trkpt lat="51.999439995771958" lon="-0.79314998753072">
    </trkpt>
    <trkpt lat="51.999359995771925" lon="-0.793309987530844">
    </trkpt>
    <trkpt lat="51.999169995771759" lon="-0.793759987531173">
    </trkpt>
    <trkpt lat="51.998969995771589" lon="-0.794169987531488">
    </trkpt>
    <trkpt lat="51.998929995771569" lon="-0.79424998753155">
    </trkpt>
    <trkpt lat="51.998909995771555" lon="-0.794309987531592">
    </trkpt>
    <trkpt lat="51.998849995771479" lon="-0.794409987531674">
    </trkpt>
    <trkpt lat="51.998769995771447" lon="-0.794489987531759">
    </trkpt>
    <trkpt lat="51.998489995771209" lon="-0.794659987531995">
    </trkpt>
    <trkpt lat="51.998469995771202" lon="-0.794669987532012">
    </trkpt>
    <trkpt lat="51.998249995771019" lon="-0.794749987532172">
    </trkpt>
    <trkpt lat="51.998199995770989" lon="-0.794789987532218">
    </trkpt>
    <trkpt lat="51.998149995770952" lon="-0.794949987532327">
    </trkpt>
    <trkpt lat="51.998069995770877" lon="-0.795149987532471">
    </trkpt>
    <trkpt lat="51.997999995770833" lon="-0.795279987532574">
    </trkpt>
    <trkpt lat="51.997849995770707" lon="-0.795519987532776">
    </trkpt>
    <trkpt lat="51.997699995770589" lon="-0.795789987532994">
    </trkpt>
    <trkpt lat="51.997579995770508" lon="-0.796019987533175">
    </trkpt>
    <trkpt lat="51.997539995770481" lon="-0.796079987533226">
    </trkpt>
    <trkpt lat="51.997409995770369" lon="-0.796159987533338">
    </trkpt>
    <trkpt lat="51.99730999577028" lon="-0.796199987533412">
    </trkpt>
    <trkpt lat="51.997229995770212" lon="-0.796219987533465">
    </trkpt>
    <trkpt lat="51.997169995770165" lon="-0.796229987533504">
    </trkpt>
    <trkpt lat="51.997009995770064" lon="-0.796199987533575">
    </trkpt>
    <trkpt lat="51.996909995769954" lon="-0.796069987533565">
    </trkpt>
    <trkpt lat="51.99686999576992" lon="-0.796009987533555">
    </trkpt>
    <trkpt lat="51.996839995769918" lon="-0.795979987533557">
    </trkpt>
    <trkpt lat="51.99675999576985" lon="-0.795779987533499">
    </trkpt>
    <trkpt lat="51.996709995769798" lon="-0.795659987533466">
    </trkpt>
    <trkpt lat="51.996649995769744" lon="-0.795519987533427">
    </trkpt>
    <trkpt lat="51.99656999576969" lon="-0.795269987533345">
    </trkpt>
    <trkpt lat="51.996469995769608" lon="-0.794929987533228">
    </trkpt>
    <trkpt lat="51.996419995769564" lon="-0.794729987533154">
    </trkpt>
    <trkpt lat="51.99633999576951" lon="-0.794319987532992">
    </trkpt>
    <trkpt lat="51.996299995769462" lon="-0.794179987532943">
    </trkpt>
    <trkpt lat="51.996229995769419" lon="-0.79399998753289">
    </trkpt>
    <trkpt lat="51.996139995769347" lon="-0.793829987532853">
    </trkpt>
    <trkpt lat="51.996029995769241" lon="-0.793679987532838">
    </trkpt>
    <trkpt lat="51.995979995769204" lon="-0.79362998753284">
    </trkpt>
    <trkpt lat="51.99593999576917" lon="-0.793579987532836">
    </trkpt>
    <trkpt lat="51.995839995769096" lon="-0.793509987532856">
    </trkpt>
    <trkpt lat="51.995809995769072" lon="-0.793489987532861">
    </trkpt>
    <trkpt lat="51.995729995769011" lon="-0.793439987532879">
    </trkpt>
    <trkpt lat="51.995589995768896" lon="-0.793379987532925">
    </trkpt>
    <trkpt lat="51.995409995768753" lon="-0.793289987532977">
    </trkpt>
    <trkpt lat="51.99525999576862" lon="-0.793189987533008">
    </trkpt>
    <trkpt lat="51.995239995768628" lon="-0.793169987533009">
    </trkpt>
    <trkpt lat="51.99513999576854" lon="-0.793079987533018">
    </trkpt>
    <trkpt lat="51.995039995768451" lon="-0.792989987533027">
    </trkpt>
    <trkpt lat="51.99494999576838" lon="-0.792889987533025">
    </trkpt>
    <trkpt lat="51.994769995768245" lon="-0.792669987533013">
    </trkpt>
    <trkpt lat="51.994619995768126" lon="-0.792429987532973">
    </trkpt>
    <trkpt lat="51.99441999576797" lon="-0.792099987532916">
    </trkpt>
    <trkpt lat="51.994419995767949" lon="-0.792059987532895">
    </trkpt>
    <trkpt lat="51.994419995767949" lon="-0.791999987532865">
    </trkpt>
    <trkpt lat="51.99440999576796" lon="-0.791979987532861">
    </trkpt>
    <trkpt lat="51.994409995767953" lon="-0.791919987532831">
    </trkpt>
    <trkpt lat="51.994389995767953" lon="-0.791849987532807">
    </trkpt>
    <trkpt lat="51.994349995767898" lon="-0.791789987532798">
    </trkpt>
    <trkpt lat="51.994319995767881" lon="-0.791739987532789">
    </trkpt>
    <trkpt lat="51.994279995767833" lon="-0.79173998753281">
    </trkpt>
    <trkpt lat="51.994249995767817" lon="-0.791739987532828">
    </trkpt>
    <trkpt lat="51.994239995767799" lon="-0.791749987532837">
    </trkpt>
    <trkpt lat="51.994169995767749" lon="-0.791789987532895">
    </trkpt>
    <trkpt lat="51.994139995767732" lon="-0.791819987532927">
    </trkpt>
    <trkpt lat="51.994069995767681" lon="-0.79190998753301">
    </trkpt>
    <trkpt lat="51.994019995767637" lon="-0.792009987533088">
    </trkpt>
    <trkpt lat="51.993999995767631" lon="-0.792079987533133">
    </trkpt>
    <trkpt lat="51.993979995767582" lon="-0.79216998753319">
    </trkpt>
    <trkpt lat="51.993939995767576" lon="-0.792239987533247">
    </trkpt>
    <trkpt lat="51.993869995767525" lon="-0.792349987533341">
    </trkpt>
    <trkpt lat="51.993819995767481" lon="-0.792449987533418">
    </trkpt>
    <trkpt lat="51.993789995767457" lon="-0.792489987533454">
    </trkpt>
    <trkpt lat="51.993779995767454" lon="-0.792539987533485">
    </trkpt>
    <trkpt lat="51.993769995767451" lon="-0.792599987533521">
    </trkpt>
    <trkpt lat="51.993719995767414" lon="-0.792689987533593">
    </trkpt>
    <trkpt lat="51.99367999576738" lon="-0.79273998753364">
    </trkpt>
    <trkpt lat="51.993649995767349" lon="-0.792749987533661">
    </trkpt>
    <trkpt lat="51.993619995767325" lon="-0.792749987533677">
    </trkpt>
    <trkpt lat="51.993579995767291" lon="-0.792689987533669">
    </trkpt>
    <trkpt lat="51.99343999576719" lon="-0.792399987533599">
    </trkpt>
    <trkpt lat="51.993349995767105" lon="-0.792289987533592">
    </trkpt>
    <trkpt lat="51.993229995767017" lon="-0.792159987533592">
    </trkpt>
    <trkpt lat="51.993089995766901" lon="-0.792029987533603">
    </trkpt>
    <trkpt lat="51.992899995766741" lon="-0.791749987533564">
    </trkpt>
    <trkpt lat="51.992409995766359" lon="-0.790639987533272">
    </trkpt>
    <trkpt lat="51.992139995766124" lon="-0.789929987533061">
    </trkpt>
    <trkpt lat="51.991739995765812" lon="-0.788789987532705">
    </trkpt>
    <trkpt lat="51.991709995765788" lon="-0.788599987532626">
    </trkpt>
    <trkpt lat="51.991759995765818" lon="-0.788389987532493">
    </trkpt>
    <trkpt lat="51.992289995766249" lon="-0.787749987531883">
    </trkpt>
    <trkpt lat="51.992499995766408" lon="-0.787479987531633">
    </trkpt>
    <trkpt lat="51.992599995766483" lon="-0.787299987531488">
    </trkpt>
    <trkpt lat="51.992729995766581" lon="-0.786969987531251">
    </trkpt>
    <trkpt lat="51.992819995766652" lon="-0.786769987531103">
    </trkpt>
    <trkpt lat="51.9928799957667" lon="-0.786819987531094">
    </trkpt>
    <trkpt lat="51.992899995766706" lon="-0.786829987531089">
    </trkpt>
    <trkpt lat="51.992969995766764" lon="-0.786759987531015">
    </trkpt>
    <trkpt lat="51.993089995766866" lon="-0.786679987530911">
    </trkpt>
    <trkpt lat="51.993239995766992" lon="-0.786649987530813">
    </trkpt>
    <trkpt lat="51.993579995767249" lon="-0.786679987530644">
    </trkpt>
    <trkpt lat="51.993639995767303" lon="-0.786629987530586">
    </trkpt>
    <trkpt lat="51.993709995767361" lon="-0.786579987530523">
    </trkpt>
    <trkpt lat="51.993739995767392" lon="-0.786529987530481">
    </trkpt>
    <trkpt lat="51.993829995767449" lon="-0.786359987530347">
    </trkpt>
    <trkpt lat="51.993849995767476" lon="-0.786309987530311">
    </trkpt>
    <trkpt lat="51.993869995767483" lon="-0.786239987530265">
    </trkpt>
    <trkpt lat="51.99388999576751" lon="-0.786179987530224">
    </trkpt>
    <trkpt lat="51.993899995767499" lon="-0.786139987530198">
    </trkpt>
    <trkpt lat="51.99391999576752" lon="-0.786089987530162">
    </trkpt>
    <trkpt lat="51.99392999576753" lon="-0.786069987530147">
    </trkpt>
    <trkpt lat="51.993949995767537" lon="-0.786039987530121">
    </trkpt>
    <trkpt lat="51.99395999576754" lon="-0.786019987530106">
    </trkpt>
    <trkpt lat="51.993979995767546" lon="-0.78598998753008">
    </trkpt>
    <trkpt lat="51.993999995767588" lon="-0.785959987530053">
    </trkpt>
    <trkpt lat="51.994029995767605" lon="-0.785929987530022">
    </trkpt>
    <trkpt lat="51.994049995767625" lon="-0.785879987529987">
    </trkpt>
    <trkpt lat="51.994069995767624" lon="-0.785859987529966">
    </trkpt>
    <trkpt lat="51.994079995767635" lon="-0.78581998752994">
    </trkpt>
    <trkpt lat="51.994089995767659" lon="-0.78578998752992">
    </trkpt>
    <trkpt lat="51.99410999576768" lon="-0.785729987529878">
    </trkpt>
    <trkpt lat="51.994119995767683" lon="-0.785689987529853">
    </trkpt>
    <trkpt lat="51.994129995767686" lon="-0.785629987529817">
    </trkpt>
    <trkpt lat="51.994129995767686" lon="-0.785579987529792">
    </trkpt>
    <trkpt lat="51.994139995767689" lon="-0.785529987529762">
    </trkpt>
    <trkpt lat="51.99415999576771" lon="-0.785479987529725">
    </trkpt>
    <trkpt lat="51.99417999576773" lon="-0.785439987529695">
    </trkpt>
    <trkpt lat="51.994219995767757" lon="-0.785369987529637">
    </trkpt>
    <trkpt lat="51.994249995767781" lon="-0.785319987529596">
    </trkpt>
    <trkpt lat="51.994279995767819" lon="-0.78527998752956">
    </trkpt>
    <trkpt lat="51.994309995767821" lon="-0.785249987529528">
    </trkpt>
    <trkpt lat="51.994319995767846" lon="-0.785239987529517">
    </trkpt>
    <trkpt lat="51.994369995767876" lon="-0.785189987529465">
    </trkpt>
    <trkpt lat="51.994419995767913" lon="-0.785139987529413">
    </trkpt>
    <trkpt lat="51.994459995767954" lon="-0.785089987529366">
    </trkpt>
    <trkpt lat="51.994499995767981" lon="-0.785039987529319">
    </trkpt>
    <trkpt lat="51.994549995768011" lon="-0.784949987529247">
    </trkpt>
    <trkpt lat="51.994569995768039" lon="-0.78489998752921">
    </trkpt>
    <trkpt lat="51.99459999576807" lon="-0.784819987529154">
    </trkpt>
    <trkpt lat="51.994649995768114" lon="-0.784699987529067">
    </trkpt>
    <trkpt lat="51.994679995768109" lon="-0.784599987529">
    </trkpt>
    <trkpt lat="51.994709995768112" lon="-0.78450998752894">
    </trkpt>
    <trkpt lat="51.994739995768164" lon="-0.784429987528882">
    </trkpt>
    <trkpt lat="51.994749995768174" lon="-0.784399987528862">
    </trkpt>
    <trkpt lat="51.994769995768173" lon="-0.784339987528821">
    </trkpt>
    <trkpt lat="51.994779995768184" lon="-0.78426998752878">
    </trkpt>
    <trkpt lat="51.994789995768194" lon="-0.784209987528744">
    </trkpt>
    <trkpt lat="51.994799995768219" lon="-0.784119987528693">
    </trkpt>
    <trkpt lat="51.994799995768211" lon="-0.783999987528633">
    </trkpt>
    <trkpt lat="51.994799995768211" lon="-0.783899987528582">
    </trkpt>
    <trkpt lat="51.994809995768215" lon="-0.783799987528528">
    </trkpt>
    <trkpt lat="51.994829995768249" lon="-0.783719987528476">
    </trkpt>
    <trkpt lat="51.994839995768245" lon="-0.78367998752845">
    </trkpt>
    <trkpt lat="51.994849995768227" lon="-0.78364998752843">
    </trkpt>
    <trkpt lat="51.994869995768248" lon="-0.783629987528409">
    </trkpt>
    <trkpt lat="51.994889995768276" lon="-0.783599987528383">
    </trkpt>
    <trkpt lat="51.994919995768306" lon="-0.783569987528352">
    </trkpt>
    <trkpt lat="51.994959995768333" lon="-0.783539987528315">
    </trkpt>
    <trkpt lat="51.99498999576835" lon="-0.783529987528294">
    </trkpt>
    <trkpt lat="51.995019995768374" lon="-0.783509987528267">
    </trkpt>
    <trkpt lat="51.995049995768397" lon="-0.783499987528246">
    </trkpt>
    <trkpt lat="51.995079995768435" lon="-0.783489987528225">
    </trkpt>
    <trkpt lat="51.995119995768448" lon="-0.783469987528193">
    </trkpt>
    <trkpt lat="51.995149995768493" lon="-0.783449987528167">
    </trkpt>
    <trkpt lat="51.995179995768495" lon="-0.783419987528135">
    </trkpt>
    <trkpt lat="51.995229995768533" lon="-0.783369987528083">
    </trkpt>
    <trkpt lat="51.995259995768571" lon="-0.783309987528036">
    </trkpt>
    <trkpt lat="51.995289995768594" lon="-0.783259987527995">
    </trkpt>
    <trkpt lat="51.995319995768611" lon="-0.783189987527944">
    </trkpt>
    <trkpt lat="51.995349995768628" lon="-0.783119987527891">
    </trkpt>
    <trkpt lat="51.995369995768662" lon="-0.783049987527846">
    </trkpt>
    <trkpt lat="51.995379995768651" lon="-0.782999987527816">
    </trkpt>
    <trkpt lat="51.995389995768676" lon="-0.78293998752778">
    </trkpt>
    <trkpt lat="51.995419995768692" lon="-0.782849987527718">
    </trkpt>
    <trkpt lat="51.995459995768712" lon="-0.782739987527641">
    </trkpt>
    <trkpt lat="51.995509995768757" lon="-0.782679987527584">
    </trkpt>
    <trkpt lat="51.995559995768815" lon="-0.782649987527541">
    </trkpt>
    <trkpt lat="51.995619995768863" lon="-0.782639987527504">
    </trkpt>
    <trkpt lat="51.995709995768948" lon="-0.782619987527444">
    </trkpt>
    <trkpt lat="51.99575999576895" lon="-0.782609987527413">
    </trkpt>
    <trkpt lat="51.995779995768984" lon="-0.782609987527402">
    </trkpt>
    <trkpt lat="51.995809995769008" lon="-0.782609987527386">
    </trkpt>
    <trkpt lat="51.995849995769049" lon="-0.782599987527358">
    </trkpt>
    <trkpt lat="51.995879995769059" lon="-0.782559987527323">
    </trkpt>
    <trkpt lat="51.995919995769086" lon="-0.782519987527281">
    </trkpt>
    <trkpt lat="51.995949995769102" lon="-0.782469987527239">
    </trkpt>
    <trkpt lat="51.99598999576915" lon="-0.782419987527193">
    </trkpt>
    <trkpt lat="51.996019995769153" lon="-0.782369987527151">
    </trkpt>
    <trkpt lat="51.996049995769198" lon="-0.782309987527104">
    </trkpt>
    <trkpt lat="51.996089995769225" lon="-0.782249987527053">
    </trkpt>
    <trkpt lat="51.996119995769249" lon="-0.782189987527005">
    </trkpt>
    <trkpt lat="51.996169995769286" lon="-0.782099987526934">
    </trkpt>
    <trkpt lat="51.99620999576932" lon="-0.782039987526882">
    </trkpt>
    <trkpt lat="51.996239995769358" lon="-0.782019987526855">
    </trkpt>
    <trkpt lat="51.996299995769391" lon="-0.781969987526797">
    </trkpt>
    <trkpt lat="51.996339995769411" lon="-0.781919987526751">
    </trkpt>
    <trkpt lat="51.996359995769438" lon="-0.781889987526725">
    </trkpt>
    <trkpt lat="51.996389995769462" lon="-0.781829987526678">
    </trkpt>
    <trkpt lat="51.996409995769469" lon="-0.781779987526643">
    </trkpt>
    <trkpt lat="51.996439995769506" lon="-0.781729987526601">
    </trkpt>
    <trkpt lat="51.996439995769485" lon="-0.781719987526596">
    </trkpt>
    <trkpt lat="51.996479995769519" lon="-0.781669987526549">
    </trkpt>
    <trkpt lat="51.996519995769567" lon="-0.781639987526512">
    </trkpt>
    <trkpt lat="51.996559995769587" lon="-0.781609987526475">
    </trkpt>
    <trkpt lat="51.996589995769625" lon="-0.781589987526448">
    </trkpt>
    <trkpt lat="51.996619995769649" lon="-0.781569987526422">
    </trkpt>
    <trkpt lat="51.99665999576969" lon="-0.781539987526387">
    </trkpt>
    <trkpt lat="51.996699995769688" lon="-0.781499987526344">
    </trkpt>
    <trkpt lat="51.996739995769744" lon="-0.781439987526292">
    </trkpt>
    <trkpt lat="51.996779995769764" lon="-0.781369987526234">
    </trkpt>
    <trkpt lat="51.996829995769815" lon="-0.781239987526143">
    </trkpt>
    <trkpt lat="51.996869995769835" lon="-0.781159987526081">
    </trkpt>
    <trkpt lat="51.996869995769828" lon="-0.781149987526075">
    </trkpt>
    <trkpt lat="51.996899995769844" lon="-0.781089987526029">
    </trkpt>
    <trkpt lat="51.996949995769917" lon="-0.781029987525972">
    </trkpt>
    <trkpt lat="51.996979995769919" lon="-0.780989987525935">
    </trkpt>
    <trkpt lat="51.997019995769961" lon="-0.780949987525894">
    </trkpt>
    <trkpt lat="51.997079995769994" lon="-0.780919987525846">
    </trkpt>
    <trkpt lat="51.997119995770049" lon="-0.780909987525819">
    </trkpt>
    <trkpt lat="51.997159995770076" lon="-0.780889987525787">
    </trkpt>
    <trkpt lat="51.9971899957701" lon="-0.780879987525766">
    </trkpt>
    <trkpt lat="51.997239995770137" lon="-0.780849987525724">
    </trkpt>
    <trkpt lat="51.997339995770211" lon="-0.78076998752563">
    </trkpt>
    <trkpt lat="51.997429995770275" lon="-0.780669987525529">
    </trkpt>
    <trkpt lat="51.997449995770296" lon="-0.780639987525504">
    </trkpt>
    <trkpt lat="51.997519995770347" lon="-0.780509987525401">
    </trkpt>
    <trkpt lat="51.997579995770401" lon="-0.780409987525318">
    </trkpt>
    <trkpt lat="51.997619995770457" lon="-0.78035998752527">
    </trkpt>
    <trkpt lat="51.997619995770435" lon="-0.780349987525266">
    </trkpt>
    <trkpt lat="51.997659995770476" lon="-0.780309987525224">
    </trkpt>
    <trkpt lat="51.997709995770499" lon="-0.780249987525166">
    </trkpt>
    <trkpt lat="51.997759995770544" lon="-0.780179987525105">
    </trkpt>
    <trkpt lat="51.997809995770567" lon="-0.780109987525042">
    </trkpt>
    <trkpt lat="51.997849995770622" lon="-0.78004998752499">
    </trkpt>
    <trkpt lat="51.997889995770635" lon="-0.779979987524933">
    </trkpt>
    <trkpt lat="51.997919995770673" lon="-0.779919987524886">
    </trkpt>
    <trkpt lat="51.997939995770686" lon="-0.77986998752485">
    </trkpt>
    <trkpt lat="51.997959995770692" lon="-0.779779987524795">
    </trkpt>
    <trkpt lat="51.997979995770706" lon="-0.779709987524749">
    </trkpt>
    <trkpt lat="51.99798999577073" lon="-0.779659987524718">
    </trkpt>
    <trkpt lat="51.997999995770726" lon="-0.779609987524687">
    </trkpt>
    <trkpt lat="51.998019995770747" lon="-0.779569987524656">
    </trkpt>
    <trkpt lat="51.998059995770781" lon="-0.779529987524614">
    </trkpt>
    <trkpt lat="51.998099995770829" lon="-0.779499987524578">
    </trkpt>
    <trkpt lat="51.998149995770866" lon="-0.779479987524541">
    </trkpt>
    <trkpt lat="51.998189995770879" lon="-0.779469987524514">
    </trkpt>
    <trkpt lat="51.998219995770903" lon="-0.779449987524487">
    </trkpt>
    <trkpt lat="51.998249995770919" lon="-0.779439987524467">
    </trkpt>
    <trkpt lat="51.99827999577095" lon="-0.779419987524441">
    </trkpt>
    <trkpt lat="51.998289995770946" lon="-0.779399987524424">
    </trkpt>
    <trkpt lat="51.998299995770942" lon="-0.779379987524409">
    </trkpt>
    <trkpt lat="51.998319995770991" lon="-0.779339987524378">
    </trkpt>
    <trkpt lat="51.998349995771008" lon="-0.779269987524326">
    </trkpt>
    <trkpt lat="51.998369995771029" lon="-0.779189987524275">
    </trkpt>
    <trkpt lat="51.998379995771032" lon="-0.779119987524234">
    </trkpt>
    <trkpt lat="51.998399995771038" lon="-0.779009987524168">
    </trkpt>
    <trkpt lat="51.998409995771063" lon="-0.778919987524118">
    </trkpt>
    <trkpt lat="51.998429995771062" lon="-0.778829987524062">
    </trkpt>
    <trkpt lat="51.998449995771068" lon="-0.778739987524007">
    </trkpt>
    <trkpt lat="51.998469995771103" lon="-0.778669987523959">
    </trkpt>
    <trkpt lat="51.998489995771116" lon="-0.778619987523924">
    </trkpt>
    <trkpt lat="51.998519995771119" lon="-0.778559987523878">
    </trkpt>
    <trkpt lat="51.998539995771146" lon="-0.778519987523847">
    </trkpt>
    <trkpt lat="51.998579995771188" lon="-0.778459987523794">
    </trkpt>
    <trkpt lat="51.998609995771204" lon="-0.778409987523753">
    </trkpt>
    <trkpt lat="51.998629995771225" lon="-0.778389987523731">
    </trkpt>
    <trkpt lat="51.998689995771279" lon="-0.778319987523663">
    </trkpt>
    <trkpt lat="51.998729995771299" lon="-0.778269987523617">
    </trkpt>
    <trkpt lat="51.99876999577134" lon="-0.77821998752357">
    </trkpt>
    <trkpt lat="51.99879999577135" lon="-0.778159987523524">
    </trkpt>
    <trkpt lat="51.998829995771388" lon="-0.778069987523462">
    </trkpt>
    <trkpt lat="51.998849995771394" lon="-0.777969987523401">
    </trkpt>
    <trkpt lat="51.998859995771397" lon="-0.77785998752334">
    </trkpt>
    <trkpt lat="51.998889995771435" lon="-0.777749987523269">
    </trkpt>
    <trkpt lat="51.998909995771463" lon="-0.777709987523239">
    </trkpt>
    <trkpt lat="51.998909995771442" lon="-0.777699987523233">
    </trkpt>
    <trkpt lat="51.998939995771465" lon="-0.777629987523181">
    </trkpt>
    <trkpt lat="51.998959995771507" lon="-0.777599987523155">
    </trkpt>
    <trkpt lat="51.998979995771492" lon="-0.77754998752312">
    </trkpt>
    <trkpt lat="51.998999995771527" lon="-0.777509987523088">
    </trkpt>
    <trkpt lat="51.999019995771505" lon="-0.777479987523062">
    </trkpt>
    <trkpt lat="51.99905999577156" lon="-0.777399987523">
    </trkpt>
    <trkpt lat="51.999089995771584" lon="-0.777299987522934">
    </trkpt>
    <trkpt lat="51.999109995771583" lon="-0.777239987522893">
    </trkpt>
    <trkpt lat="51.999119995771622" lon="-0.777179987522857">
    </trkpt>
    <trkpt lat="51.999129995771632" lon="-0.777139987522832">
    </trkpt>
    <trkpt lat="51.999129995771618" lon="-0.777089987522807">
    </trkpt>
    <trkpt lat="51.999129995771611" lon="-0.777039987522782">
    </trkpt>
    <trkpt lat="51.999129995771625" lon="-0.776969987522747">
    </trkpt>
    <trkpt lat="51.999129995771611" lon="-0.776879987522701">
    </trkpt>
    <trkpt lat="51.999129995771611" lon="-0.776779987522651">
    </trkpt>
    <trkpt lat="51.999139995771614" lon="-0.77672998752262">
    </trkpt>
    <trkpt lat="51.999149995771639" lon="-0.776669987522585">
    </trkpt>
    <trkpt lat="51.999159995771649" lon="-0.776599987522544">
    </trkpt>
    <trkpt lat="51.999169995771638" lon="-0.776549987522513">
    </trkpt>
    <trkpt lat="51.999189995771644" lon="-0.776479987522468">
    </trkpt>
    <trkpt lat="51.999199995771669" lon="-0.776439987522442">
    </trkpt>
    <trkpt lat="51.99920999577165" lon="-0.776429987522432">
    </trkpt>
    <trkpt lat="51.999239995771703" lon="-0.776389987522395">
    </trkpt>
    <trkpt lat="51.999279995771744" lon="-0.776359987522359">
    </trkpt>
    <trkpt lat="51.999319995771764" lon="-0.776339987522326">
    </trkpt>
    <trkpt lat="51.999369995771787" lon="-0.776319987522289">
    </trkpt>
    <trkpt lat="51.999419995771831" lon="-0.776299987522252">
    </trkpt>
    <trkpt lat="51.999439995771851" lon="-0.776309987522247">
    </trkpt>
    <trkpt lat="51.999459995771858" lon="-0.776299987522231">
    </trkpt>
    <trkpt lat="51.999479995771878" lon="-0.77629998752222">
    </trkpt>
    <trkpt lat="51.999539995771947" lon="-0.776259987522166">
    </trkpt>
    <trkpt lat="51.999669995772038" lon="-0.776129987522031">
    </trkpt>
    <trkpt lat="51.999749995772106" lon="-0.776049987521947">
    </trkpt>
    <trkpt lat="51.999789995772133" lon="-0.776029987521916">
    </trkpt>
    <trkpt lat="51.999859995772177" lon="-0.776009987521866">
    </trkpt>
    <trkpt lat="51.999909995772249" lon="-0.77600998752184">
    </trkpt>
    <trkpt lat="51.999959995772272" lon="-0.775999987521808">
    </trkpt>
    <trkpt lat="51.999999995772299" lon="-0.775989987521781">
    </trkpt>
    <trkpt lat="52.000039995772319" lon="-0.77596998752175">
    </trkpt>
    <trkpt lat="52.000109995772384" lon="-0.775929987521692">
    </trkpt>
    <trkpt lat="52.000129995772397" lon="-0.775919987521675">
    </trkpt>
    <trkpt lat="52.000169995772424" lon="-0.775879987521634">
    </trkpt>
    <trkpt lat="52.000229995772472" lon="-0.775829987521575">
    </trkpt>
    <trkpt lat="52.000319995772536" lon="-0.775699987521462">
    </trkpt>
    <trkpt lat="52.000389995772622" lon="-0.775589987521369">
    </trkpt>
    <trkpt lat="52.000419995772617" lon="-0.775559987521337">
    </trkpt>
    <trkpt lat="52.000439995772652" lon="-0.775539987521316">
    </trkpt>
    <trkpt lat="52.000479995772686" lon="-0.775519987521284">
    </trkpt>
    <trkpt lat="52.000539995772726" lon="-0.775499987521242">
    </trkpt>
    <trkpt lat="52.000579995772746" lon="-0.775509987521224">
    </trkpt>
    <trkpt lat="52.000609995772777" lon="-0.775519987521213">
    </trkpt>
    <trkpt lat="52.000649995772839" lon="-0.775539987521202">
    </trkpt>
    <trkpt lat="52.000699995772855" lon="-0.775539987521175">
    </trkpt>
    <trkpt lat="52.000739995772896" lon="-0.775529987521148">
    </trkpt>
    <trkpt lat="52.00081999577295" lon="-0.775479987521079">
    </trkpt>
    <trkpt lat="52.00104999577313" lon="-0.775269987520849">
    </trkpt>
    <trkpt lat="52.001099995773153" lon="-0.775189987520781">
    </trkpt>
    <trkpt lat="52.001149995773211" lon="-0.775079987520698">
    </trkpt>
    <trkpt lat="52.001189995773245" lon="-0.775009987520642">
    </trkpt>
    <trkpt lat="52.001269995773285" lon="-0.774879987520533">
    </trkpt>
    <trkpt lat="52.001359995773385" lon="-0.774779987520435">
    </trkpt>
    <trkpt lat="52.001449995773456" lon="-0.77468998752034">
    </trkpt>
    <trkpt lat="52.00153999577352" lon="-0.774599987520246">
    </trkpt>
    <trkpt lat="52.001609995773578" lon="-0.774529987520173">
    </trkpt>
    <trkpt lat="52.001679995773635" lon="-0.774469987520104">
    </trkpt>
    <trkpt lat="52.001939995773824" lon="-0.774279987519868">
    </trkpt>
    <trkpt lat="52.001979995773887" lon="-0.774239987519826">
    </trkpt>
    <trkpt lat="52.0019999957739" lon="-0.774199987519795">
    </trkpt>
    <trkpt lat="52.002049995773916" lon="-0.774099987519717">
    </trkpt>
    <trkpt lat="52.00207999577394" lon="-0.774009987519655">
    </trkpt>
    <trkpt lat="52.002139995773987" lon="-0.773859987519548">
    </trkpt>
    <trkpt lat="52.002189995774017" lon="-0.773699987519442">
    </trkpt>
    <trkpt lat="52.002239995774076" lon="-0.773549987519338">
    </trkpt>
    <trkpt lat="52.002329995774147" lon="-0.773349987519189">
    </trkpt>
    <trkpt lat="52.002349995774154" lon="-0.773259987519133">
    </trkpt>
    <trkpt lat="52.002369995774167" lon="-0.773189987519087">
    </trkpt>
    <trkpt lat="52.002399995774198" lon="-0.773119987519035">
    </trkpt>
    <trkpt lat="52.002439995774218" lon="-0.773069987518987">
    </trkpt>
    <trkpt lat="52.002539995774306" lon="-0.773009987518903">
    </trkpt>
    <trkpt lat="52.002659995774394" lon="-0.772959987518814">
    </trkpt>
    <trkpt lat="52.002779995774482" lon="-0.772909987518723">
    </trkpt>
    <trkpt lat="52.002829995774533" lon="-0.772879987518681">
    </trkpt>
    <trkpt lat="52.002879995774578" lon="-0.772799987518613">
    </trkpt>
    <trkpt lat="52.002929995774622" lon="-0.772749987518561">
    </trkpt>
    <trkpt lat="52.003039995774692" lon="-0.772679987518466">
    </trkpt>
    <trkpt lat="52.003129995774771" lon="-0.772559987518358">
    </trkpt>
    <trkpt lat="52.003219995774835" lon="-0.772369987518213">
    </trkpt>
    <trkpt lat="52.003289995774892" lon="-0.772209987518095">
    </trkpt>
    <trkpt lat="52.003339995774922" lon="-0.772079987518002">
    </trkpt>
    <trkpt lat="52.003359995774943" lon="-0.772009987517956">
    </trkpt>
    <trkpt lat="52.003379995774978" lon="-0.7719199875179">
    </trkpt>
    <trkpt lat="52.00339999577497" lon="-0.771809987517833">
    </trkpt>
    <trkpt lat="52.003439995775011" lon="-0.771629987517721">
    </trkpt>
    <trkpt lat="52.003449995775028" lon="-0.771589987517695">
    </trkpt>
    <trkpt lat="52.003509995775062" lon="-0.771389987517563">
    </trkpt>
    <trkpt lat="52.003599995775147" lon="-0.771159987517398">
    </trkpt>
    <trkpt lat="52.003649995775177" lon="-0.771069987517325">
    </trkpt>
    <trkpt lat="52.003699995775207" lon="-0.770969987517248">
    </trkpt>
    <trkpt lat="52.003739995775248" lon="-0.770889987517186">
    </trkpt>
    <trkpt lat="52.003829995775313" lon="-0.770729987517057">
    </trkpt>
    <trkpt lat="52.003959995775432" lon="-0.770509987516876">
    </trkpt>
    <trkpt lat="52.004019995775465" lon="-0.770389987516783">
    </trkpt>
    <trkpt lat="52.004069995775495" lon="-0.770269987516696">
    </trkpt>
    <trkpt lat="52.004109995775536" lon="-0.770159987516618">
    </trkpt>
    <trkpt lat="52.004159995775574" lon="-0.770079987516551">
    </trkpt>
    <trkpt lat="52.004239995775642" lon="-0.769989987516463">
    </trkpt>
    <trkpt lat="52.004269995775665" lon="-0.769949987516427">
    </trkpt>
    <trkpt lat="52.004299995775696" lon="-0.76990998751639">
    </trkpt>
    <trkpt lat="52.00432999577572" lon="-0.769849987516343">
    </trkpt>
    <trkpt lat="52.004349995775733" lon="-0.769819987516318">
    </trkpt>
    <trkpt lat="52.004359995775729" lon="-0.769789987516296">
    </trkpt>
    <trkpt lat="52.004369995775747" lon="-0.769739987516266">
    </trkpt>
    <trkpt lat="52.004389995775753" lon="-0.769659987516215">
    </trkpt>
    <trkpt lat="52.004429995775787" lon="-0.769549987516139">
    </trkpt>
    <trkpt lat="52.004479995775824" lon="-0.769419987516045">
    </trkpt>
    <trkpt lat="52.004549995775889" lon="-0.769279987515938">
    </trkpt>
    <trkpt lat="52.004659995775967" lon="-0.769119987515797">
    </trkpt>
    <trkpt lat="52.004709995776011" lon="-0.769069987515745">
    </trkpt>
    <trkpt lat="52.004759995776048" lon="-0.769059987515713">
    </trkpt>
    <trkpt lat="52.004789995776065" lon="-0.769069987515701">
    </trkpt>
    <trkpt lat="52.004839995776109" lon="-0.769079987515679">
    </trkpt>
    <trkpt lat="52.004879995776136" lon="-0.769079987515658">
    </trkpt>
    <trkpt lat="52.004929995776159" lon="-0.769069987515625">
    </trkpt>
    <trkpt lat="52.004979995776225" lon="-0.769019987515573">
    </trkpt>
    <trkpt lat="52.005009995776241" lon="-0.768989987515542">
    </trkpt>
    <trkpt lat="52.005019995776237" lon="-0.768979987515531">
    </trkpt>
    <trkpt lat="52.005049995776268" lon="-0.76888998751547">
    </trkpt>
    <trkpt lat="52.005079995776292" lon="-0.768759987515388">
    </trkpt>
    <trkpt lat="52.00511999577634" lon="-0.768599987515286">
    </trkpt>
    <trkpt lat="52.005159995776353" lon="-0.768479987515205">
    </trkpt>
    <trkpt lat="52.005179995776388" lon="-0.768409987515159">
    </trkpt>
    <trkpt lat="52.005199995776401" lon="-0.768379987515133">
    </trkpt>
    <trkpt lat="52.005229995776411" lon="-0.768339987515096">
    </trkpt>
    <trkpt lat="52.005239995776435" lon="-0.76831998751508">
    </trkpt>
    <trkpt lat="52.005259995776434" lon="-0.768279987515049">
    </trkpt>
    <trkpt lat="52.005289995776472" lon="-0.768249987515018">
    </trkpt>
    <trkpt lat="52.005299995776468" lon="-0.768189987514983">
    </trkpt>
    <trkpt lat="52.005299995776461" lon="-0.768159987514967">
    </trkpt>
    <trkpt lat="52.005299995776454" lon="-0.768089987514933">
    </trkpt>
    <trkpt lat="52.005289995776451" lon="-0.768029987514908">
    </trkpt>
    <trkpt lat="52.005289995776458" lon="-0.767939987514862">
    </trkpt>
    <trkpt lat="52.005299995776475" lon="-0.767879987514827">
    </trkpt>
    <trkpt lat="52.005319995776475" lon="-0.767829987514791">
    </trkpt>
    <trkpt lat="52.005339995776509" lon="-0.767779987514755">
    </trkpt>
    <trkpt lat="52.005399995776543" lon="-0.767729987514697">
    </trkpt>
    <trkpt lat="52.005469995776608" lon="-0.767689987514639">
    </trkpt>
    <trkpt lat="52.005519995776631" lon="-0.767659987514597">
    </trkpt>
    <trkpt lat="52.005559995776686" lon="-0.76762998751456">
    </trkpt>
    <trkpt lat="52.005589995776688" lon="-0.767589987514523">
    </trkpt>
    <trkpt lat="52.005609995776702" lon="-0.767519987514478">
    </trkpt>
    <trkpt lat="52.005629995776722" lon="-0.767329987514371">
    </trkpt>
    <trkpt lat="52.005639995776733" lon="-0.76725998751433">
    </trkpt>
    <trkpt lat="52.005659995776753" lon="-0.76719998751429">
    </trkpt>
    <trkpt lat="52.005669995776749" lon="-0.767169987514269">
    </trkpt>
    <trkpt lat="52.005689995776777" lon="-0.767159987514254">
    </trkpt>
    <trkpt lat="52.005709995776797" lon="-0.767149987514238">
    </trkpt>
    <trkpt lat="52.005719995776793" lon="-0.767149987514232">
    </trkpt>
    <trkpt lat="52.00574999577681" lon="-0.767159987514221">
    </trkpt>
    <trkpt lat="52.005839995776874" lon="-0.767139987514162">
    </trkpt>
    <trkpt lat="52.005899995776929" lon="-0.767109987514114">
    </trkpt>
    <trkpt lat="52.005959995776983" lon="-0.767069987514061">
    </trkpt>
    <trkpt lat="52.006029995777041" lon="-0.766989987513984">
    </trkpt>
    <trkpt lat="52.006179995777174" lon="-0.766849987513831">
    </trkpt>
    <trkpt lat="52.006279995777255" lon="-0.766749987513727">
    </trkpt>
    <trkpt lat="52.006319995777275" lon="-0.766709987513685">
    </trkpt>
    <trkpt lat="52.006369995777334" lon="-0.766629987513618">
    </trkpt>
    <trkpt lat="52.006519995777431" lon="-0.766349987513396">
    </trkpt>
    <trkpt lat="52.006699995777588" lon="-0.766109987513177">
    </trkpt>
    <trkpt lat="52.006759995777614" lon="-0.76603998751311">
    </trkpt>
    <trkpt lat="52.006809995777679" lon="-0.766149987513137">
    </trkpt>
    <trkpt lat="52.006889995777719" lon="-0.766309987513175">
    </trkpt>
    <trkpt lat="52.00691999577775" lon="-0.766369987513189">
    </trkpt>
    <trkpt lat="52.006999995777804" lon="-0.766329987513125">
    </trkpt>
    <trkpt lat="52.007189995777949" lon="-0.766229987512971">
    </trkpt>
    <trkpt lat="52.007439995778171" lon="-0.765989987512715">
    </trkpt>
    <trkpt lat="52.007589995778282" lon="-0.765769987512523">
    </trkpt>
    <trkpt lat="52.007679995778354" lon="-0.765489987512334">
    </trkpt>
    <trkpt lat="52.007729995778391" lon="-0.765359987512241">
    </trkpt>
    <trkpt lat="52.007809995778445" lon="-0.765289987512162">
    </trkpt>
    <trkpt lat="52.007909995778526" lon="-0.765209987512068">
    </trkpt>
    <trkpt lat="52.007989995778587" lon="-0.765099987511969">
    </trkpt>
    <trkpt lat="52.008089995778661" lon="-0.764969987511849">
    </trkpt>
    <trkpt lat="52.008219995778774" lon="-0.764869987511729">
    </trkpt>
    <trkpt lat="52.008339995778861" lon="-0.764699987511578">
    </trkpt>
    <trkpt lat="52.008489995778987" lon="-0.764589987511441">
    </trkpt>
    <trkpt lat="52.008559995779038" lon="-0.764489987511353">
    </trkpt>
    <trkpt lat="52.008609995779068" lon="-0.764389987511276">
    </trkpt>
    <trkpt lat="52.008689995779157" lon="-0.764119987511096">
    </trkpt>
    <trkpt lat="52.008709995779157" lon="-0.764009987511031">
    </trkpt>
    <trkpt lat="52.00872999577917" lon="-0.763959987510994">
    </trkpt>
    <trkpt lat="52.008769995779204" lon="-0.763949987510968">
    </trkpt>
    <trkpt lat="52.008839995779255" lon="-0.76396998751094">
    </trkpt>
    <trkpt lat="52.008899995779309" lon="-0.764019987510932">
    </trkpt>
    <trkpt lat="52.008979995779384" lon="-0.764049987510904">
    </trkpt>
    <trkpt lat="52.009059995779438" lon="-0.764039987510855">
    </trkpt>
    <trkpt lat="52.009149995779516" lon="-0.763959987510766">
    </trkpt>
    <trkpt lat="52.00920999577955" lon="-0.763859987510684">
    </trkpt>
    <trkpt lat="52.009269995779619" lon="-0.763589987510515">
    </trkpt>
    <trkpt lat="52.009319995779656" lon="-0.763329987510358">
    </trkpt>
    <trkpt lat="52.009379995779703" lon="-0.763209987510265">
    </trkpt>
    <trkpt lat="52.009479995779778" lon="-0.763099987510155">
    </trkpt>
    <trkpt lat="52.009609995779869" lon="-0.763059987510064">
    </trkpt>
    <trkpt lat="52.009819995780035" lon="-0.763069987509956">
    </trkpt>
    <trkpt lat="52.009929995780119" lon="-0.763049987509886">
    </trkpt>
    <trkpt lat="52.010049995780207" lon="-0.762959987509776">
    </trkpt>
    <trkpt lat="52.010209995780329" lon="-0.762809987509613">
    </trkpt>
    <trkpt lat="52.010289995780404" lon="-0.762749987509539">
    </trkpt>
    <trkpt lat="52.010369995780479" lon="-0.762609987509425">
    </trkpt>
    <trkpt lat="52.010489995780588" lon="-0.762449987509279">
    </trkpt>
    <trkpt lat="52.010669995780717" lon="-0.762299987509107">
    </trkpt>
    <trkpt lat="52.010769995780805" lon="-0.762249987509027">
    </trkpt>
    <trkpt lat="52.01087999578089" lon="-0.762229987508957">
    </trkpt>
    <trkpt lat="52.01093999578093" lon="-0.762209987508915">
    </trkpt>
    <trkpt lat="52.011009995780967" lon="-0.762139987508841">
    </trkpt>
    <trkpt lat="52.011109995781055" lon="-0.762059987508747">
    </trkpt>
    <trkpt lat="52.011139995781072" lon="-0.762119987508761">
    </trkpt>
    <trkpt lat="52.011159995781078" lon="-0.76217998750878">
    </trkpt>
    <trkpt lat="52.011249995781164" lon="-0.762359987508822">
    </trkpt>
    <trkpt lat="52.011319995781221" lon="-0.762479987508843">
    </trkpt>
    <trkpt lat="52.011629995781483" lon="-0.762899987508886">
    </trkpt>
    <trkpt lat="52.011929995781713" lon="-0.763309987508929">
    </trkpt>
    <trkpt lat="52.011989995781775" lon="-0.763409987508946">
    </trkpt>
    <trkpt lat="52.012029995781802" lon="-0.763469987508956">
    </trkpt>
    <trkpt lat="52.012059995781833" lon="-0.763539987508974">
    </trkpt>
    <trkpt lat="52.012089995781849" lon="-0.763589987508983">
    </trkpt>
    <trkpt lat="52.012149995781897" lon="-0.763669987508989">
    </trkpt>
    <trkpt lat="52.012239995781975" lon="-0.763749987508981">
    </trkpt>
    <trkpt lat="52.012339995782035" lon="-0.763849987508978">
    </trkpt>
    <trkpt lat="52.012419995782103" lon="-0.763939987508979">
    </trkpt>
    <trkpt lat="52.012479995782151" lon="-0.764029987508992">
    </trkpt>
    <trkpt lat="52.012529995782209" lon="-0.764099987509">
    </trkpt>
    <trkpt lat="52.01258999578225" lon="-0.764229987509032">
    </trkpt>
    <trkpt lat="52.012629995782284" lon="-0.764349987509071">
    </trkpt>
    <trkpt lat="52.012669995782318" lon="-0.764459987509104">
    </trkpt>
    <trkpt lat="52.012939995782538" lon="-0.764769987509113">
    </trkpt>
    <trkpt lat="52.013029995782603" lon="-0.764619987508989">
    </trkpt>
    <trkpt lat="52.013059995782633" lon="-0.764579987508953">
    </trkpt>
    <trkpt lat="52.013109995782656" lon="-0.764529987508901">
    </trkpt>
    <trkpt lat="52.013169995782711" lon="-0.764469987508838">
    </trkpt>
    <trkpt lat="52.013209995782752" lon="-0.764369987508767">
    </trkpt>
    <trkpt lat="52.013249995782772" lon="-0.764249987508684">
    </trkpt>
    <trkpt lat="52.013259995782789" lon="-0.764149987508628">
    </trkpt>
    <trkpt lat="52.013259995782796" lon="-0.763999987508553">
    </trkpt>
    <trkpt lat="52.013269995782792" lon="-0.763859987508477">
    </trkpt>
    <trkpt lat="52.013279995782796" lon="-0.763789987508437">
    </trkpt>
    <trkpt lat="52.013309995782805" lon="-0.763729987508391">
    </trkpt>
    <trkpt lat="52.01334999578286" lon="-0.763619987508313">
    </trkpt>
    <trkpt lat="52.013449995782942" lon="-0.763429987508163">
    </trkpt>
    <trkpt lat="52.013569995783023" lon="-0.763189987507978">
    </trkpt>
    <trkpt lat="52.01360999578305" lon="-0.763079987507901">
    </trkpt>
    <trkpt lat="52.013629995783056" lon="-0.763029987507865">
    </trkpt>
    <trkpt lat="52.013629995783049" lon="-0.763009987507855">
    </trkpt>
    <trkpt lat="52.013649995783084" lon="-0.762959987507819">
    </trkpt>
    <trkpt lat="52.013699995783121" lon="-0.762809987507716">
    </trkpt>
    <trkpt lat="52.013779995783189" lon="-0.762619987507578">
    </trkpt>
    <trkpt lat="52.0141799957835" lon="-0.761869987506983">
    </trkpt>
    <trkpt lat="52.014199995783514" lon="-0.761829987506953">
    </trkpt>
    <trkpt lat="52.014249995783537" lon="-0.76173998750688">
    </trkpt>
    <trkpt lat="52.014319995783616" lon="-0.761609987506777">
    </trkpt>
    <trkpt lat="52.014379995783663" lon="-0.761549987506714">
    </trkpt>
    <trkpt lat="52.014459995783731" lon="-0.761509987506651">
    </trkpt>
    <trkpt lat="52.014569995783816" lon="-0.76150998750659">
    </trkpt>
    <trkpt lat="52.01485999578405" lon="-0.761559987506458">
    </trkpt>
    <trkpt lat="52.014959995784125" lon="-0.761579987506413">
    </trkpt>
    <trkpt lat="52.014989995784134" lon="-0.761559987506388">
    </trkpt>
    <trkpt lat="52.015069995784216" lon="-0.761499987506315">
    </trkpt>
    <trkpt lat="52.015139995784267" lon="-0.761419987506236">
    </trkpt>
    <trkpt lat="52.015189995784311" lon="-0.761319987506158">
    </trkpt>
    <trkpt lat="52.015259995784362" lon="-0.761189987506055">
    </trkpt>
    <trkpt lat="52.015309995784392" lon="-0.761089987505978">
    </trkpt>
    <trkpt lat="52.015359995784436" lon="-0.76096998750589">
    </trkpt>
    <trkpt lat="52.015509995784562" lon="-0.760749987505698">
    </trkpt>
    <trkpt lat="52.015489995784549" lon="-0.760709987505689">
    </trkpt>
    <trkpt lat="52.015499995784538" lon="-0.760729987505693">
    </trkpt>
    <trkpt lat="52.015509995784555" lon="-0.760699987505673">
    </trkpt>
  </trkseg>
</trk>
</gpx>
