<?xml version="1.0"?>
<gpx version="1.1" creator="GDAL 2.2.3" xmlns:xsi="http://www.w3.org/2001/XMLSchema-instance" xmlns="http://www.topografix.com/GPX/1/1" xsi:schemaLocation="http://www.topografix.com/GPX/1/1 http://www.topografix.com/GPX/1/1/gpx.xsd">
<metadata><bounds minlat="52.030310000000000" minlon="-0.795780000000000" maxlat="52.072989999999997" maxlon="-0.732330000000000"/></metadata>                  
<trk>
  <trkseg>
    <trkpt lat="52.04683" lon="-0.79265">
        <ele>70.2</ele>
    </trkpt>
    <trkpt lat="52.04685" lon="-0.79267">
        <ele>70.2</ele>
    </trkpt>
    <trkpt lat="52.04686" lon="-0.79272">
        <ele>70.2</ele>
    </trkpt>
    <trkpt lat="52.04689" lon="-0.79278">
        <ele>70.3</ele>
    </trkpt>
    <trkpt lat="52.04691" lon="-0.79285">
        <ele>70.4</ele>
    </trkpt>
    <trkpt lat="52.04695" lon="-0.79289">
        <ele>70.5</ele>
    </trkpt>
    <trkpt lat="52.04698" lon="-0.79292">
        <ele>70.7</ele>
    </trkpt>
    <trkpt lat="52.04703" lon="-0.79296">
        <ele>70.8</ele>
    </trkpt>
    <trkpt lat="52.04712" lon="-0.79302">
        <ele>71.1</ele>
    </trkpt>
    <trkpt lat="52.04722" lon="-0.79308">
        <ele>70.8</ele>
    </trkpt>
    <trkpt lat="52.04732" lon="-0.79314">
        <ele>70.5</ele>
    </trkpt>
    <trkpt lat="52.0474" lon="-0.79322">
        <ele>70.5</ele>
    </trkpt>
    <trkpt lat="52.0475" lon="-0.79333">
        <ele>70.5</ele>
    </trkpt>
    <trkpt lat="52.04763" lon="-0.79349">
        <ele>71.0</ele>
    </trkpt>
    <trkpt lat="52.04786" lon="-0.79282">
        <ele>73.9</ele>
    </trkpt>
    <trkpt lat="52.04796" lon="-0.79252">
        <ele>70.4</ele>
    </trkpt>
    <trkpt lat="52.04798" lon="-0.7924">
        <ele>68.4</ele>
    </trkpt>
    <trkpt lat="52.04805" lon="-0.79229">
        <ele>68.2</ele>
    </trkpt>
    <trkpt lat="52.04814" lon="-0.79218">
        <ele>68.0</ele>
    </trkpt>
    <trkpt lat="52.04822" lon="-0.79213">
        <ele>67.9</ele>
    </trkpt>
    <trkpt lat="52.04826" lon="-0.79211">
        <ele>67.9</ele>
    </trkpt>
    <trkpt lat="52.04834" lon="-0.79214">
        <ele>67.9</ele>
    </trkpt>
    <trkpt lat="52.04849" lon="-0.79225">
        <ele>68.0</ele>
    </trkpt>
    <trkpt lat="52.04862" lon="-0.79243">
        <ele>67.6</ele>
    </trkpt>
    <trkpt lat="52.04913" lon="-0.79308">
        <ele>67.0</ele>
    </trkpt>
    <trkpt lat="52.04928" lon="-0.79324">
        <ele>67.2</ele>
    </trkpt>
    <trkpt lat="52.04941" lon="-0.79336">
        <ele>67.8</ele>
    </trkpt>
    <trkpt lat="52.04953" lon="-0.79341">
        <ele>67.9</ele>
    </trkpt>
    <trkpt lat="52.04971" lon="-0.79343">
        <ele>67.6</ele>
    </trkpt>
    <trkpt lat="52.05" lon="-0.7934">
        <ele>67.5</ele>
    </trkpt>
    <trkpt lat="52.05014" lon="-0.79341">
        <ele>68.0</ele>
    </trkpt>
    <trkpt lat="52.05035" lon="-0.79353">
        <ele>68.5</ele>
    </trkpt>
    <trkpt lat="52.05037" lon="-0.79354">
        <ele>68.5</ele>
    </trkpt>
    <trkpt lat="52.05057" lon="-0.7937">
        <ele>68.3</ele>
    </trkpt>
    <trkpt lat="52.05075" lon="-0.79388">
        <ele>68.3</ele>
    </trkpt>
    <trkpt lat="52.05082" lon="-0.79394">
        <ele>69.2</ele>
    </trkpt>
    <trkpt lat="52.05086" lon="-0.79398">
        <ele>69.6</ele>
    </trkpt>
    <trkpt lat="52.05093" lon="-0.79403">
        <ele>70.0</ele>
    </trkpt>
    <trkpt lat="52.05095" lon="-0.79405">
        <ele>70.1</ele>
    </trkpt>
    <trkpt lat="52.05095" lon="-0.79405">
        <ele>70.1</ele>
    </trkpt>
    <trkpt lat="52.05102" lon="-0.7941">
        <ele>70.5</ele>
    </trkpt>
    <trkpt lat="52.05116" lon="-0.79424">
        <ele>69.7</ele>
    </trkpt>
    <trkpt lat="52.05126" lon="-0.7944">
        <ele>68.4</ele>
    </trkpt>
    <trkpt lat="52.05131" lon="-0.79451">
        <ele>67.6</ele>
    </trkpt>
    <trkpt lat="52.05136" lon="-0.79465">
        <ele>66.9</ele>
    </trkpt>
    <trkpt lat="52.05141" lon="-0.79473">
        <ele>66.5</ele>
    </trkpt>
    <trkpt lat="52.05142" lon="-0.79476">
        <ele>66.3</ele>
    </trkpt>
    <trkpt lat="52.05142" lon="-0.79476">
        <ele>66.3</ele>
    </trkpt>
    <trkpt lat="52.05155" lon="-0.79496">
        <ele>66.5</ele>
    </trkpt>
    <trkpt lat="52.05159" lon="-0.79503">
        <ele>66.5</ele>
    </trkpt>
    <trkpt lat="52.05174" lon="-0.79527">
        <ele>66.2</ele>
    </trkpt>
    <trkpt lat="52.0518" lon="-0.79538">
        <ele>65.8</ele>
    </trkpt>
    <trkpt lat="52.05187" lon="-0.79545">
        <ele>65.5</ele>
    </trkpt>
    <trkpt lat="52.05194" lon="-0.79553">
        <ele>65.6</ele>
    </trkpt>
    <trkpt lat="52.05198" lon="-0.79555">
        <ele>65.6</ele>
    </trkpt>
    <trkpt lat="52.05205" lon="-0.79557">
        <ele>65.6</ele>
    </trkpt>
    <trkpt lat="52.05215" lon="-0.79557">
        <ele>65.6</ele>
    </trkpt>
    <trkpt lat="52.0523" lon="-0.79556">
        <ele>65.9</ele>
    </trkpt>
    <trkpt lat="52.05237" lon="-0.79556">
        <ele>66.2</ele>
    </trkpt>
    <trkpt lat="52.0524" lon="-0.79557">
        <ele>66.3</ele>
    </trkpt>
    <trkpt lat="52.05246" lon="-0.79558">
        <ele>66.5</ele>
    </trkpt>
    <trkpt lat="52.0525" lon="-0.79559">
        <ele>66.7</ele>
    </trkpt>
    <trkpt lat="52.05255" lon="-0.79561">
        <ele>66.9</ele>
    </trkpt>
    <trkpt lat="52.05259" lon="-0.79563">
        <ele>67.1</ele>
    </trkpt>
    <trkpt lat="52.05267" lon="-0.79567">
        <ele>66.9</ele>
    </trkpt>
    <trkpt lat="52.05276" lon="-0.79573">
        <ele>66.5</ele>
    </trkpt>
    <trkpt lat="52.05282" lon="-0.79577">
        <ele>66.3</ele>
    </trkpt>
    <trkpt lat="52.05286" lon="-0.79578">
        <ele>66.4</ele>
    </trkpt>
    <trkpt lat="52.05289" lon="-0.79578">
        <ele>66.4</ele>
    </trkpt>
    <trkpt lat="52.05292" lon="-0.79578">
        <ele>66.5</ele>
    </trkpt>
    <trkpt lat="52.05297" lon="-0.79576">
        <ele>66.5</ele>
    </trkpt>
    <trkpt lat="52.05301" lon="-0.79572">
        <ele>66.4</ele>
    </trkpt>
    <trkpt lat="52.05306" lon="-0.79568">
        <ele>66.0</ele>
    </trkpt>
    <trkpt lat="52.05314" lon="-0.79561">
        <ele>65.5</ele>
    </trkpt>
    <trkpt lat="52.05318" lon="-0.79558">
        <ele>65.3</ele>
    </trkpt>
    <trkpt lat="52.05321" lon="-0.79556">
        <ele>65.3</ele>
    </trkpt>
    <trkpt lat="52.05325" lon="-0.79555">
        <ele>65.1</ele>
    </trkpt>
    <trkpt lat="52.05328" lon="-0.79555">
        <ele>65.1</ele>
    </trkpt>
    <trkpt lat="52.05333" lon="-0.79556">
        <ele>65.0</ele>
    </trkpt>
    <trkpt lat="52.05338" lon="-0.79558">
        <ele>65.3</ele>
    </trkpt>
    <trkpt lat="52.05344" lon="-0.7956">
        <ele>65.6</ele>
    </trkpt>
    <trkpt lat="52.05351" lon="-0.79561">
        <ele>66.0</ele>
    </trkpt>
    <trkpt lat="52.05356" lon="-0.79561">
        <ele>66.2</ele>
    </trkpt>
    <trkpt lat="52.05361" lon="-0.7956">
        <ele>66.3</ele>
    </trkpt>
    <trkpt lat="52.05364" lon="-0.79558">
        <ele>66.4</ele>
    </trkpt>
    <trkpt lat="52.05369" lon="-0.79554">
        <ele>66.6</ele>
    </trkpt>
    <trkpt lat="52.05379" lon="-0.79541">
        <ele>66.7</ele>
    </trkpt>
    <trkpt lat="52.05409" lon="-0.79498">
        <ele>66.5</ele>
    </trkpt>
    <trkpt lat="52.05412" lon="-0.79493">
        <ele>66.7</ele>
    </trkpt>
    <trkpt lat="52.05413" lon="-0.79489">
        <ele>66.7</ele>
    </trkpt>
    <trkpt lat="52.05413" lon="-0.79484">
        <ele>66.7</ele>
    </trkpt>
    <trkpt lat="52.05413" lon="-0.79479">
        <ele>66.5</ele>
    </trkpt>
    <trkpt lat="52.05412" lon="-0.79475">
        <ele>66.3</ele>
    </trkpt>
    <trkpt lat="52.05411" lon="-0.79471">
        <ele>66.2</ele>
    </trkpt>
    <trkpt lat="52.05409" lon="-0.79467">
        <ele>66.0</ele>
    </trkpt>
    <trkpt lat="52.05407" lon="-0.79463">
        <ele>65.9</ele>
    </trkpt>
    <trkpt lat="52.05406" lon="-0.79459">
        <ele>65.8</ele>
    </trkpt>
    <trkpt lat="52.05405" lon="-0.79454">
        <ele>65.8</ele>
    </trkpt>
    <trkpt lat="52.05405" lon="-0.79448">
        <ele>65.7</ele>
    </trkpt>
    <trkpt lat="52.05406" lon="-0.79443">
        <ele>65.7</ele>
    </trkpt>
    <trkpt lat="52.05407" lon="-0.79434">
        <ele>65.7</ele>
    </trkpt>
    <trkpt lat="52.05411" lon="-0.79419">
        <ele>65.7</ele>
    </trkpt>
    <trkpt lat="52.05414" lon="-0.79402">
        <ele>65.8</ele>
    </trkpt>
    <trkpt lat="52.05415" lon="-0.79395">
        <ele>65.9</ele>
    </trkpt>
    <trkpt lat="52.05415" lon="-0.7939">
        <ele>66.0</ele>
    </trkpt>
    <trkpt lat="52.05415" lon="-0.79384">
        <ele>66.1</ele>
    </trkpt>
    <trkpt lat="52.05415" lon="-0.79378">
        <ele>66.2</ele>
    </trkpt>
    <trkpt lat="52.05415" lon="-0.79372">
        <ele>66.2</ele>
    </trkpt>
    <trkpt lat="52.05415" lon="-0.79364">
        <ele>66.3</ele>
    </trkpt>
    <trkpt lat="52.05416" lon="-0.79356">
        <ele>66.4</ele>
    </trkpt>
    <trkpt lat="52.05417" lon="-0.7935">
        <ele>66.5</ele>
    </trkpt>
    <trkpt lat="52.05419" lon="-0.79344">
        <ele>66.6</ele>
    </trkpt>
    <trkpt lat="52.05422" lon="-0.79339">
        <ele>66.8</ele>
    </trkpt>
    <trkpt lat="52.05427" lon="-0.79333">
        <ele>67.2</ele>
    </trkpt>
    <trkpt lat="52.05442" lon="-0.79317">
        <ele>67.6</ele>
    </trkpt>
    <trkpt lat="52.05444" lon="-0.79315">
        <ele>67.4</ele>
    </trkpt>
    <trkpt lat="52.05454" lon="-0.79305">
        <ele>66.8</ele>
    </trkpt>
    <trkpt lat="52.05457" lon="-0.79301">
        <ele>66.6</ele>
    </trkpt>
    <trkpt lat="52.0546" lon="-0.79297">
        <ele>66.4</ele>
    </trkpt>
    <trkpt lat="52.05463" lon="-0.79293">
        <ele>66.2</ele>
    </trkpt>
    <trkpt lat="52.05466" lon="-0.79289">
        <ele>66.1</ele>
    </trkpt>
    <trkpt lat="52.05472" lon="-0.79285">
        <ele>66.2</ele>
    </trkpt>
    <trkpt lat="52.05479" lon="-0.79282">
        <ele>66.3</ele>
    </trkpt>
    <trkpt lat="52.0549" lon="-0.79273">
        <ele>66.4</ele>
    </trkpt>
    <trkpt lat="52.05495" lon="-0.79266">
        <ele>66.5</ele>
    </trkpt>
    <trkpt lat="52.05497" lon="-0.79264">
        <ele>66.5</ele>
    </trkpt>
    <trkpt lat="52.055" lon="-0.79259">
        <ele>66.6</ele>
    </trkpt>
    <trkpt lat="52.05501" lon="-0.79256">
        <ele>66.6</ele>
    </trkpt>
    <trkpt lat="52.05503" lon="-0.79252">
        <ele>66.7</ele>
    </trkpt>
    <trkpt lat="52.05505" lon="-0.79248">
        <ele>66.7</ele>
    </trkpt>
    <trkpt lat="52.05506" lon="-0.79243">
        <ele>66.8</ele>
    </trkpt>
    <trkpt lat="52.05507" lon="-0.79239">
        <ele>66.8</ele>
    </trkpt>
    <trkpt lat="52.05508" lon="-0.79235">
        <ele>66.9</ele>
    </trkpt>
    <trkpt lat="52.0551" lon="-0.79233">
        <ele>66.9</ele>
    </trkpt>
    <trkpt lat="52.05512" lon="-0.79231">
        <ele>66.9</ele>
    </trkpt>
    <trkpt lat="52.05515" lon="-0.7923">
        <ele>66.9</ele>
    </trkpt>
    <trkpt lat="52.05517" lon="-0.79228">
        <ele>66.8</ele>
    </trkpt>
    <trkpt lat="52.0552" lon="-0.79227">
        <ele>66.8</ele>
    </trkpt>
    <trkpt lat="52.05522" lon="-0.79227">
        <ele>66.8</ele>
    </trkpt>
    <trkpt lat="52.05524" lon="-0.79228">
        <ele>66.8</ele>
    </trkpt>
    <trkpt lat="52.05526" lon="-0.79229">
        <ele>66.8</ele>
    </trkpt>
    <trkpt lat="52.05527" lon="-0.79231">
        <ele>66.8</ele>
    </trkpt>
    <trkpt lat="52.05528" lon="-0.79233">
        <ele>66.7</ele>
    </trkpt>
    <trkpt lat="52.0553" lon="-0.79242">
        <ele>66.7</ele>
    </trkpt>
    <trkpt lat="52.05531" lon="-0.79247">
        <ele>66.6</ele>
    </trkpt>
    <trkpt lat="52.05533" lon="-0.79258">
        <ele>66.5</ele>
    </trkpt>
    <trkpt lat="52.05536" lon="-0.79271">
        <ele>66.4</ele>
    </trkpt>
    <trkpt lat="52.05545" lon="-0.79296">
        <ele>66.1</ele>
    </trkpt>
    <trkpt lat="52.0555" lon="-0.79319">
        <ele>66.1</ele>
    </trkpt>
    <trkpt lat="52.05555" lon="-0.79337">
        <ele>65.9</ele>
    </trkpt>
    <trkpt lat="52.05559" lon="-0.79342">
        <ele>65.8</ele>
    </trkpt>
    <trkpt lat="52.05566" lon="-0.79345">
        <ele>65.7</ele>
    </trkpt>
    <trkpt lat="52.05574" lon="-0.79348">
        <ele>65.6</ele>
    </trkpt>
    <trkpt lat="52.05584" lon="-0.79351">
        <ele>65.3</ele>
    </trkpt>
    <trkpt lat="52.05592" lon="-0.79356">
        <ele>64.9</ele>
    </trkpt>
    <trkpt lat="52.05598" lon="-0.79358">
        <ele>64.7</ele>
    </trkpt>
    <trkpt lat="52.05601" lon="-0.79359">
        <ele>64.9</ele>
    </trkpt>
    <trkpt lat="52.05604" lon="-0.79359">
        <ele>65.1</ele>
    </trkpt>
    <trkpt lat="52.05609" lon="-0.79357">
        <ele>65.4</ele>
    </trkpt>
    <trkpt lat="52.05612" lon="-0.79356">
        <ele>65.5</ele>
    </trkpt>
    <trkpt lat="52.05615" lon="-0.79353">
        <ele>65.7</ele>
    </trkpt>
    <trkpt lat="52.05618" lon="-0.79349">
        <ele>65.7</ele>
    </trkpt>
    <trkpt lat="52.05621" lon="-0.79341">
        <ele>65.8</ele>
    </trkpt>
    <trkpt lat="52.05622" lon="-0.79337">
        <ele>65.9</ele>
    </trkpt>
    <trkpt lat="52.05624" lon="-0.79328">
        <ele>65.9</ele>
    </trkpt>
    <trkpt lat="52.05626" lon="-0.79322">
        <ele>66.1</ele>
    </trkpt>
    <trkpt lat="52.05627" lon="-0.79316">
        <ele>66.2</ele>
    </trkpt>
    <trkpt lat="52.05629" lon="-0.79314">
        <ele>66.2</ele>
    </trkpt>
    <trkpt lat="52.05632" lon="-0.7931">
        <ele>66.3</ele>
    </trkpt>
    <trkpt lat="52.05635" lon="-0.79308">
        <ele>66.4</ele>
    </trkpt>
    <trkpt lat="52.05637" lon="-0.79307">
        <ele>66.5</ele>
    </trkpt>
    <trkpt lat="52.05642" lon="-0.79307">
        <ele>66.8</ele>
    </trkpt>
    <trkpt lat="52.05644" lon="-0.79307">
        <ele>66.8</ele>
    </trkpt>
    <trkpt lat="52.0565" lon="-0.79308">
        <ele>67.1</ele>
    </trkpt>
    <trkpt lat="52.05656" lon="-0.79309">
        <ele>67.4</ele>
    </trkpt>
    <trkpt lat="52.05663" lon="-0.79314">
        <ele>66.9</ele>
    </trkpt>
    <trkpt lat="52.0567" lon="-0.79321">
        <ele>66.3</ele>
    </trkpt>
    <trkpt lat="52.05677" lon="-0.7933">
        <ele>65.9</ele>
    </trkpt>
    <trkpt lat="52.0568" lon="-0.79335">
        <ele>65.7</ele>
    </trkpt>
    <trkpt lat="52.05683" lon="-0.7934">
        <ele>65.6</ele>
    </trkpt>
    <trkpt lat="52.05686" lon="-0.79345">
        <ele>65.4</ele>
    </trkpt>
    <trkpt lat="52.05691" lon="-0.79349">
        <ele>65.4</ele>
    </trkpt>
    <trkpt lat="52.05698" lon="-0.79353">
        <ele>65.3</ele>
    </trkpt>
    <trkpt lat="52.05707" lon="-0.79358">
        <ele>65.4</ele>
    </trkpt>
    <trkpt lat="52.05712" lon="-0.7936">
        <ele>65.6</ele>
    </trkpt>
    <trkpt lat="52.05717" lon="-0.79358">
        <ele>65.8</ele>
    </trkpt>
    <trkpt lat="52.05721" lon="-0.79354">
        <ele>66.0</ele>
    </trkpt>
    <trkpt lat="52.05727" lon="-0.79341">
        <ele>65.7</ele>
    </trkpt>
    <trkpt lat="52.05744" lon="-0.79304">
        <ele>64.9</ele>
    </trkpt>
    <trkpt lat="52.05744" lon="-0.793">
        <ele>64.8</ele>
    </trkpt>
    <trkpt lat="52.05748" lon="-0.79285">
        <ele>64.7</ele>
    </trkpt>
    <trkpt lat="52.05756" lon="-0.79262">
        <ele>64.8</ele>
    </trkpt>
    <trkpt lat="52.05765" lon="-0.79246">
        <ele>65.4</ele>
    </trkpt>
    <trkpt lat="52.05768" lon="-0.79244">
        <ele>65.7</ele>
    </trkpt>
    <trkpt lat="52.05773" lon="-0.79244">
        <ele>66.2</ele>
    </trkpt>
    <trkpt lat="52.05778" lon="-0.79247">
        <ele>66.6</ele>
    </trkpt>
    <trkpt lat="52.05788" lon="-0.79251">
        <ele>66.8</ele>
    </trkpt>
    <trkpt lat="52.05809" lon="-0.79256">
        <ele>66.8</ele>
    </trkpt>
    <trkpt lat="52.05816" lon="-0.79256">
        <ele>66.6</ele>
    </trkpt>
    <trkpt lat="52.05821" lon="-0.79253">
        <ele>66.4</ele>
    </trkpt>
    <trkpt lat="52.05828" lon="-0.79244">
        <ele>65.9</ele>
    </trkpt>
    <trkpt lat="52.05831" lon="-0.79235">
        <ele>65.5</ele>
    </trkpt>
    <trkpt lat="52.05832" lon="-0.79226">
        <ele>65.4</ele>
    </trkpt>
    <trkpt lat="52.05834" lon="-0.79197">
        <ele>65.9</ele>
    </trkpt>
    <trkpt lat="52.05834" lon="-0.79189">
        <ele>66.1</ele>
    </trkpt>
    <trkpt lat="52.05835" lon="-0.79155">
        <ele>66.9</ele>
    </trkpt>
    <trkpt lat="52.05836" lon="-0.79143">
        <ele>67.0</ele>
    </trkpt>
    <trkpt lat="52.05839" lon="-0.79132">
        <ele>67.0</ele>
    </trkpt>
    <trkpt lat="52.05842" lon="-0.79122">
        <ele>67.1</ele>
    </trkpt>
    <trkpt lat="52.05848" lon="-0.79112">
        <ele>67.3</ele>
    </trkpt>
    <trkpt lat="52.05853" lon="-0.79107">
        <ele>67.4</ele>
    </trkpt>
    <trkpt lat="52.05858" lon="-0.79105">
        <ele>67.6</ele>
    </trkpt>
    <trkpt lat="52.05864" lon="-0.79108">
        <ele>67.8</ele>
    </trkpt>
    <trkpt lat="52.05869" lon="-0.79112">
        <ele>67.8</ele>
    </trkpt>
    <trkpt lat="52.05874" lon="-0.79122">
        <ele>67.8</ele>
    </trkpt>
    <trkpt lat="52.05882" lon="-0.79145">
        <ele>67.9</ele>
    </trkpt>
    <trkpt lat="52.05885" lon="-0.79152">
        <ele>67.9</ele>
    </trkpt>
    <trkpt lat="52.05887" lon="-0.79152">
        <ele>67.7</ele>
    </trkpt>
    <trkpt lat="52.05889" lon="-0.79152">
        <ele>67.6</ele>
    </trkpt>
    <trkpt lat="52.05892" lon="-0.79151">
        <ele>67.4</ele>
    </trkpt>
    <trkpt lat="52.05916" lon="-0.79146">
        <ele>66.0</ele>
    </trkpt>
    <trkpt lat="52.05935" lon="-0.79138">
        <ele>66.0</ele>
    </trkpt>
    <trkpt lat="52.05941" lon="-0.79134">
        <ele>66.3</ele>
    </trkpt>
    <trkpt lat="52.0595" lon="-0.79128">
        <ele>67.5</ele>
    </trkpt>
    <trkpt lat="52.05974" lon="-0.79111">
        <ele>70.9</ele>
    </trkpt>
    <trkpt lat="52.05988" lon="-0.79101">
        <ele>72.2</ele>
    </trkpt>
    <trkpt lat="52.05992" lon="-0.79097">
        <ele>72.5</ele>
    </trkpt>
    <trkpt lat="52.0602" lon="-0.79088">
        <ele>73.9</ele>
    </trkpt>
    <trkpt lat="52.06037" lon="-0.79097">
        <ele>73.8</ele>
    </trkpt>
    <trkpt lat="52.06066" lon="-0.79125">
        <ele>71.3</ele>
    </trkpt>
    <trkpt lat="52.06086" lon="-0.7915">
        <ele>70.8</ele>
    </trkpt>
    <trkpt lat="52.06098" lon="-0.79171">
        <ele>69.9</ele>
    </trkpt>
    <trkpt lat="52.06122" lon="-0.79207">
        <ele>68.0</ele>
    </trkpt>
    <trkpt lat="52.0613" lon="-0.79223">
        <ele>68.0</ele>
    </trkpt>
    <trkpt lat="52.06136" lon="-0.79239">
        <ele>68.2</ele>
    </trkpt>
    <trkpt lat="52.06136" lon="-0.79262">
        <ele>69.2</ele>
    </trkpt>
    <trkpt lat="52.06133" lon="-0.79276">
        <ele>69.8</ele>
    </trkpt>
    <trkpt lat="52.06125" lon="-0.79281">
        <ele>70.4</ele>
    </trkpt>
    <trkpt lat="52.06116" lon="-0.79275">
        <ele>70.1</ele>
    </trkpt>
    <trkpt lat="52.06123" lon="-0.79258">
        <ele>69.1</ele>
    </trkpt>
    <trkpt lat="52.06126" lon="-0.79248">
        <ele>68.7</ele>
    </trkpt>
    <trkpt lat="52.0613" lon="-0.79238">
        <ele>68.2</ele>
    </trkpt>
    <trkpt lat="52.06139" lon="-0.79216">
        <ele>67.1</ele>
    </trkpt>
    <trkpt lat="52.06141" lon="-0.7921">
        <ele>67.0</ele>
    </trkpt>
    <trkpt lat="52.06145" lon="-0.792">
        <ele>67.4</ele>
    </trkpt>
    <trkpt lat="52.06146" lon="-0.79196">
        <ele>67.6</ele>
    </trkpt>
    <trkpt lat="52.06148" lon="-0.79193">
        <ele>67.8</ele>
    </trkpt>
    <trkpt lat="52.06153" lon="-0.79179">
        <ele>69.4</ele>
    </trkpt>
    <trkpt lat="52.06154" lon="-0.79177">
        <ele>69.8</ele>
    </trkpt>
    <trkpt lat="52.06164" lon="-0.79151">
        <ele>73.6</ele>
    </trkpt>
    <trkpt lat="52.06169" lon="-0.79138">
        <ele>74.3</ele>
    </trkpt>
    <trkpt lat="52.0619" lon="-0.79088">
        <ele>75.9</ele>
    </trkpt>
    <trkpt lat="52.06246" lon="-0.78941">
        <ele>78.7</ele>
    </trkpt>
    <trkpt lat="52.0627" lon="-0.78877">
        <ele>79.6</ele>
    </trkpt>
    <trkpt lat="52.06291" lon="-0.78817">
        <ele>77.7</ele>
    </trkpt>
    <trkpt lat="52.06301" lon="-0.78791">
        <ele>77.5</ele>
    </trkpt>
    <trkpt lat="52.06319" lon="-0.78744">
        <ele>79.8</ele>
    </trkpt>
    <trkpt lat="52.06339" lon="-0.78696">
        <ele>79.3</ele>
    </trkpt>
    <trkpt lat="52.06351" lon="-0.78667">
        <ele>80.8</ele>
    </trkpt>
    <trkpt lat="52.06387" lon="-0.78592">
        <ele>80.3</ele>
    </trkpt>
    <trkpt lat="52.06431" lon="-0.78516">
        <ele>79.3</ele>
    </trkpt>
    <trkpt lat="52.06453" lon="-0.78474">
        <ele>77.5</ele>
    </trkpt>
    <trkpt lat="52.06466" lon="-0.7845">
        <ele>77.3</ele>
    </trkpt>
    <trkpt lat="52.06506" lon="-0.78364">
        <ele>78.4</ele>
    </trkpt>
    <trkpt lat="52.06509" lon="-0.78357">
        <ele>78.5</ele>
    </trkpt>
    <trkpt lat="52.06523" lon="-0.78318">
        <ele>79.4</ele>
    </trkpt>
    <trkpt lat="52.06535" lon="-0.78284">
        <ele>81.1</ele>
    </trkpt>
    <trkpt lat="52.0655" lon="-0.78242">
        <ele>82.1</ele>
    </trkpt>
    <trkpt lat="52.06581" lon="-0.78131">
        <ele>77.0</ele>
    </trkpt>
    <trkpt lat="52.06582" lon="-0.78129">
        <ele>77.0</ele>
    </trkpt>
    <trkpt lat="52.06619" lon="-0.78007">
        <ele>78.3</ele>
    </trkpt>
    <trkpt lat="52.06661" lon="-0.77869">
        <ele>82.0</ele>
    </trkpt>
    <trkpt lat="52.06708" lon="-0.77719">
        <ele>81.8</ele>
    </trkpt>
    <trkpt lat="52.06716" lon="-0.77693">
        <ele>81.0</ele>
    </trkpt>
    <trkpt lat="52.06724" lon="-0.77668">
        <ele>81.1</ele>
    </trkpt>
    <trkpt lat="52.06736" lon="-0.77625">
        <ele>81.0</ele>
    </trkpt>
    <trkpt lat="52.06754" lon="-0.77568">
        <ele>81.2</ele>
    </trkpt>
    <trkpt lat="52.06773" lon="-0.77508">
        <ele>81.2</ele>
    </trkpt>
    <trkpt lat="52.06842" lon="-0.77281">
        <ele>80.7</ele>
    </trkpt>
    <trkpt lat="52.06855" lon="-0.7724">
        <ele>81.8</ele>
    </trkpt>
    <trkpt lat="52.06892" lon="-0.77125">
        <ele>80.3</ele>
    </trkpt>
    <trkpt lat="52.06913" lon="-0.77054">
        <ele>77.4</ele>
    </trkpt>
    <trkpt lat="52.06915" lon="-0.77048">
        <ele>77.3</ele>
    </trkpt>
    <trkpt lat="52.06934" lon="-0.76988">
        <ele>78.7</ele>
    </trkpt>
    <trkpt lat="52.06935" lon="-0.76983">
        <ele>79.0</ele>
    </trkpt>
    <trkpt lat="52.06974" lon="-0.76885">
        <ele>81.9</ele>
    </trkpt>
    <trkpt lat="52.07016" lon="-0.76807">
        <ele>80.3</ele>
    </trkpt>
    <trkpt lat="52.07024" lon="-0.76792">
        <ele>79.9</ele>
    </trkpt>
    <trkpt lat="52.07058" lon="-0.76738">
        <ele>79.7</ele>
    </trkpt>
    <trkpt lat="52.07075" lon="-0.76714">
        <ele>79.4</ele>
    </trkpt>
    <trkpt lat="52.07087" lon="-0.76697">
        <ele>79.0</ele>
    </trkpt>
    <trkpt lat="52.07098" lon="-0.76682">
        <ele>78.9</ele>
    </trkpt>
    <trkpt lat="52.07108" lon="-0.76669">
        <ele>78.9</ele>
    </trkpt>
    <trkpt lat="52.07124" lon="-0.76648">
        <ele>80.6</ele>
    </trkpt>
    <trkpt lat="52.07195" lon="-0.76566">
        <ele>78.8</ele>
    </trkpt>
    <trkpt lat="52.07194" lon="-0.76563">
        <ele>78.7</ele>
    </trkpt>
    <trkpt lat="52.07194" lon="-0.7656">
        <ele>78.6</ele>
    </trkpt>
    <trkpt lat="52.07194" lon="-0.76558">
        <ele>78.6</ele>
    </trkpt>
    <trkpt lat="52.07195" lon="-0.76555">
        <ele>78.4</ele>
    </trkpt>
    <trkpt lat="52.07217" lon="-0.76518">
        <ele>77.5</ele>
    </trkpt>
    <trkpt lat="52.07219" lon="-0.76514">
        <ele>77.4</ele>
    </trkpt>
    <trkpt lat="52.07224" lon="-0.76493">
        <ele>76.7</ele>
    </trkpt>
    <trkpt lat="52.07227" lon="-0.76464">
        <ele>76.4</ele>
    </trkpt>
    <trkpt lat="52.07227" lon="-0.76463">
        <ele>76.4</ele>
    </trkpt>
    <trkpt lat="52.07231" lon="-0.76424">
        <ele>78.0</ele>
    </trkpt>
    <trkpt lat="52.07233" lon="-0.76406">
        <ele>78.2</ele>
    </trkpt>
    <trkpt lat="52.07241" lon="-0.76388">
        <ele>77.7</ele>
    </trkpt>
    <trkpt lat="52.07251" lon="-0.76374">
        <ele>75.3</ele>
    </trkpt>
    <trkpt lat="52.0726" lon="-0.76357">
        <ele>74.1</ele>
    </trkpt>
    <trkpt lat="52.0728" lon="-0.76302">
        <ele>73.4</ele>
    </trkpt>
    <trkpt lat="52.07286" lon="-0.76272">
        <ele>73.6</ele>
    </trkpt>
    <trkpt lat="52.07291" lon="-0.76219">
        <ele>74.6</ele>
    </trkpt>
    <trkpt lat="52.07296" lon="-0.76138">
        <ele>74.1</ele>
    </trkpt>
    <trkpt lat="52.07299" lon="-0.76102">
        <ele>73.9</ele>
    </trkpt>
    <trkpt lat="52.07299" lon="-0.76049">
        <ele>74.2</ele>
    </trkpt>
    <trkpt lat="52.07297" lon="-0.76003">
        <ele>74.7</ele>
    </trkpt>
    <trkpt lat="52.07288" lon="-0.75954">
        <ele>74.5</ele>
    </trkpt>
    <trkpt lat="52.07274" lon="-0.75908">
        <ele>73.4</ele>
    </trkpt>
    <trkpt lat="52.07261" lon="-0.75877">
        <ele>72.7</ele>
    </trkpt>
    <trkpt lat="52.07253" lon="-0.7586">
        <ele>73.3</ele>
    </trkpt>
    <trkpt lat="52.07253" lon="-0.7586">
        <ele>73.3</ele>
    </trkpt>
    <trkpt lat="52.07223" lon="-0.75853">
        <ele>72.7</ele>
    </trkpt>
    <trkpt lat="52.07198" lon="-0.75846">
        <ele>72.9</ele>
    </trkpt>
    <trkpt lat="52.07179" lon="-0.7584">
        <ele>73.2</ele>
    </trkpt>
    <trkpt lat="52.07167" lon="-0.75833">
        <ele>73.2</ele>
    </trkpt>
    <trkpt lat="52.07146" lon="-0.75821">
        <ele>74.8</ele>
    </trkpt>
    <trkpt lat="52.07139" lon="-0.75818">
        <ele>75.5</ele>
    </trkpt>
    <trkpt lat="52.07137" lon="-0.75817">
        <ele>75.7</ele>
    </trkpt>
    <trkpt lat="52.07088" lon="-0.75792">
        <ele>77.8</ele>
    </trkpt>
    <trkpt lat="52.0708" lon="-0.75788">
        <ele>77.9</ele>
    </trkpt>
    <trkpt lat="52.07034" lon="-0.75763">
        <ele>79.2</ele>
    </trkpt>
    <trkpt lat="52.07014" lon="-0.75751">
        <ele>79.8</ele>
    </trkpt>
    <trkpt lat="52.06988" lon="-0.75734">
        <ele>80.8</ele>
    </trkpt>
    <trkpt lat="52.06961" lon="-0.75711">
        <ele>81.2</ele>
    </trkpt>
    <trkpt lat="52.06954" lon="-0.75705">
        <ele>81.6</ele>
    </trkpt>
    <trkpt lat="52.06945" lon="-0.75696">
        <ele>82.1</ele>
    </trkpt>
    <trkpt lat="52.0694" lon="-0.7569">
        <ele>82.3</ele>
    </trkpt>
    <trkpt lat="52.06937" lon="-0.75686">
        <ele>82.5</ele>
    </trkpt>
    <trkpt lat="52.06934" lon="-0.75683">
        <ele>82.6</ele>
    </trkpt>
    <trkpt lat="52.06932" lon="-0.75679">
        <ele>82.7</ele>
    </trkpt>
    <trkpt lat="52.0693" lon="-0.75677">
        <ele>82.8</ele>
    </trkpt>
    <trkpt lat="52.06927" lon="-0.75672">
        <ele>82.9</ele>
    </trkpt>
    <trkpt lat="52.06924" lon="-0.75666">
        <ele>83.0</ele>
    </trkpt>
    <trkpt lat="52.06922" lon="-0.75661">
        <ele>83.1</ele>
    </trkpt>
    <trkpt lat="52.0692" lon="-0.75657">
        <ele>83.2</ele>
    </trkpt>
    <trkpt lat="52.06917" lon="-0.75648">
        <ele>83.4</ele>
    </trkpt>
    <trkpt lat="52.06914" lon="-0.7564">
        <ele>83.4</ele>
    </trkpt>
    <trkpt lat="52.06896" lon="-0.75607">
        <ele>82.9</ele>
    </trkpt>
    <trkpt lat="52.06887" lon="-0.75596">
        <ele>82.8</ele>
    </trkpt>
    <trkpt lat="52.06882" lon="-0.75589">
        <ele>82.9</ele>
    </trkpt>
    <trkpt lat="52.06876" lon="-0.75583">
        <ele>83.0</ele>
    </trkpt>
    <trkpt lat="52.06874" lon="-0.75581">
        <ele>83.2</ele>
    </trkpt>
    <trkpt lat="52.06869" lon="-0.75575">
        <ele>83.7</ele>
    </trkpt>
    <trkpt lat="52.06844" lon="-0.7555">
        <ele>85.8</ele>
    </trkpt>
    <trkpt lat="52.06842" lon="-0.75549">
        <ele>85.8</ele>
    </trkpt>
    <trkpt lat="52.06825" lon="-0.75534">
        <ele>85.7</ele>
    </trkpt>
    <trkpt lat="52.06774" lon="-0.75434">
        <ele>84.6</ele>
    </trkpt>
    <trkpt lat="52.06766" lon="-0.7542">
        <ele>84.4</ele>
    </trkpt>
    <trkpt lat="52.06763" lon="-0.75413">
        <ele>84.3</ele>
    </trkpt>
    <trkpt lat="52.06737" lon="-0.75365">
        <ele>83.5</ele>
    </trkpt>
    <trkpt lat="52.06734" lon="-0.75361">
        <ele>83.7</ele>
    </trkpt>
    <trkpt lat="52.06732" lon="-0.75355">
        <ele>83.9</ele>
    </trkpt>
    <trkpt lat="52.06731" lon="-0.75346">
        <ele>84.2</ele>
    </trkpt>
    <trkpt lat="52.06731" lon="-0.75341">
        <ele>84.3</ele>
    </trkpt>
    <trkpt lat="52.06731" lon="-0.75336">
        <ele>84.5</ele>
    </trkpt>
    <trkpt lat="52.06732" lon="-0.75332">
        <ele>84.7</ele>
    </trkpt>
    <trkpt lat="52.06732" lon="-0.75327">
        <ele>84.9</ele>
    </trkpt>
    <trkpt lat="52.06732" lon="-0.75323">
        <ele>85.0</ele>
    </trkpt>
    <trkpt lat="52.06733" lon="-0.7532">
        <ele>85.2</ele>
    </trkpt>
    <trkpt lat="52.06736" lon="-0.75308">
        <ele>85.7</ele>
    </trkpt>
    <trkpt lat="52.0674" lon="-0.75295">
        <ele>85.6</ele>
    </trkpt>
    <trkpt lat="52.06749" lon="-0.75272">
        <ele>85.8</ele>
    </trkpt>
    <trkpt lat="52.06749" lon="-0.7527">
        <ele>85.9</ele>
    </trkpt>
    <trkpt lat="52.06753" lon="-0.75256">
        <ele>86.2</ele>
    </trkpt>
    <trkpt lat="52.06755" lon="-0.75247">
        <ele>86.3</ele>
    </trkpt>
    <trkpt lat="52.06757" lon="-0.75239">
        <ele>86.4</ele>
    </trkpt>
    <trkpt lat="52.06758" lon="-0.75231">
        <ele>86.5</ele>
    </trkpt>
    <trkpt lat="52.06758" lon="-0.75222">
        <ele>86.5</ele>
    </trkpt>
    <trkpt lat="52.06759" lon="-0.75218">
        <ele>86.4</ele>
    </trkpt>
    <trkpt lat="52.0676" lon="-0.75206">
        <ele>86.3</ele>
    </trkpt>
    <trkpt lat="52.0676" lon="-0.75194">
        <ele>86.1</ele>
    </trkpt>
    <trkpt lat="52.06761" lon="-0.75165">
        <ele>85.6</ele>
    </trkpt>
    <trkpt lat="52.06762" lon="-0.75114">
        <ele>86.2</ele>
    </trkpt>
    <trkpt lat="52.06773" lon="-0.75073">
        <ele>85.7</ele>
    </trkpt>
    <trkpt lat="52.06775" lon="-0.75067">
        <ele>85.6</ele>
    </trkpt>
    <trkpt lat="52.0678" lon="-0.75054">
        <ele>85.4</ele>
    </trkpt>
    <trkpt lat="52.06787" lon="-0.75023">
        <ele>84.8</ele>
    </trkpt>
    <trkpt lat="52.0679" lon="-0.75008">
        <ele>84.5</ele>
    </trkpt>
    <trkpt lat="52.06793" lon="-0.74995">
        <ele>84.2</ele>
    </trkpt>
    <trkpt lat="52.06793" lon="-0.74981">
        <ele>84.0</ele>
    </trkpt>
    <trkpt lat="52.06793" lon="-0.74962">
        <ele>82.9</ele>
    </trkpt>
    <trkpt lat="52.06793" lon="-0.7496">
        <ele>82.7</ele>
    </trkpt>
    <trkpt lat="52.06792" lon="-0.74942">
        <ele>81.9</ele>
    </trkpt>
    <trkpt lat="52.06791" lon="-0.7492">
        <ele>81.4</ele>
    </trkpt>
    <trkpt lat="52.06791" lon="-0.74912">
        <ele>81.2</ele>
    </trkpt>
    <trkpt lat="52.06791" lon="-0.74912">
        <ele>81.2</ele>
    </trkpt>
    <trkpt lat="52.06778" lon="-0.74912">
        <ele>80.7</ele>
    </trkpt>
    <trkpt lat="52.06778" lon="-0.74912">
        <ele>80.7</ele>
    </trkpt>
    <trkpt lat="52.06778" lon="-0.74909">
        <ele>80.6</ele>
    </trkpt>
    <trkpt lat="52.06776" lon="-0.74893">
        <ele>79.7</ele>
    </trkpt>
    <trkpt lat="52.06774" lon="-0.74883">
        <ele>79.1</ele>
    </trkpt>
    <trkpt lat="52.06774" lon="-0.7488">
        <ele>79.0</ele>
    </trkpt>
    <trkpt lat="52.06772" lon="-0.74872">
        <ele>78.9</ele>
    </trkpt>
    <trkpt lat="52.06766" lon="-0.74846">
        <ele>79.6</ele>
    </trkpt>
    <trkpt lat="52.06762" lon="-0.74829">
        <ele>80.5</ele>
    </trkpt>
    <trkpt lat="52.06756" lon="-0.74814">
        <ele>79.9</ele>
    </trkpt>
    <trkpt lat="52.06752" lon="-0.74804">
        <ele>79.5</ele>
    </trkpt>
    <trkpt lat="52.06745" lon="-0.74783">
        <ele>79.4</ele>
    </trkpt>
    <trkpt lat="52.06734" lon="-0.7475">
        <ele>79.4</ele>
    </trkpt>
    <trkpt lat="52.06721" lon="-0.74713">
        <ele>79.6</ele>
    </trkpt>
    <trkpt lat="52.06711" lon="-0.74681">
        <ele>79.8</ele>
    </trkpt>
    <trkpt lat="52.06692" lon="-0.74618">
        <ele>78.2</ele>
    </trkpt>
    <trkpt lat="52.0668" lon="-0.74584">
        <ele>77.3</ele>
    </trkpt>
    <trkpt lat="52.06679" lon="-0.74582">
        <ele>77.3</ele>
    </trkpt>
    <trkpt lat="52.06677" lon="-0.74578">
        <ele>77.1</ele>
    </trkpt>
    <trkpt lat="52.06672" lon="-0.74564">
        <ele>76.4</ele>
    </trkpt>
    <trkpt lat="52.06667" lon="-0.74549">
        <ele>75.8</ele>
    </trkpt>
    <trkpt lat="52.06667" lon="-0.74548">
        <ele>75.8</ele>
    </trkpt>
    <trkpt lat="52.06661" lon="-0.7453">
        <ele>75.7</ele>
    </trkpt>
    <trkpt lat="52.06661" lon="-0.7453">
        <ele>75.7</ele>
    </trkpt>
    <trkpt lat="52.06654" lon="-0.74537">
        <ele>75.7</ele>
    </trkpt>
    <trkpt lat="52.06648" lon="-0.74541">
        <ele>75.7</ele>
    </trkpt>
    <trkpt lat="52.06643" lon="-0.74542">
        <ele>75.6</ele>
    </trkpt>
    <trkpt lat="52.06635" lon="-0.74548">
        <ele>75.4</ele>
    </trkpt>
    <trkpt lat="52.06622" lon="-0.74553">
        <ele>74.9</ele>
    </trkpt>
    <trkpt lat="52.06609" lon="-0.74554">
        <ele>75.5</ele>
    </trkpt>
    <trkpt lat="52.06587" lon="-0.7455">
        <ele>75.4</ele>
    </trkpt>
    <trkpt lat="52.06567" lon="-0.74542">
        <ele>74.3</ele>
    </trkpt>
    <trkpt lat="52.06554" lon="-0.74536">
        <ele>73.3</ele>
    </trkpt>
    <trkpt lat="52.06531" lon="-0.7451">
        <ele>73.5</ele>
    </trkpt>
    <trkpt lat="52.06502" lon="-0.74489">
        <ele>74.1</ele>
    </trkpt>
    <trkpt lat="52.06489" lon="-0.74489">
        <ele>74.2</ele>
    </trkpt>
    <trkpt lat="52.06484" lon="-0.7449">
        <ele>74.2</ele>
    </trkpt>
    <trkpt lat="52.06473" lon="-0.74486">
        <ele>74.1</ele>
    </trkpt>
    <trkpt lat="52.06463" lon="-0.74485">
        <ele>73.9</ele>
    </trkpt>
    <trkpt lat="52.06451" lon="-0.74483">
        <ele>74.8</ele>
    </trkpt>
    <trkpt lat="52.06444" lon="-0.74481">
        <ele>75.6</ele>
    </trkpt>
    <trkpt lat="52.0643" lon="-0.74478">
        <ele>76.7</ele>
    </trkpt>
    <trkpt lat="52.06421" lon="-0.74472">
        <ele>77.2</ele>
    </trkpt>
    <trkpt lat="52.06416" lon="-0.7447">
        <ele>76.9</ele>
    </trkpt>
    <trkpt lat="52.06409" lon="-0.74465">
        <ele>76.5</ele>
    </trkpt>
    <trkpt lat="52.06405" lon="-0.74454">
        <ele>76.1</ele>
    </trkpt>
    <trkpt lat="52.064" lon="-0.74442">
        <ele>75.7</ele>
    </trkpt>
    <trkpt lat="52.06386" lon="-0.74403">
        <ele>74.2</ele>
    </trkpt>
    <trkpt lat="52.06381" lon="-0.7437">
        <ele>74.2</ele>
    </trkpt>
    <trkpt lat="52.06383" lon="-0.74306">
        <ele>74.6</ele>
    </trkpt>
    <trkpt lat="52.06388" lon="-0.74255">
        <ele>74.8</ele>
    </trkpt>
    <trkpt lat="52.06389" lon="-0.74216">
        <ele>74.8</ele>
    </trkpt>
    <trkpt lat="52.06387" lon="-0.74182">
        <ele>75.1</ele>
    </trkpt>
    <trkpt lat="52.06384" lon="-0.74152">
        <ele>74.7</ele>
    </trkpt>
    <trkpt lat="52.0638" lon="-0.74117">
        <ele>75.2</ele>
    </trkpt>
    <trkpt lat="52.0637" lon="-0.74088">
        <ele>75.1</ele>
    </trkpt>
    <trkpt lat="52.06366" lon="-0.74075">
        <ele>75.0</ele>
    </trkpt>
    <trkpt lat="52.06366" lon="-0.74071">
        <ele>75.0</ele>
    </trkpt>
    <trkpt lat="52.06365" lon="-0.74071">
        <ele>75.0</ele>
    </trkpt>
    <trkpt lat="52.06364" lon="-0.74068">
        <ele>75.0</ele>
    </trkpt>
    <trkpt lat="52.06358" lon="-0.74062">
        <ele>74.6</ele>
    </trkpt>
    <trkpt lat="52.06353" lon="-0.74058">
        <ele>74.2</ele>
    </trkpt>
    <trkpt lat="52.06349" lon="-0.74052">
        <ele>73.8</ele>
    </trkpt>
    <trkpt lat="52.06346" lon="-0.74047">
        <ele>73.8</ele>
    </trkpt>
    <trkpt lat="52.06342" lon="-0.74035">
        <ele>74.6</ele>
    </trkpt>
    <trkpt lat="52.06341" lon="-0.74024">
        <ele>75.2</ele>
    </trkpt>
    <trkpt lat="52.06341" lon="-0.74016">
        <ele>75.3</ele>
    </trkpt>
    <trkpt lat="52.06341" lon="-0.74016">
        <ele>75.3</ele>
    </trkpt>
    <trkpt lat="52.0634" lon="-0.74016">
        <ele>75.3</ele>
    </trkpt>
    <trkpt lat="52.06338" lon="-0.74014">
        <ele>75.3</ele>
    </trkpt>
    <trkpt lat="52.06336" lon="-0.74011">
        <ele>75.3</ele>
    </trkpt>
    <trkpt lat="52.06314" lon="-0.73979">
        <ele>74.8</ele>
    </trkpt>
    <trkpt lat="52.06307" lon="-0.73971">
        <ele>75.6</ele>
    </trkpt>
    <trkpt lat="52.06297" lon="-0.7396">
        <ele>76.3</ele>
    </trkpt>
    <trkpt lat="52.06286" lon="-0.73949">
        <ele>76.5</ele>
    </trkpt>
    <trkpt lat="52.06277" lon="-0.73941">
        <ele>76.2</ele>
    </trkpt>
    <trkpt lat="52.06268" lon="-0.73933">
        <ele>75.7</ele>
    </trkpt>
    <trkpt lat="52.06257" lon="-0.73924">
        <ele>75.9</ele>
    </trkpt>
    <trkpt lat="52.06246" lon="-0.73917">
        <ele>76.0</ele>
    </trkpt>
    <trkpt lat="52.06235" lon="-0.7391">
        <ele>75.8</ele>
    </trkpt>
    <trkpt lat="52.06228" lon="-0.73906">
        <ele>75.7</ele>
    </trkpt>
    <trkpt lat="52.06217" lon="-0.73901">
        <ele>75.5</ele>
    </trkpt>
    <trkpt lat="52.06187" lon="-0.73886">
        <ele>75.4</ele>
    </trkpt>
    <trkpt lat="52.06172" lon="-0.73879">
        <ele>75.5</ele>
    </trkpt>
    <trkpt lat="52.06168" lon="-0.73877">
        <ele>75.4</ele>
    </trkpt>
    <trkpt lat="52.06164" lon="-0.73876">
        <ele>75.3</ele>
    </trkpt>
    <trkpt lat="52.06157" lon="-0.73874">
        <ele>75.2</ele>
    </trkpt>
    <trkpt lat="52.06155" lon="-0.73873">
        <ele>75.1</ele>
    </trkpt>
    <trkpt lat="52.06153" lon="-0.73872">
        <ele>75.1</ele>
    </trkpt>
    <trkpt lat="52.06147" lon="-0.73867">
        <ele>75.0</ele>
    </trkpt>
    <trkpt lat="52.06147" lon="-0.73867">
        <ele>75.0</ele>
    </trkpt>
    <trkpt lat="52.06144" lon="-0.73869">
        <ele>75.0</ele>
    </trkpt>
    <trkpt lat="52.06139" lon="-0.73869">
        <ele>75.0</ele>
    </trkpt>
    <trkpt lat="52.06132" lon="-0.73869">
        <ele>74.7</ele>
    </trkpt>
    <trkpt lat="52.06125" lon="-0.73868">
        <ele>74.4</ele>
    </trkpt>
    <trkpt lat="52.06122" lon="-0.73866">
        <ele>74.2</ele>
    </trkpt>
    <trkpt lat="52.06115" lon="-0.73862">
        <ele>74.0</ele>
    </trkpt>
    <trkpt lat="52.06109" lon="-0.73858">
        <ele>73.9</ele>
    </trkpt>
    <trkpt lat="52.0609" lon="-0.73846">
        <ele>75.8</ele>
    </trkpt>
    <trkpt lat="52.06086" lon="-0.73841">
        <ele>76.6</ele>
    </trkpt>
    <trkpt lat="52.06083" lon="-0.73839">
        <ele>76.7</ele>
    </trkpt>
    <trkpt lat="52.06083" lon="-0.73835">
        <ele>76.7</ele>
    </trkpt>
    <trkpt lat="52.06082" lon="-0.73831">
        <ele>76.7</ele>
    </trkpt>
    <trkpt lat="52.0607" lon="-0.73815">
        <ele>76.7</ele>
    </trkpt>
    <trkpt lat="52.06054" lon="-0.738">
        <ele>75.1</ele>
    </trkpt>
    <trkpt lat="52.06045" lon="-0.73791">
        <ele>74.5</ele>
    </trkpt>
    <trkpt lat="52.06025" lon="-0.7377">
        <ele>74.8</ele>
    </trkpt>
    <trkpt lat="52.06004" lon="-0.73747">
        <ele>74.9</ele>
    </trkpt>
    <trkpt lat="52.05979" lon="-0.73716">
        <ele>75.1</ele>
    </trkpt>
    <trkpt lat="52.05953" lon="-0.73679">
        <ele>73.9</ele>
    </trkpt>
    <trkpt lat="52.0592" lon="-0.73622">
        <ele>75.2</ele>
    </trkpt>
    <trkpt lat="52.05903" lon="-0.73587">
        <ele>73.9</ele>
    </trkpt>
    <trkpt lat="52.05896" lon="-0.73581">
        <ele>73.5</ele>
    </trkpt>
    <trkpt lat="52.05887" lon="-0.73575">
        <ele>73.3</ele>
    </trkpt>
    <trkpt lat="52.0588" lon="-0.73563">
        <ele>73.3</ele>
    </trkpt>
    <trkpt lat="52.05877" lon="-0.73559">
        <ele>73.4</ele>
    </trkpt>
    <trkpt lat="52.05873" lon="-0.73553">
        <ele>73.7</ele>
    </trkpt>
    <trkpt lat="52.05871" lon="-0.7355">
        <ele>73.8</ele>
    </trkpt>
    <trkpt lat="52.05871" lon="-0.7355">
        <ele>73.8</ele>
    </trkpt>
    <trkpt lat="52.05864" lon="-0.73556">
        <ele>74.2</ele>
    </trkpt>
    <trkpt lat="52.05864" lon="-0.73557">
        <ele>74.2</ele>
    </trkpt>
    <trkpt lat="52.05862" lon="-0.73559">
        <ele>74.3</ele>
    </trkpt>
    <trkpt lat="52.05853" lon="-0.73568">
        <ele>75.0</ele>
    </trkpt>
    <trkpt lat="52.05853" lon="-0.7357">
        <ele>75.1</ele>
    </trkpt>
    <trkpt lat="52.05851" lon="-0.73576">
        <ele>75.3</ele>
    </trkpt>
    <trkpt lat="52.05849" lon="-0.73584">
        <ele>75.5</ele>
    </trkpt>
    <trkpt lat="52.05846" lon="-0.73592">
        <ele>75.4</ele>
    </trkpt>
    <trkpt lat="52.05846" lon="-0.73592">
        <ele>75.4</ele>
    </trkpt>
    <trkpt lat="52.05842" lon="-0.73585">
        <ele>75.3</ele>
    </trkpt>
    <trkpt lat="52.0584" lon="-0.73581">
        <ele>75.3</ele>
    </trkpt>
    <trkpt lat="52.05835" lon="-0.73568">
        <ele>75.5</ele>
    </trkpt>
    <trkpt lat="52.05832" lon="-0.73554">
        <ele>75.7</ele>
    </trkpt>
    <trkpt lat="52.05831" lon="-0.73541">
        <ele>75.4</ele>
    </trkpt>
    <trkpt lat="52.05832" lon="-0.73527">
        <ele>75.0</ele>
    </trkpt>
    <trkpt lat="52.05832" lon="-0.73527">
        <ele>75.0</ele>
    </trkpt>
    <trkpt lat="52.05817" lon="-0.73495">
        <ele>75.5</ele>
    </trkpt>
    <trkpt lat="52.05806" lon="-0.73453">
        <ele>74.6</ele>
    </trkpt>
    <trkpt lat="52.05807" lon="-0.73444">
        <ele>74.5</ele>
    </trkpt>
    <trkpt lat="52.05806" lon="-0.7343">
        <ele>74.8</ele>
    </trkpt>
    <trkpt lat="52.05803" lon="-0.73412">
        <ele>75.0</ele>
    </trkpt>
    <trkpt lat="52.05785" lon="-0.73344">
        <ele>73.3</ele>
    </trkpt>
    <trkpt lat="52.05778" lon="-0.73326">
        <ele>73.2</ele>
    </trkpt>
    <trkpt lat="52.05767" lon="-0.73295">
        <ele>74.3</ele>
    </trkpt>
    <trkpt lat="52.05758" lon="-0.7328">
        <ele>75.4</ele>
    </trkpt>
    <trkpt lat="52.0574" lon="-0.73258">
        <ele>77.2</ele>
    </trkpt>
    <trkpt lat="52.0573" lon="-0.73249">
        <ele>77.0</ele>
    </trkpt>
    <trkpt lat="52.05726" lon="-0.73245">
        <ele>76.9</ele>
    </trkpt>
    <trkpt lat="52.05722" lon="-0.73241">
        <ele>76.6</ele>
    </trkpt>
    <trkpt lat="52.05719" lon="-0.73239">
        <ele>76.3</ele>
    </trkpt>
    <trkpt lat="52.05709" lon="-0.73234">
        <ele>75.2</ele>
    </trkpt>
    <trkpt lat="52.05697" lon="-0.73233">
        <ele>74.8</ele>
    </trkpt>
    <trkpt lat="52.05688" lon="-0.73235">
        <ele>74.7</ele>
    </trkpt>
    <trkpt lat="52.0567" lon="-0.73244">
        <ele>74.0</ele>
    </trkpt>
    <trkpt lat="52.0566" lon="-0.73256">
        <ele>73.8</ele>
    </trkpt>
    <trkpt lat="52.05607" lon="-0.73336">
        <ele>74.0</ele>
    </trkpt>
    <trkpt lat="52.05583" lon="-0.73374">
        <ele>75.1</ele>
    </trkpt>
    <trkpt lat="52.05559" lon="-0.73408">
        <ele>73.8</ele>
    </trkpt>
    <trkpt lat="52.05553" lon="-0.73415">
        <ele>73.9</ele>
    </trkpt>
    <trkpt lat="52.05552" lon="-0.73416">
        <ele>73.9</ele>
    </trkpt>
    <trkpt lat="52.05541" lon="-0.73427">
        <ele>73.8</ele>
    </trkpt>
    <trkpt lat="52.05529" lon="-0.73437">
        <ele>74.0</ele>
    </trkpt>
    <trkpt lat="52.05483" lon="-0.73468">
        <ele>74.4</ele>
    </trkpt>
    <trkpt lat="52.05482" lon="-0.73468">
        <ele>74.4</ele>
    </trkpt>
    <trkpt lat="52.05475" lon="-0.73474">
        <ele>73.9</ele>
    </trkpt>
    <trkpt lat="52.0547" lon="-0.73474">
        <ele>73.6</ele>
    </trkpt>
    <trkpt lat="52.05463" lon="-0.73478">
        <ele>73.3</ele>
    </trkpt>
    <trkpt lat="52.05409" lon="-0.7352">
        <ele>73.6</ele>
    </trkpt>
    <trkpt lat="52.05381" lon="-0.73553">
        <ele>73.0</ele>
    </trkpt>
    <trkpt lat="52.05379" lon="-0.73554">
        <ele>73.0</ele>
    </trkpt>
    <trkpt lat="52.05371" lon="-0.73558">
        <ele>72.7</ele>
    </trkpt>
    <trkpt lat="52.05367" lon="-0.7356">
        <ele>72.6</ele>
    </trkpt>
    <trkpt lat="52.05361" lon="-0.73562">
        <ele>72.4</ele>
    </trkpt>
    <trkpt lat="52.05352" lon="-0.73563">
        <ele>72.6</ele>
    </trkpt>
    <trkpt lat="52.05348" lon="-0.73566">
        <ele>72.7</ele>
    </trkpt>
    <trkpt lat="52.0534" lon="-0.7357">
        <ele>73.1</ele>
    </trkpt>
    <trkpt lat="52.05334" lon="-0.73574">
        <ele>73.7</ele>
    </trkpt>
    <trkpt lat="52.05326" lon="-0.73579">
        <ele>74.5</ele>
    </trkpt>
    <trkpt lat="52.05313" lon="-0.73587">
        <ele>74.8</ele>
    </trkpt>
    <trkpt lat="52.05298" lon="-0.736">
        <ele>75.0</ele>
    </trkpt>
    <trkpt lat="52.05292" lon="-0.73605">
        <ele>75.1</ele>
    </trkpt>
    <trkpt lat="52.05281" lon="-0.73613">
        <ele>74.8</ele>
    </trkpt>
    <trkpt lat="52.05275" lon="-0.73616">
        <ele>74.6</ele>
    </trkpt>
    <trkpt lat="52.05275" lon="-0.73616">
        <ele>74.6</ele>
    </trkpt>
    <trkpt lat="52.05272" lon="-0.73618">
        <ele>74.5</ele>
    </trkpt>
    <trkpt lat="52.05253" lon="-0.73622">
        <ele>73.7</ele>
    </trkpt>
    <trkpt lat="52.05225" lon="-0.73624">
        <ele>74.2</ele>
    </trkpt>
    <trkpt lat="52.05212" lon="-0.73621">
        <ele>74.1</ele>
    </trkpt>
    <trkpt lat="52.05199" lon="-0.73615">
        <ele>74.5</ele>
    </trkpt>
    <trkpt lat="52.05175" lon="-0.736">
        <ele>75.5</ele>
    </trkpt>
    <trkpt lat="52.05174" lon="-0.736">
        <ele>75.5</ele>
    </trkpt>
    <trkpt lat="52.05168" lon="-0.73588">
        <ele>75.1</ele>
    </trkpt>
    <trkpt lat="52.05154" lon="-0.73574">
        <ele>73.6</ele>
    </trkpt>
    <trkpt lat="52.05153" lon="-0.73572">
        <ele>73.4</ele>
    </trkpt>
    <trkpt lat="52.05144" lon="-0.73563">
        <ele>72.3</ele>
    </trkpt>
    <trkpt lat="52.0513" lon="-0.73546">
        <ele>72.3</ele>
    </trkpt>
    <trkpt lat="52.05128" lon="-0.73544">
        <ele>72.3</ele>
    </trkpt>
    <trkpt lat="52.05113" lon="-0.73524">
        <ele>72.2</ele>
    </trkpt>
    <trkpt lat="52.05108" lon="-0.73515">
        <ele>72.1</ele>
    </trkpt>
    <trkpt lat="52.05101" lon="-0.73501">
        <ele>72.1</ele>
    </trkpt>
    <trkpt lat="52.05095" lon="-0.73488">
        <ele>72.3</ele>
    </trkpt>
    <trkpt lat="52.05089" lon="-0.73472">
        <ele>72.5</ele>
    </trkpt>
    <trkpt lat="52.05085" lon="-0.73458">
        <ele>72.4</ele>
    </trkpt>
    <trkpt lat="52.05081" lon="-0.73444">
        <ele>72.2</ele>
    </trkpt>
    <trkpt lat="52.05081" lon="-0.73444">
        <ele>72.2</ele>
    </trkpt>
    <trkpt lat="52.05079" lon="-0.73445">
        <ele>72.1</ele>
    </trkpt>
    <trkpt lat="52.05057" lon="-0.73459">
        <ele>71.8</ele>
    </trkpt>
    <trkpt lat="52.05052" lon="-0.73461">
        <ele>71.9</ele>
    </trkpt>
    <trkpt lat="52.05047" lon="-0.73462">
        <ele>71.9</ele>
    </trkpt>
    <trkpt lat="52.05043" lon="-0.73462">
        <ele>72.1</ele>
    </trkpt>
    <trkpt lat="52.05039" lon="-0.73461">
        <ele>72.2</ele>
    </trkpt>
    <trkpt lat="52.05036" lon="-0.7346">
        <ele>72.3</ele>
    </trkpt>
    <trkpt lat="52.05033" lon="-0.73458">
        <ele>72.4</ele>
    </trkpt>
    <trkpt lat="52.05029" lon="-0.73455">
        <ele>72.5</ele>
    </trkpt>
    <trkpt lat="52.05024" lon="-0.73449">
        <ele>72.6</ele>
    </trkpt>
    <trkpt lat="52.05021" lon="-0.73445">
        <ele>72.7</ele>
    </trkpt>
    <trkpt lat="52.05017" lon="-0.73439">
        <ele>72.8</ele>
    </trkpt>
    <trkpt lat="52.05014" lon="-0.73434">
        <ele>72.9</ele>
    </trkpt>
    <trkpt lat="52.05012" lon="-0.73429">
        <ele>73.0</ele>
    </trkpt>
    <trkpt lat="52.05009" lon="-0.73422">
        <ele>73.2</ele>
    </trkpt>
    <trkpt lat="52.05006" lon="-0.73417">
        <ele>73.4</ele>
    </trkpt>
    <trkpt lat="52.05004" lon="-0.73415">
        <ele>73.5</ele>
    </trkpt>
    <trkpt lat="52.05" lon="-0.73411">
        <ele>73.9</ele>
    </trkpt>
    <trkpt lat="52.04997" lon="-0.73409">
        <ele>74.1</ele>
    </trkpt>
    <trkpt lat="52.04991" lon="-0.73406">
        <ele>74.5</ele>
    </trkpt>
    <trkpt lat="52.04989" lon="-0.73403">
        <ele>74.7</ele>
    </trkpt>
    <trkpt lat="52.04989" lon="-0.73403">
        <ele>74.7</ele>
    </trkpt>
    <trkpt lat="52.04988" lon="-0.73406">
        <ele>74.9</ele>
    </trkpt>
    <trkpt lat="52.04985" lon="-0.73417">
        <ele>75.5</ele>
    </trkpt>
    <trkpt lat="52.04977" lon="-0.73439">
        <ele>77.0</ele>
    </trkpt>
    <trkpt lat="52.04966" lon="-0.73464">
        <ele>78.2</ele>
    </trkpt>
    <trkpt lat="52.0496" lon="-0.73478">
        <ele>79.0</ele>
    </trkpt>
    <trkpt lat="52.04951" lon="-0.73491">
        <ele>79.6</ele>
    </trkpt>
    <trkpt lat="52.04947" lon="-0.73495">
        <ele>79.9</ele>
    </trkpt>
    <trkpt lat="52.04944" lon="-0.73498">
        <ele>80.1</ele>
    </trkpt>
    <trkpt lat="52.04938" lon="-0.73506">
        <ele>80.4</ele>
    </trkpt>
    <trkpt lat="52.04927" lon="-0.73514">
        <ele>80.8</ele>
    </trkpt>
    <trkpt lat="52.04902" lon="-0.73531">
        <ele>81.6</ele>
    </trkpt>
    <trkpt lat="52.04886" lon="-0.7354">
        <ele>82.3</ele>
    </trkpt>
    <trkpt lat="52.04883" lon="-0.73542">
        <ele>82.3</ele>
    </trkpt>
    <trkpt lat="52.0488" lon="-0.73546">
        <ele>82.4</ele>
    </trkpt>
    <trkpt lat="52.04879" lon="-0.73548">
        <ele>82.4</ele>
    </trkpt>
    <trkpt lat="52.04877" lon="-0.73554">
        <ele>82.5</ele>
    </trkpt>
    <trkpt lat="52.04877" lon="-0.73554">
        <ele>82.5</ele>
    </trkpt>
    <trkpt lat="52.04879" lon="-0.73599">
        <ele>82.9</ele>
    </trkpt>
    <trkpt lat="52.04879" lon="-0.73602">
        <ele>82.9</ele>
    </trkpt>
    <trkpt lat="52.0488" lon="-0.7361">
        <ele>83.1</ele>
    </trkpt>
    <trkpt lat="52.0488" lon="-0.73611">
        <ele>83.1</ele>
    </trkpt>
    <trkpt lat="52.04881" lon="-0.73622">
        <ele>83.5</ele>
    </trkpt>
    <trkpt lat="52.04882" lon="-0.73645">
        <ele>84.5</ele>
    </trkpt>
    <trkpt lat="52.04883" lon="-0.73665">
        <ele>84.2</ele>
    </trkpt>
    <trkpt lat="52.04883" lon="-0.73672">
        <ele>84.0</ele>
    </trkpt>
    <trkpt lat="52.04881" lon="-0.73678">
        <ele>83.8</ele>
    </trkpt>
    <trkpt lat="52.04881" lon="-0.7368">
        <ele>83.7</ele>
    </trkpt>
    <trkpt lat="52.04878" lon="-0.73688">
        <ele>83.9</ele>
    </trkpt>
    <trkpt lat="52.04877" lon="-0.73689">
        <ele>84.0</ele>
    </trkpt>
    <trkpt lat="52.04871" lon="-0.73707">
        <ele>84.6</ele>
    </trkpt>
    <trkpt lat="52.04865" lon="-0.73723">
        <ele>84.8</ele>
    </trkpt>
    <trkpt lat="52.04858" lon="-0.73741">
        <ele>84.9</ele>
    </trkpt>
    <trkpt lat="52.04853" lon="-0.73751">
        <ele>85.0</ele>
    </trkpt>
    <trkpt lat="52.04844" lon="-0.73765">
        <ele>85.3</ele>
    </trkpt>
    <trkpt lat="52.04834" lon="-0.73783">
        <ele>86.0</ele>
    </trkpt>
    <trkpt lat="52.04831" lon="-0.73789">
        <ele>86.2</ele>
    </trkpt>
    <trkpt lat="52.04827" lon="-0.73796">
        <ele>86.4</ele>
    </trkpt>
    <trkpt lat="52.04821" lon="-0.73809">
        <ele>86.7</ele>
    </trkpt>
    <trkpt lat="52.04813" lon="-0.73829">
        <ele>87.5</ele>
    </trkpt>
    <trkpt lat="52.04804" lon="-0.73848">
        <ele>88.5</ele>
    </trkpt>
    <trkpt lat="52.04789" lon="-0.73876">
        <ele>89.1</ele>
    </trkpt>
    <trkpt lat="52.04775" lon="-0.73898">
        <ele>88.4</ele>
    </trkpt>
    <trkpt lat="52.04768" lon="-0.7391">
        <ele>88.5</ele>
    </trkpt>
    <trkpt lat="52.04763" lon="-0.73921">
        <ele>88.9</ele>
    </trkpt>
    <trkpt lat="52.04758" lon="-0.73934">
        <ele>89.1</ele>
    </trkpt>
    <trkpt lat="52.04753" lon="-0.73948">
        <ele>88.8</ele>
    </trkpt>
    <trkpt lat="52.0475" lon="-0.73961">
        <ele>89.0</ele>
    </trkpt>
    <trkpt lat="52.04748" lon="-0.73973">
        <ele>89.5</ele>
    </trkpt>
    <trkpt lat="52.04746" lon="-0.73987">
        <ele>90.0</ele>
    </trkpt>
    <trkpt lat="52.04743" lon="-0.74005">
        <ele>90.2</ele>
    </trkpt>
    <trkpt lat="52.04738" lon="-0.74027">
        <ele>90.6</ele>
    </trkpt>
    <trkpt lat="52.04733" lon="-0.74043">
        <ele>90.9</ele>
    </trkpt>
    <trkpt lat="52.04726" lon="-0.74057">
        <ele>90.2</ele>
    </trkpt>
    <trkpt lat="52.04719" lon="-0.74071">
        <ele>89.6</ele>
    </trkpt>
    <trkpt lat="52.04712" lon="-0.74083">
        <ele>90.6</ele>
    </trkpt>
    <trkpt lat="52.04695" lon="-0.7412">
        <ele>92.2</ele>
    </trkpt>
    <trkpt lat="52.04692" lon="-0.74144">
        <ele>93.4</ele>
    </trkpt>
    <trkpt lat="52.04688" lon="-0.74179">
        <ele>96.0</ele>
    </trkpt>
    <trkpt lat="52.04678" lon="-0.74234">
        <ele>96.2</ele>
    </trkpt>
    <trkpt lat="52.04668" lon="-0.74271">
        <ele>95.3</ele>
    </trkpt>
    <trkpt lat="52.04658" lon="-0.74299">
        <ele>94.8</ele>
    </trkpt>
    <trkpt lat="52.0464" lon="-0.74343">
        <ele>95.1</ele>
    </trkpt>
    <trkpt lat="52.04638" lon="-0.74355">
        <ele>95.5</ele>
    </trkpt>
    <trkpt lat="52.04639" lon="-0.74368">
        <ele>96.1</ele>
    </trkpt>
    <trkpt lat="52.04644" lon="-0.74385">
        <ele>96.7</ele>
    </trkpt>
    <trkpt lat="52.04653" lon="-0.744">
        <ele>96.4</ele>
    </trkpt>
    <trkpt lat="52.04664" lon="-0.7441">
        <ele>96.7</ele>
    </trkpt>
    <trkpt lat="52.04676" lon="-0.74414">
        <ele>97.2</ele>
    </trkpt>
    <trkpt lat="52.04691" lon="-0.74415">
        <ele>97.1</ele>
    </trkpt>
    <trkpt lat="52.0471" lon="-0.74412">
        <ele>99.0</ele>
    </trkpt>
    <trkpt lat="52.04723" lon="-0.74407">
        <ele>100.6</ele>
    </trkpt>
    <trkpt lat="52.04681" lon="-0.74506">
        <ele>104.5</ele>
    </trkpt>
    <trkpt lat="52.04676" lon="-0.74517">
        <ele>104.8</ele>
    </trkpt>
    <trkpt lat="52.04623" lon="-0.74641">
        <ele>106.4</ele>
    </trkpt>
    <trkpt lat="52.04623" lon="-0.74641">
        <ele>106.4</ele>
    </trkpt>
    <trkpt lat="52.04624" lon="-0.74643">
        <ele>106.4</ele>
    </trkpt>
    <trkpt lat="52.04626" lon="-0.74645">
        <ele>106.4</ele>
    </trkpt>
    <trkpt lat="52.04627" lon="-0.74648">
        <ele>106.4</ele>
    </trkpt>
    <trkpt lat="52.0463" lon="-0.74658">
        <ele>106.5</ele>
    </trkpt>
    <trkpt lat="52.04631" lon="-0.7467">
        <ele>106.3</ele>
    </trkpt>
    <trkpt lat="52.0463" lon="-0.74682">
        <ele>106.1</ele>
    </trkpt>
    <trkpt lat="52.04626" lon="-0.74691">
        <ele>105.8</ele>
    </trkpt>
    <trkpt lat="52.0462" lon="-0.74698">
        <ele>105.4</ele>
    </trkpt>
    <trkpt lat="52.04612" lon="-0.74701">
        <ele>104.9</ele>
    </trkpt>
    <trkpt lat="52.04605" lon="-0.74699">
        <ele>104.8</ele>
    </trkpt>
    <trkpt lat="52.04599" lon="-0.74695">
        <ele>104.8</ele>
    </trkpt>
    <trkpt lat="52.04589" lon="-0.74719">
        <ele>104.9</ele>
    </trkpt>
    <trkpt lat="52.0459" lon="-0.7472">
        <ele>105.0</ele>
    </trkpt>
    <trkpt lat="52.04591" lon="-0.74721">
        <ele>105.0</ele>
    </trkpt>
    <trkpt lat="52.04592" lon="-0.74726">
        <ele>105.0</ele>
    </trkpt>
    <trkpt lat="52.0459" lon="-0.74736">
        <ele>105.1</ele>
    </trkpt>
    <trkpt lat="52.04587" lon="-0.74739">
        <ele>105.1</ele>
    </trkpt>
    <trkpt lat="52.04584" lon="-0.74739">
        <ele>105.1</ele>
    </trkpt>
    <trkpt lat="52.04579" lon="-0.74732">
        <ele>105.2</ele>
    </trkpt>
    <trkpt lat="52.04579" lon="-0.74727">
        <ele>105.3</ele>
    </trkpt>
    <trkpt lat="52.04579" lon="-0.74724">
        <ele>105.4</ele>
    </trkpt>
    <trkpt lat="52.0458" lon="-0.74723">
        <ele>105.4</ele>
    </trkpt>
    <trkpt lat="52.0451" lon="-0.74667">
        <ele>106.0</ele>
    </trkpt>
    <trkpt lat="52.04463" lon="-0.74636">
        <ele>106.5</ele>
    </trkpt>
    <trkpt lat="52.04448" lon="-0.74634">
        <ele>106.8</ele>
    </trkpt>
    <trkpt lat="52.0443" lon="-0.74639">
        <ele>107.1</ele>
    </trkpt>
    <trkpt lat="52.0442" lon="-0.74641">
        <ele>107.0</ele>
    </trkpt>
    <trkpt lat="52.04407" lon="-0.74639">
        <ele>106.2</ele>
    </trkpt>
    <trkpt lat="52.04373" lon="-0.74619">
        <ele>104.6</ele>
    </trkpt>
    <trkpt lat="52.04356" lon="-0.74601">
        <ele>105.6</ele>
    </trkpt>
    <trkpt lat="52.04346" lon="-0.74584">
        <ele>105.3</ele>
    </trkpt>
    <trkpt lat="52.04331" lon="-0.74562">
        <ele>103.6</ele>
    </trkpt>
    <trkpt lat="52.04306" lon="-0.74546">
        <ele>104.4</ele>
    </trkpt>
    <trkpt lat="52.04293" lon="-0.74541">
        <ele>104.3</ele>
    </trkpt>
    <trkpt lat="52.04278" lon="-0.74531">
        <ele>103.2</ele>
    </trkpt>
    <trkpt lat="52.04264" lon="-0.74519">
        <ele>101.8</ele>
    </trkpt>
    <trkpt lat="52.04245" lon="-0.74496">
        <ele>100.6</ele>
    </trkpt>
    <trkpt lat="52.04234" lon="-0.74476">
        <ele>100.5</ele>
    </trkpt>
    <trkpt lat="52.04228" lon="-0.74459">
        <ele>100.3</ele>
    </trkpt>
    <trkpt lat="52.04224" lon="-0.7444">
        <ele>100.1</ele>
    </trkpt>
    <trkpt lat="52.04223" lon="-0.74425">
        <ele>100.1</ele>
    </trkpt>
    <trkpt lat="52.04221" lon="-0.74416">
        <ele>100.0</ele>
    </trkpt>
    <trkpt lat="52.04216" lon="-0.74404">
        <ele>99.9</ele>
    </trkpt>
    <trkpt lat="52.04189" lon="-0.74364">
        <ele>98.7</ele>
    </trkpt>
    <trkpt lat="52.04165" lon="-0.74333">
        <ele>99.8</ele>
    </trkpt>
    <trkpt lat="52.04162" lon="-0.7434">
        <ele>99.8</ele>
    </trkpt>
    <trkpt lat="52.04136" lon="-0.74378">
        <ele>100.2</ele>
    </trkpt>
    <trkpt lat="52.04106" lon="-0.74417">
        <ele>102.0</ele>
    </trkpt>
    <trkpt lat="52.04086" lon="-0.74451">
        <ele>102.1</ele>
    </trkpt>
    <trkpt lat="52.04072" lon="-0.7448">
        <ele>103.1</ele>
    </trkpt>
    <trkpt lat="52.04039" lon="-0.74556">
        <ele>106.9</ele>
    </trkpt>
    <trkpt lat="52.03947" lon="-0.74773">
        <ele>105.9</ele>
    </trkpt>
    <trkpt lat="52.0377" lon="-0.75182">
        <ele>102.5</ele>
    </trkpt>
    <trkpt lat="52.03701" lon="-0.75343">
        <ele>100.7</ele>
    </trkpt>
    <trkpt lat="52.03636" lon="-0.75493">
        <ele>94.0</ele>
    </trkpt>
    <trkpt lat="52.03624" lon="-0.75524">
        <ele>93.1</ele>
    </trkpt>
    <trkpt lat="52.03613" lon="-0.75547">
        <ele>93.4</ele>
    </trkpt>
    <trkpt lat="52.03601" lon="-0.75576">
        <ele>93.7</ele>
    </trkpt>
    <trkpt lat="52.03598" lon="-0.75581">
        <ele>93.7</ele>
    </trkpt>
    <trkpt lat="52.03592" lon="-0.75596">
        <ele>92.6</ele>
    </trkpt>
    <trkpt lat="52.03583" lon="-0.7562">
        <ele>91.4</ele>
    </trkpt>
    <trkpt lat="52.03566" lon="-0.7566">
        <ele>90.4</ele>
    </trkpt>
    <trkpt lat="52.03519" lon="-0.75769">
        <ele>89.9</ele>
    </trkpt>
    <trkpt lat="52.0349" lon="-0.75837">
        <ele>89.9</ele>
    </trkpt>
    <trkpt lat="52.03464" lon="-0.75891">
        <ele>90.4</ele>
    </trkpt>
    <trkpt lat="52.0346" lon="-0.75902">
        <ele>90.4</ele>
    </trkpt>
    <trkpt lat="52.0342" lon="-0.75993">
        <ele>91.6</ele>
    </trkpt>
    <trkpt lat="52.03401" lon="-0.76041">
        <ele>90.3</ele>
    </trkpt>
    <trkpt lat="52.03366" lon="-0.76125">
        <ele>87.0</ele>
    </trkpt>
    <trkpt lat="52.0336" lon="-0.76138">
        <ele>86.8</ele>
    </trkpt>
    <trkpt lat="52.03356" lon="-0.76146">
        <ele>86.6</ele>
    </trkpt>
    <trkpt lat="52.03352" lon="-0.76157">
        <ele>86.6</ele>
    </trkpt>
    <trkpt lat="52.03337" lon="-0.76193">
        <ele>86.7</ele>
    </trkpt>
    <trkpt lat="52.03298" lon="-0.76286">
        <ele>86.4</ele>
    </trkpt>
    <trkpt lat="52.03248" lon="-0.76405">
        <ele>86.8</ele>
    </trkpt>
    <trkpt lat="52.03236" lon="-0.76427">
        <ele>86.8</ele>
    </trkpt>
    <trkpt lat="52.03214" lon="-0.76477">
        <ele>88.1</ele>
    </trkpt>
    <trkpt lat="52.03205" lon="-0.76486">
        <ele>88.1</ele>
    </trkpt>
    <trkpt lat="52.03195" lon="-0.76491">
        <ele>87.7</ele>
    </trkpt>
    <trkpt lat="52.03173" lon="-0.76538">
        <ele>87.0</ele>
    </trkpt>
    <trkpt lat="52.03158" lon="-0.76572">
        <ele>87.2</ele>
    </trkpt>
    <trkpt lat="52.03163" lon="-0.76583">
        <ele>87.2</ele>
    </trkpt>
    <trkpt lat="52.03173" lon="-0.76612">
        <ele>87.4</ele>
    </trkpt>
    <trkpt lat="52.03179" lon="-0.76643">
        <ele>87.7</ele>
    </trkpt>
    <trkpt lat="52.03174" lon="-0.7666">
        <ele>86.1</ele>
    </trkpt>
    <trkpt lat="52.03164" lon="-0.76686">
        <ele>86.5</ele>
    </trkpt>
    <trkpt lat="52.03156" lon="-0.76703">
        <ele>87.2</ele>
    </trkpt>
    <trkpt lat="52.03178" lon="-0.76729">
        <ele>87.8</ele>
    </trkpt>
    <trkpt lat="52.03201" lon="-0.76753">
        <ele>87.8</ele>
    </trkpt>
    <trkpt lat="52.03207" lon="-0.76755">
        <ele>88.1</ele>
    </trkpt>
    <trkpt lat="52.03216" lon="-0.76733">
        <ele>89.1</ele>
    </trkpt>
    <trkpt lat="52.03229" lon="-0.76702">
        <ele>89.1</ele>
    </trkpt>
    <trkpt lat="52.03235" lon="-0.76696">
        <ele>89.0</ele>
    </trkpt>
    <trkpt lat="52.0324" lon="-0.76695">
        <ele>88.8</ele>
    </trkpt>
    <trkpt lat="52.03246" lon="-0.76699">
        <ele>88.7</ele>
    </trkpt>
    <trkpt lat="52.03375" lon="-0.76849">
        <ele>88.8</ele>
    </trkpt>
    <trkpt lat="52.03386" lon="-0.76858">
        <ele>89.3</ele>
    </trkpt>
    <trkpt lat="52.03406" lon="-0.76882">
        <ele>89.5</ele>
    </trkpt>
    <trkpt lat="52.03423" lon="-0.769">
        <ele>89.9</ele>
    </trkpt>
    <trkpt lat="52.03492" lon="-0.76977">
        <ele>89.5</ele>
    </trkpt>
    <trkpt lat="52.0354" lon="-0.77031">
        <ele>89.9</ele>
    </trkpt>
    <trkpt lat="52.0355" lon="-0.77042">
        <ele>89.6</ele>
    </trkpt>
    <trkpt lat="52.03518" lon="-0.77115">
        <ele>89.4</ele>
    </trkpt>
    <trkpt lat="52.03494" lon="-0.77167">
        <ele>88.8</ele>
    </trkpt>
    <trkpt lat="52.03481" lon="-0.77194">
        <ele>88.3</ele>
    </trkpt>
    <trkpt lat="52.0347" lon="-0.77219">
        <ele>87.5</ele>
    </trkpt>
    <trkpt lat="52.03499" lon="-0.77255">
        <ele>88.1</ele>
    </trkpt>
    <trkpt lat="52.03479" lon="-0.77305">
        <ele>87.9</ele>
    </trkpt>
    <trkpt lat="52.03454" lon="-0.77362">
        <ele>87.2</ele>
    </trkpt>
    <trkpt lat="52.03385" lon="-0.77284">
        <ele>87.1</ele>
    </trkpt>
    <trkpt lat="52.0337" lon="-0.77319">
        <ele>87.0</ele>
    </trkpt>
    <trkpt lat="52.03364" lon="-0.77331">
        <ele>86.9</ele>
    </trkpt>
    <trkpt lat="52.03363" lon="-0.77334">
        <ele>86.9</ele>
    </trkpt>
    <trkpt lat="52.0333" lon="-0.7741">
        <ele>82.1</ele>
    </trkpt>
    <trkpt lat="52.0332" lon="-0.77432">
        <ele>82.0</ele>
    </trkpt>
    <trkpt lat="52.03311" lon="-0.77453">
        <ele>82.2</ele>
    </trkpt>
    <trkpt lat="52.03307" lon="-0.77465">
        <ele>82.5</ele>
    </trkpt>
    <trkpt lat="52.03305" lon="-0.77469">
        <ele>82.6</ele>
    </trkpt>
    <trkpt lat="52.03303" lon="-0.77473">
        <ele>82.7</ele>
    </trkpt>
    <trkpt lat="52.03302" lon="-0.77477">
        <ele>82.8</ele>
    </trkpt>
    <trkpt lat="52.03299" lon="-0.77484">
        <ele>82.9</ele>
    </trkpt>
    <trkpt lat="52.03289" lon="-0.77506">
        <ele>83.0</ele>
    </trkpt>
    <trkpt lat="52.03287" lon="-0.77512">
        <ele>82.8</ele>
    </trkpt>
    <trkpt lat="52.03286" lon="-0.77518">
        <ele>82.5</ele>
    </trkpt>
    <trkpt lat="52.03286" lon="-0.77518">
        <ele>82.5</ele>
    </trkpt>
    <trkpt lat="52.03284" lon="-0.77515">
        <ele>82.3</ele>
    </trkpt>
    <trkpt lat="52.03233" lon="-0.7743">
        <ele>83.9</ele>
    </trkpt>
    <trkpt lat="52.03229" lon="-0.77423">
        <ele>83.9</ele>
    </trkpt>
    <trkpt lat="52.03233" lon="-0.7743">
        <ele>83.9</ele>
    </trkpt>
    <trkpt lat="52.03233" lon="-0.7743">
        <ele>83.9</ele>
    </trkpt>
    <trkpt lat="52.03223" lon="-0.77431">
        <ele>83.8</ele>
    </trkpt>
    <trkpt lat="52.03214" lon="-0.77441">
        <ele>83.9</ele>
    </trkpt>
    <trkpt lat="52.03178" lon="-0.77497">
        <ele>84.2</ele>
    </trkpt>
    <trkpt lat="52.03167" lon="-0.77509">
        <ele>83.8</ele>
    </trkpt>
    <trkpt lat="52.03149" lon="-0.77524">
        <ele>83.1</ele>
    </trkpt>
    <trkpt lat="52.03123" lon="-0.77539">
        <ele>82.1</ele>
    </trkpt>
    <trkpt lat="52.03123" lon="-0.77539">
        <ele>82.1</ele>
    </trkpt>
    <trkpt lat="52.03083" lon="-0.7756">
        <ele>78.5</ele>
    </trkpt>
    <trkpt lat="52.03058" lon="-0.77575">
        <ele>77.3</ele>
    </trkpt>
    <trkpt lat="52.03047" lon="-0.7758">
        <ele>77.8</ele>
    </trkpt>
    <trkpt lat="52.03045" lon="-0.77582">
        <ele>77.9</ele>
    </trkpt>
    <trkpt lat="52.03042" lon="-0.77585">
        <ele>77.9</ele>
    </trkpt>
    <trkpt lat="52.0304" lon="-0.77593">
        <ele>77.8</ele>
    </trkpt>
    <trkpt lat="52.03039" lon="-0.77594">
        <ele>77.8</ele>
    </trkpt>
    <trkpt lat="52.03039" lon="-0.77598">
        <ele>77.7</ele>
    </trkpt>
    <trkpt lat="52.03034" lon="-0.77621">
        <ele>76.8</ele>
    </trkpt>
    <trkpt lat="52.03031" lon="-0.77641">
        <ele>75.4</ele>
    </trkpt>
    <trkpt lat="52.03031" lon="-0.77666">
        <ele>75.4</ele>
    </trkpt>
    <trkpt lat="52.03032" lon="-0.77668">
        <ele>75.4</ele>
    </trkpt>
    <trkpt lat="52.03038" lon="-0.77724">
        <ele>75.1</ele>
    </trkpt>
    <trkpt lat="52.03047" lon="-0.77786">
        <ele>74.6</ele>
    </trkpt>
    <trkpt lat="52.03042" lon="-0.77825">
        <ele>74.8</ele>
    </trkpt>
    <trkpt lat="52.03036" lon="-0.77879">
        <ele>73.7</ele>
    </trkpt>
    <trkpt lat="52.03036" lon="-0.77922">
        <ele>73.6</ele>
    </trkpt>
    <trkpt lat="52.0304" lon="-0.77963">
        <ele>73.5</ele>
    </trkpt>
    <trkpt lat="52.03045" lon="-0.77983">
        <ele>73.4</ele>
    </trkpt>
    <trkpt lat="52.03052" lon="-0.78003">
        <ele>73.9</ele>
    </trkpt>
    <trkpt lat="52.03062" lon="-0.78025">
        <ele>74.5</ele>
    </trkpt>
    <trkpt lat="52.03079" lon="-0.78055">
        <ele>74.6</ele>
    </trkpt>
    <trkpt lat="52.03079" lon="-0.78055">
        <ele>74.6</ele>
    </trkpt>
    <trkpt lat="52.03063" lon="-0.78088">
        <ele>74.3</ele>
    </trkpt>
    <trkpt lat="52.03056" lon="-0.78107">
        <ele>73.3</ele>
    </trkpt>
    <trkpt lat="52.03055" lon="-0.78109">
        <ele>73.3</ele>
    </trkpt>
    <trkpt lat="52.03056" lon="-0.78129">
        <ele>73.7</ele>
    </trkpt>
    <trkpt lat="52.03057" lon="-0.78154">
        <ele>74.4</ele>
    </trkpt>
    <trkpt lat="52.03062" lon="-0.78182">
        <ele>74.2</ele>
    </trkpt>
    <trkpt lat="52.03067" lon="-0.78201">
        <ele>73.3</ele>
    </trkpt>
    <trkpt lat="52.03075" lon="-0.78221">
        <ele>73.8</ele>
    </trkpt>
    <trkpt lat="52.03086" lon="-0.7824">
        <ele>74.3</ele>
    </trkpt>
    <trkpt lat="52.03093" lon="-0.78262">
        <ele>74.7</ele>
    </trkpt>
    <trkpt lat="52.03098" lon="-0.78279">
        <ele>74.9</ele>
    </trkpt>
    <trkpt lat="52.03098" lon="-0.78293">
        <ele>74.5</ele>
    </trkpt>
    <trkpt lat="52.03097" lon="-0.78317">
        <ele>73.9</ele>
    </trkpt>
    <trkpt lat="52.03097" lon="-0.78317">
        <ele>73.9</ele>
    </trkpt>
    <trkpt lat="52.03107" lon="-0.78318">
        <ele>73.6</ele>
    </trkpt>
    <trkpt lat="52.03107" lon="-0.78318">
        <ele>73.6</ele>
    </trkpt>
    <trkpt lat="52.03108" lon="-0.78336">
        <ele>73.5</ele>
    </trkpt>
    <trkpt lat="52.0311" lon="-0.78353">
        <ele>73.5</ele>
    </trkpt>
    <trkpt lat="52.03114" lon="-0.78376">
        <ele>74.0</ele>
    </trkpt>
    <trkpt lat="52.03118" lon="-0.78394">
        <ele>74.7</ele>
    </trkpt>
    <trkpt lat="52.03125" lon="-0.78417">
        <ele>75.3</ele>
    </trkpt>
    <trkpt lat="52.03127" lon="-0.7842">
        <ele>75.3</ele>
    </trkpt>
    <trkpt lat="52.03136" lon="-0.78436">
        <ele>75.1</ele>
    </trkpt>
    <trkpt lat="52.03151" lon="-0.78461">
        <ele>73.8</ele>
    </trkpt>
    <trkpt lat="52.03167" lon="-0.7849">
        <ele>73.4</ele>
    </trkpt>
    <trkpt lat="52.03171" lon="-0.78498">
        <ele>73.4</ele>
    </trkpt>
    <trkpt lat="52.03173" lon="-0.78495">
        <ele>73.4</ele>
    </trkpt>
    <trkpt lat="52.03176" lon="-0.7849">
        <ele>73.2</ele>
    </trkpt>
    <trkpt lat="52.03182" lon="-0.78484">
        <ele>72.9</ele>
    </trkpt>
    <trkpt lat="52.03189" lon="-0.78471">
        <ele>72.5</ele>
    </trkpt>
    <trkpt lat="52.03192" lon="-0.78462">
        <ele>72.5</ele>
    </trkpt>
    <trkpt lat="52.032" lon="-0.7844">
        <ele>72.6</ele>
    </trkpt>
    <trkpt lat="52.03202" lon="-0.7844">
        <ele>72.6</ele>
    </trkpt>
    <trkpt lat="52.03206" lon="-0.7844">
        <ele>72.6</ele>
    </trkpt>
    <trkpt lat="52.03212" lon="-0.78443">
        <ele>72.7</ele>
    </trkpt>
    <trkpt lat="52.03221" lon="-0.78445">
        <ele>72.7</ele>
    </trkpt>
    <trkpt lat="52.03227" lon="-0.78448">
        <ele>72.8</ele>
    </trkpt>
    <trkpt lat="52.03232" lon="-0.7845">
        <ele>72.7</ele>
    </trkpt>
    <trkpt lat="52.03237" lon="-0.78453">
        <ele>72.6</ele>
    </trkpt>
    <trkpt lat="52.03242" lon="-0.78457">
        <ele>72.5</ele>
    </trkpt>
    <trkpt lat="52.0325" lon="-0.78463">
        <ele>72.4</ele>
    </trkpt>
    <trkpt lat="52.03256" lon="-0.78466">
        <ele>72.4</ele>
    </trkpt>
    <trkpt lat="52.0326" lon="-0.78466">
        <ele>72.4</ele>
    </trkpt>
    <trkpt lat="52.03264" lon="-0.78465">
        <ele>72.4</ele>
    </trkpt>
    <trkpt lat="52.03271" lon="-0.78464">
        <ele>72.6</ele>
    </trkpt>
    <trkpt lat="52.0328" lon="-0.78458">
        <ele>72.8</ele>
    </trkpt>
    <trkpt lat="52.03289" lon="-0.78456">
        <ele>72.7</ele>
    </trkpt>
    <trkpt lat="52.03296" lon="-0.78453">
        <ele>72.4</ele>
    </trkpt>
    <trkpt lat="52.03297" lon="-0.78453">
        <ele>72.3</ele>
    </trkpt>
    <trkpt lat="52.03298" lon="-0.78452">
        <ele>72.3</ele>
    </trkpt>
    <trkpt lat="52.033" lon="-0.7845">
        <ele>72.2</ele>
    </trkpt>
    <trkpt lat="52.03302" lon="-0.78448">
        <ele>72.1</ele>
    </trkpt>
    <trkpt lat="52.03305" lon="-0.78444">
        <ele>72.2</ele>
    </trkpt>
    <trkpt lat="52.03309" lon="-0.78442">
        <ele>72.3</ele>
    </trkpt>
    <trkpt lat="52.03312" lon="-0.7844">
        <ele>72.4</ele>
    </trkpt>
    <trkpt lat="52.03315" lon="-0.78439">
        <ele>72.5</ele>
    </trkpt>
    <trkpt lat="52.03321" lon="-0.78435">
        <ele>72.6</ele>
    </trkpt>
    <trkpt lat="52.03327" lon="-0.78431">
        <ele>72.6</ele>
    </trkpt>
    <trkpt lat="52.03332" lon="-0.78431">
        <ele>72.6</ele>
    </trkpt>
    <trkpt lat="52.03337" lon="-0.78431">
        <ele>72.6</ele>
    </trkpt>
    <trkpt lat="52.0334" lon="-0.78432">
        <ele>72.6</ele>
    </trkpt>
    <trkpt lat="52.03345" lon="-0.78435">
        <ele>72.7</ele>
    </trkpt>
    <trkpt lat="52.03349" lon="-0.78439">
        <ele>72.7</ele>
    </trkpt>
    <trkpt lat="52.0335" lon="-0.78443">
        <ele>72.8</ele>
    </trkpt>
    <trkpt lat="52.03353" lon="-0.78447">
        <ele>72.8</ele>
    </trkpt>
    <trkpt lat="52.03362" lon="-0.78453">
        <ele>73.2</ele>
    </trkpt>
    <trkpt lat="52.03366" lon="-0.78455">
        <ele>73.4</ele>
    </trkpt>
    <trkpt lat="52.03369" lon="-0.78453">
        <ele>73.5</ele>
    </trkpt>
    <trkpt lat="52.03371" lon="-0.78451">
        <ele>73.4</ele>
    </trkpt>
    <trkpt lat="52.03375" lon="-0.78447">
        <ele>73.1</ele>
    </trkpt>
    <trkpt lat="52.03388" lon="-0.78427">
        <ele>72.0</ele>
    </trkpt>
    <trkpt lat="52.03394" lon="-0.78417">
        <ele>71.8</ele>
    </trkpt>
    <trkpt lat="52.03398" lon="-0.7841">
        <ele>72.0</ele>
    </trkpt>
    <trkpt lat="52.03399" lon="-0.78407">
        <ele>72.2</ele>
    </trkpt>
    <trkpt lat="52.03401" lon="-0.78405">
        <ele>72.3</ele>
    </trkpt>
    <trkpt lat="52.03405" lon="-0.78403">
        <ele>72.6</ele>
    </trkpt>
    <trkpt lat="52.03407" lon="-0.78403">
        <ele>72.7</ele>
    </trkpt>
    <trkpt lat="52.03412" lon="-0.78403">
        <ele>73.1</ele>
    </trkpt>
    <trkpt lat="52.03417" lon="-0.78405">
        <ele>73.4</ele>
    </trkpt>
    <trkpt lat="52.03422" lon="-0.78411">
        <ele>73.7</ele>
    </trkpt>
    <trkpt lat="52.0344" lon="-0.7843">
        <ele>74.6</ele>
    </trkpt>
    <trkpt lat="52.03456" lon="-0.78449">
        <ele>73.9</ele>
    </trkpt>
    <trkpt lat="52.03456" lon="-0.7845">
        <ele>73.9</ele>
    </trkpt>
    <trkpt lat="52.03457" lon="-0.78451">
        <ele>73.8</ele>
    </trkpt>
    <trkpt lat="52.03457" lon="-0.78452">
        <ele>73.7</ele>
    </trkpt>
    <trkpt lat="52.03457" lon="-0.78454">
        <ele>73.6</ele>
    </trkpt>
    <trkpt lat="52.03456" lon="-0.78462">
        <ele>73.3</ele>
    </trkpt>
    <trkpt lat="52.03456" lon="-0.78467">
        <ele>73.2</ele>
    </trkpt>
    <trkpt lat="52.03456" lon="-0.7847">
        <ele>73.1</ele>
    </trkpt>
    <trkpt lat="52.03456" lon="-0.78472">
        <ele>73.1</ele>
    </trkpt>
    <trkpt lat="52.03457" lon="-0.78474">
        <ele>73.1</ele>
    </trkpt>
    <trkpt lat="52.03459" lon="-0.78478">
        <ele>73.0</ele>
    </trkpt>
    <trkpt lat="52.03465" lon="-0.78485">
        <ele>72.7</ele>
    </trkpt>
    <trkpt lat="52.03469" lon="-0.78489">
        <ele>72.3</ele>
    </trkpt>
    <trkpt lat="52.03473" lon="-0.78491">
        <ele>71.9</ele>
    </trkpt>
    <trkpt lat="52.03477" lon="-0.78493">
        <ele>71.5</ele>
    </trkpt>
    <trkpt lat="52.03477" lon="-0.78493">
        <ele>71.5</ele>
    </trkpt>
    <trkpt lat="52.03481" lon="-0.7849">
        <ele>71.2</ele>
    </trkpt>
    <trkpt lat="52.03483" lon="-0.78489">
        <ele>71.2</ele>
    </trkpt>
    <trkpt lat="52.03487" lon="-0.78489">
        <ele>71.2</ele>
    </trkpt>
    <trkpt lat="52.03491" lon="-0.78489">
        <ele>71.2</ele>
    </trkpt>
    <trkpt lat="52.03492" lon="-0.78489">
        <ele>71.2</ele>
    </trkpt>
    <trkpt lat="52.03494" lon="-0.7849">
        <ele>71.2</ele>
    </trkpt>
    <trkpt lat="52.03496" lon="-0.78492">
        <ele>71.1</ele>
    </trkpt>
    <trkpt lat="52.03498" lon="-0.78494">
        <ele>71.1</ele>
    </trkpt>
    <trkpt lat="52.03503" lon="-0.785">
        <ele>71.0</ele>
    </trkpt>
    <trkpt lat="52.03507" lon="-0.78509">
        <ele>71.0</ele>
    </trkpt>
    <trkpt lat="52.03511" lon="-0.78516">
        <ele>70.9</ele>
    </trkpt>
    <trkpt lat="52.03513" lon="-0.7852">
        <ele>70.8</ele>
    </trkpt>
    <trkpt lat="52.03515" lon="-0.78523">
        <ele>70.7</ele>
    </trkpt>
    <trkpt lat="52.03521" lon="-0.78525">
        <ele>70.5</ele>
    </trkpt>
    <trkpt lat="52.03525" lon="-0.78528">
        <ele>70.4</ele>
    </trkpt>
    <trkpt lat="52.0353" lon="-0.78531">
        <ele>70.4</ele>
    </trkpt>
    <trkpt lat="52.03535" lon="-0.78534">
        <ele>70.5</ele>
    </trkpt>
    <trkpt lat="52.03538" lon="-0.78537">
        <ele>70.6</ele>
    </trkpt>
    <trkpt lat="52.03542" lon="-0.78541">
        <ele>70.7</ele>
    </trkpt>
    <trkpt lat="52.03547" lon="-0.78547">
        <ele>70.8</ele>
    </trkpt>
    <trkpt lat="52.03551" lon="-0.78555">
        <ele>70.9</ele>
    </trkpt>
    <trkpt lat="52.03553" lon="-0.78557">
        <ele>71.0</ele>
    </trkpt>
    <trkpt lat="52.03553" lon="-0.78557">
        <ele>71.0</ele>
    </trkpt>
    <trkpt lat="52.03554" lon="-0.78558">
        <ele>71.0</ele>
    </trkpt>
    <trkpt lat="52.03556" lon="-0.78561">
        <ele>71.1</ele>
    </trkpt>
    <trkpt lat="52.03558" lon="-0.78565">
        <ele>71.2</ele>
    </trkpt>
    <trkpt lat="52.0356" lon="-0.78568">
        <ele>71.4</ele>
    </trkpt>
    <trkpt lat="52.03563" lon="-0.7857">
        <ele>71.7</ele>
    </trkpt>
    <trkpt lat="52.03563" lon="-0.78571">
        <ele>71.7</ele>
    </trkpt>
    <trkpt lat="52.03564" lon="-0.78571">
        <ele>71.8</ele>
    </trkpt>
    <trkpt lat="52.03565" lon="-0.7857">
        <ele>71.9</ele>
    </trkpt>
    <trkpt lat="52.03566" lon="-0.7857">
        <ele>72.0</ele>
    </trkpt>
    <trkpt lat="52.03567" lon="-0.78566">
        <ele>72.2</ele>
    </trkpt>
    <trkpt lat="52.03571" lon="-0.78571">
        <ele>72.7</ele>
    </trkpt>
    <trkpt lat="52.03578" lon="-0.78578">
        <ele>72.8</ele>
    </trkpt>
    <trkpt lat="52.03584" lon="-0.78591">
        <ele>72.9</ele>
    </trkpt>
    <trkpt lat="52.03588" lon="-0.786">
        <ele>72.9</ele>
    </trkpt>
    <trkpt lat="52.03589" lon="-0.78607">
        <ele>73.0</ele>
    </trkpt>
    <trkpt lat="52.03592" lon="-0.78612">
        <ele>73.0</ele>
    </trkpt>
    <trkpt lat="52.03597" lon="-0.78621">
        <ele>72.7</ele>
    </trkpt>
    <trkpt lat="52.03599" lon="-0.78625">
        <ele>72.5</ele>
    </trkpt>
    <trkpt lat="52.03599" lon="-0.78629">
        <ele>72.4</ele>
    </trkpt>
    <trkpt lat="52.03599" lon="-0.78633">
        <ele>72.2</ele>
    </trkpt>
    <trkpt lat="52.03598" lon="-0.78638">
        <ele>72.0</ele>
    </trkpt>
    <trkpt lat="52.03592" lon="-0.78651">
        <ele>71.8</ele>
    </trkpt>
    <trkpt lat="52.03584" lon="-0.78666">
        <ele>71.6</ele>
    </trkpt>
    <trkpt lat="52.03566" lon="-0.78695">
        <ele>71.3</ele>
    </trkpt>
    <trkpt lat="52.03566" lon="-0.78696">
        <ele>71.3</ele>
    </trkpt>
    <trkpt lat="52.03566" lon="-0.78696">
        <ele>71.3</ele>
    </trkpt>
    <trkpt lat="52.03566" lon="-0.78697">
        <ele>71.3</ele>
    </trkpt>
    <trkpt lat="52.03566" lon="-0.78698">
        <ele>71.3</ele>
    </trkpt>
    <trkpt lat="52.03568" lon="-0.78702">
        <ele>71.3</ele>
    </trkpt>
    <trkpt lat="52.03572" lon="-0.78709">
        <ele>71.4</ele>
    </trkpt>
    <trkpt lat="52.03577" lon="-0.78717">
        <ele>71.4</ele>
    </trkpt>
    <trkpt lat="52.03585" lon="-0.7873">
        <ele>71.4</ele>
    </trkpt>
    <trkpt lat="52.03615" lon="-0.78768">
        <ele>70.7</ele>
    </trkpt>
    <trkpt lat="52.03633" lon="-0.78782">
        <ele>71.0</ele>
    </trkpt>
    <trkpt lat="52.03639" lon="-0.78781">
        <ele>71.0</ele>
    </trkpt>
    <trkpt lat="52.03642" lon="-0.78779">
        <ele>71.1</ele>
    </trkpt>
    <trkpt lat="52.03643" lon="-0.78777">
        <ele>71.1</ele>
    </trkpt>
    <trkpt lat="52.03643" lon="-0.78774">
        <ele>71.1</ele>
    </trkpt>
    <trkpt lat="52.03644" lon="-0.78769">
        <ele>71.2</ele>
    </trkpt>
    <trkpt lat="52.03644" lon="-0.78758">
        <ele>71.5</ele>
    </trkpt>
    <trkpt lat="52.03645" lon="-0.78752">
        <ele>71.8</ele>
    </trkpt>
    <trkpt lat="52.03647" lon="-0.78747">
        <ele>72.1</ele>
    </trkpt>
    <trkpt lat="52.03657" lon="-0.78732">
        <ele>71.8</ele>
    </trkpt>
    <trkpt lat="52.03662" lon="-0.78725">
        <ele>71.5</ele>
    </trkpt>
    <trkpt lat="52.0367" lon="-0.78719">
        <ele>71.5</ele>
    </trkpt>
    <trkpt lat="52.0367" lon="-0.78719">
        <ele>71.5</ele>
    </trkpt>
    <trkpt lat="52.03679" lon="-0.78722">
        <ele>71.6</ele>
    </trkpt>
    <trkpt lat="52.03686" lon="-0.78727">
        <ele>71.8</ele>
    </trkpt>
    <trkpt lat="52.03691" lon="-0.78731">
        <ele>72.0</ele>
    </trkpt>
    <trkpt lat="52.03698" lon="-0.78738">
        <ele>72.3</ele>
    </trkpt>
    <trkpt lat="52.03708" lon="-0.78747">
        <ele>72.7</ele>
    </trkpt>
    <trkpt lat="52.03712" lon="-0.78752">
        <ele>72.9</ele>
    </trkpt>
    <trkpt lat="52.03715" lon="-0.78756">
        <ele>73.0</ele>
    </trkpt>
    <trkpt lat="52.03727" lon="-0.7877">
        <ele>73.4</ele>
    </trkpt>
    <trkpt lat="52.03735" lon="-0.78786">
        <ele>73.6</ele>
    </trkpt>
    <trkpt lat="52.03739" lon="-0.78792">
        <ele>73.6</ele>
    </trkpt>
    <trkpt lat="52.03743" lon="-0.78798">
        <ele>73.7</ele>
    </trkpt>
    <trkpt lat="52.0375" lon="-0.78802">
        <ele>73.5</ele>
    </trkpt>
    <trkpt lat="52.03756" lon="-0.78803">
        <ele>73.3</ele>
    </trkpt>
    <trkpt lat="52.03762" lon="-0.78802">
        <ele>73.1</ele>
    </trkpt>
    <trkpt lat="52.03768" lon="-0.788">
        <ele>72.9</ele>
    </trkpt>
    <trkpt lat="52.03777" lon="-0.78796">
        <ele>72.5</ele>
    </trkpt>
    <trkpt lat="52.03784" lon="-0.78792">
        <ele>72.3</ele>
    </trkpt>
    <trkpt lat="52.0379" lon="-0.78788">
        <ele>72.2</ele>
    </trkpt>
    <trkpt lat="52.03791" lon="-0.78788">
        <ele>72.2</ele>
    </trkpt>
    <trkpt lat="52.03807" lon="-0.78773">
        <ele>72.0</ele>
    </trkpt>
    <trkpt lat="52.0381" lon="-0.7877">
        <ele>72.1</ele>
    </trkpt>
    <trkpt lat="52.03814" lon="-0.78767">
        <ele>72.1</ele>
    </trkpt>
    <trkpt lat="52.03824" lon="-0.78769">
        <ele>72.0</ele>
    </trkpt>
    <trkpt lat="52.03832" lon="-0.78768">
        <ele>71.9</ele>
    </trkpt>
    <trkpt lat="52.03836" lon="-0.78767">
        <ele>71.9</ele>
    </trkpt>
    <trkpt lat="52.03842" lon="-0.78761">
        <ele>71.8</ele>
    </trkpt>
    <trkpt lat="52.03847" lon="-0.78753">
        <ele>71.8</ele>
    </trkpt>
    <trkpt lat="52.03849" lon="-0.78746">
        <ele>71.8</ele>
    </trkpt>
    <trkpt lat="52.0385" lon="-0.78741">
        <ele>71.9</ele>
    </trkpt>
    <trkpt lat="52.03854" lon="-0.78738">
        <ele>72.0</ele>
    </trkpt>
    <trkpt lat="52.03856" lon="-0.78736">
        <ele>72.1</ele>
    </trkpt>
    <trkpt lat="52.03859" lon="-0.78736">
        <ele>72.2</ele>
    </trkpt>
    <trkpt lat="52.03862" lon="-0.78736">
        <ele>72.3</ele>
    </trkpt>
    <trkpt lat="52.03863" lon="-0.78737">
        <ele>72.3</ele>
    </trkpt>
    <trkpt lat="52.03872" lon="-0.78733">
        <ele>72.8</ele>
    </trkpt>
    <trkpt lat="52.03877" lon="-0.78727">
        <ele>73.1</ele>
    </trkpt>
    <trkpt lat="52.03877" lon="-0.78727">
        <ele>73.1</ele>
    </trkpt>
    <trkpt lat="52.0388" lon="-0.78739">
        <ele>73.5</ele>
    </trkpt>
    <trkpt lat="52.03888" lon="-0.78768">
        <ele>74.0</ele>
    </trkpt>
    <trkpt lat="52.03897" lon="-0.78793">
        <ele>73.7</ele>
    </trkpt>
    <trkpt lat="52.03906" lon="-0.78811">
        <ele>73.0</ele>
    </trkpt>
    <trkpt lat="52.03912" lon="-0.78824">
        <ele>72.6</ele>
    </trkpt>
    <trkpt lat="52.03918" lon="-0.78838">
        <ele>72.4</ele>
    </trkpt>
    <trkpt lat="52.03923" lon="-0.78852">
        <ele>72.5</ele>
    </trkpt>
    <trkpt lat="52.03928" lon="-0.7887">
        <ele>72.9</ele>
    </trkpt>
    <trkpt lat="52.0393" lon="-0.78884">
        <ele>73.4</ele>
    </trkpt>
    <trkpt lat="52.03931" lon="-0.78887">
        <ele>73.5</ele>
    </trkpt>
    <trkpt lat="52.03932" lon="-0.789">
        <ele>72.9</ele>
    </trkpt>
    <trkpt lat="52.03934" lon="-0.78914">
        <ele>71.9</ele>
    </trkpt>
    <trkpt lat="52.03933" lon="-0.78937">
        <ele>71.1</ele>
    </trkpt>
    <trkpt lat="52.03931" lon="-0.78959">
        <ele>70.7</ele>
    </trkpt>
    <trkpt lat="52.03929" lon="-0.78973">
        <ele>70.5</ele>
    </trkpt>
    <trkpt lat="52.03925" lon="-0.78989">
        <ele>70.3</ele>
    </trkpt>
    <trkpt lat="52.03935" lon="-0.78999">
        <ele>70.1</ele>
    </trkpt>
    <trkpt lat="52.03956" lon="-0.79011">
        <ele>70.4</ele>
    </trkpt>
    <trkpt lat="52.03969" lon="-0.79015">
        <ele>73.1</ele>
    </trkpt>
    <trkpt lat="52.03978" lon="-0.79018">
        <ele>74.5</ele>
    </trkpt>
    <trkpt lat="52.03981" lon="-0.79018">
        <ele>74.4</ele>
    </trkpt>
    <trkpt lat="52.03982" lon="-0.79019">
        <ele>74.3</ele>
    </trkpt>
    <trkpt lat="52.03982" lon="-0.7902">
        <ele>74.3</ele>
    </trkpt>
    <trkpt lat="52.03983" lon="-0.7902">
        <ele>74.3</ele>
    </trkpt>
    <trkpt lat="52.03983" lon="-0.79021">
        <ele>74.2</ele>
    </trkpt>
    <trkpt lat="52.03983" lon="-0.79022">
        <ele>74.2</ele>
    </trkpt>
    <trkpt lat="52.03983" lon="-0.79023">
        <ele>74.2</ele>
    </trkpt>
    <trkpt lat="52.03982" lon="-0.79031">
        <ele>74.0</ele>
    </trkpt>
    <trkpt lat="52.03982" lon="-0.79034">
        <ele>73.9</ele>
    </trkpt>
    <trkpt lat="52.03982" lon="-0.79039">
        <ele>73.6</ele>
    </trkpt>
    <trkpt lat="52.03984" lon="-0.79042">
        <ele>73.2</ele>
    </trkpt>
    <trkpt lat="52.03984" lon="-0.79042">
        <ele>73.2</ele>
    </trkpt>
    <trkpt lat="52.03986" lon="-0.79042">
        <ele>72.9</ele>
    </trkpt>
    <trkpt lat="52.03998" lon="-0.79044">
        <ele>71.6</ele>
    </trkpt>
    <trkpt lat="52.04021" lon="-0.79053">
        <ele>71.5</ele>
    </trkpt>
    <trkpt lat="52.04067" lon="-0.79061">
        <ele>71.6</ele>
    </trkpt>
    <trkpt lat="52.04086" lon="-0.79061">
        <ele>72.1</ele>
    </trkpt>
    <trkpt lat="52.0409" lon="-0.79061">
        <ele>72.2</ele>
    </trkpt>
    <trkpt lat="52.04112" lon="-0.79061">
        <ele>73.8</ele>
    </trkpt>
    <trkpt lat="52.04156" lon="-0.79065">
        <ele>72.4</ele>
    </trkpt>
    <trkpt lat="52.04179" lon="-0.79066">
        <ele>73.0</ele>
    </trkpt>
    <trkpt lat="52.0421" lon="-0.79067">
        <ele>71.4</ele>
    </trkpt>
    <trkpt lat="52.04224" lon="-0.79066">
        <ele>72.5</ele>
    </trkpt>
    <trkpt lat="52.04233" lon="-0.79065">
        <ele>72.8</ele>
    </trkpt>
    <trkpt lat="52.04236" lon="-0.79062">
        <ele>72.9</ele>
    </trkpt>
    <trkpt lat="52.04245" lon="-0.79054">
        <ele>73.0</ele>
    </trkpt>
    <trkpt lat="52.04256" lon="-0.79046">
        <ele>72.4</ele>
    </trkpt>
    <trkpt lat="52.04263" lon="-0.79036">
        <ele>71.9</ele>
    </trkpt>
    <trkpt lat="52.04271" lon="-0.79025">
        <ele>71.1</ele>
    </trkpt>
    <trkpt lat="52.0428" lon="-0.79013">
        <ele>70.6</ele>
    </trkpt>
    <trkpt lat="52.04285" lon="-0.7901">
        <ele>70.7</ele>
    </trkpt>
    <trkpt lat="52.04289" lon="-0.7901">
        <ele>70.7</ele>
    </trkpt>
    <trkpt lat="52.04296" lon="-0.79011">
        <ele>70.8</ele>
    </trkpt>
    <trkpt lat="52.04302" lon="-0.79013">
        <ele>70.6</ele>
    </trkpt>
    <trkpt lat="52.04323" lon="-0.79027">
        <ele>69.5</ele>
    </trkpt>
    <trkpt lat="52.04332" lon="-0.79033">
        <ele>69.0</ele>
    </trkpt>
    <trkpt lat="52.04339" lon="-0.79034">
        <ele>70.1</ele>
    </trkpt>
    <trkpt lat="52.04348" lon="-0.79034">
        <ele>71.6</ele>
    </trkpt>
    <trkpt lat="52.04356" lon="-0.79034">
        <ele>72.2</ele>
    </trkpt>
    <trkpt lat="52.04361" lon="-0.79036">
        <ele>72.4</ele>
    </trkpt>
    <trkpt lat="52.04366" lon="-0.79039">
        <ele>72.6</ele>
    </trkpt>
    <trkpt lat="52.04375" lon="-0.79047">
        <ele>72.0</ele>
    </trkpt>
    <trkpt lat="52.04386" lon="-0.79062">
        <ele>70.3</ele>
    </trkpt>
    <trkpt lat="52.04395" lon="-0.79072">
        <ele>68.6</ele>
    </trkpt>
    <trkpt lat="52.04409" lon="-0.79087">
        <ele>67.2</ele>
    </trkpt>
    <trkpt lat="52.04419" lon="-0.79095">
        <ele>66.9</ele>
    </trkpt>
    <trkpt lat="52.04426" lon="-0.79098">
        <ele>66.8</ele>
    </trkpt>
    <trkpt lat="52.04431" lon="-0.791">
        <ele>66.8</ele>
    </trkpt>
    <trkpt lat="52.04438" lon="-0.79101">
        <ele>66.8</ele>
    </trkpt>
    <trkpt lat="52.0445" lon="-0.791">
        <ele>67.0</ele>
    </trkpt>
    <trkpt lat="52.0446" lon="-0.79101">
        <ele>67.2</ele>
    </trkpt>
    <trkpt lat="52.04475" lon="-0.79103">
        <ele>67.6</ele>
    </trkpt>
    <trkpt lat="52.04497" lon="-0.79107">
        <ele>68.5</ele>
    </trkpt>
    <trkpt lat="52.04511" lon="-0.79107">
        <ele>68.2</ele>
    </trkpt>
    <trkpt lat="52.04521" lon="-0.79109">
        <ele>68.6</ele>
    </trkpt>
    <trkpt lat="52.04529" lon="-0.79111">
        <ele>69.1</ele>
    </trkpt>
    <trkpt lat="52.04535" lon="-0.79116">
        <ele>69.4</ele>
    </trkpt>
    <trkpt lat="52.0454" lon="-0.79123">
        <ele>69.2</ele>
    </trkpt>
    <trkpt lat="52.04542" lon="-0.7913">
        <ele>69.0</ele>
    </trkpt>
    <trkpt lat="52.04544" lon="-0.79137">
        <ele>68.9</ele>
    </trkpt>
    <trkpt lat="52.04545" lon="-0.79144">
        <ele>68.9</ele>
    </trkpt>
    <trkpt lat="52.04546" lon="-0.79151">
        <ele>69.0</ele>
    </trkpt>
    <trkpt lat="52.04548" lon="-0.79156">
        <ele>69.0</ele>
    </trkpt>
    <trkpt lat="52.0455" lon="-0.79159">
        <ele>69.1</ele>
    </trkpt>
    <trkpt lat="52.04553" lon="-0.79162">
        <ele>69.1</ele>
    </trkpt>
    <trkpt lat="52.04557" lon="-0.79163">
        <ele>69.2</ele>
    </trkpt>
    <trkpt lat="52.04561" lon="-0.79165">
        <ele>69.2</ele>
    </trkpt>
    <trkpt lat="52.04566" lon="-0.79166">
        <ele>69.3</ele>
    </trkpt>
    <trkpt lat="52.04572" lon="-0.79168">
        <ele>69.3</ele>
    </trkpt>
    <trkpt lat="52.04578" lon="-0.79174">
        <ele>69.1</ele>
    </trkpt>
    <trkpt lat="52.04586" lon="-0.79181">
        <ele>68.8</ele>
    </trkpt>
    <trkpt lat="52.04595" lon="-0.79186">
        <ele>68.8</ele>
    </trkpt>
    <trkpt lat="52.0462" lon="-0.79198">
        <ele>68.9</ele>
    </trkpt>
    <trkpt lat="52.04643" lon="-0.79208">
        <ele>69.1</ele>
    </trkpt>
    <trkpt lat="52.04647" lon="-0.7921">
        <ele>69.1</ele>
    </trkpt>
    <trkpt lat="52.04651" lon="-0.79215">
        <ele>69.2</ele>
    </trkpt>
    <trkpt lat="52.04655" lon="-0.7922">
        <ele>69.2</ele>
    </trkpt>
    <trkpt lat="52.04657" lon="-0.79225">
        <ele>69.3</ele>
    </trkpt>
    <trkpt lat="52.04658" lon="-0.7923">
        <ele>69.3</ele>
    </trkpt>
    <trkpt lat="52.04658" lon="-0.79234">
        <ele>69.4</ele>
    </trkpt>
    <trkpt lat="52.04659" lon="-0.7924">
        <ele>69.4</ele>
    </trkpt>
    <trkpt lat="52.0466" lon="-0.79246">
        <ele>69.4</ele>
    </trkpt>
    <trkpt lat="52.04661" lon="-0.7925">
        <ele>69.5</ele>
    </trkpt>
    <trkpt lat="52.04662" lon="-0.79253">
        <ele>69.5</ele>
    </trkpt>
    <trkpt lat="52.04664" lon="-0.79257">
        <ele>69.5</ele>
    </trkpt>
    <trkpt lat="52.04667" lon="-0.79259">
        <ele>69.5</ele>
    </trkpt>
    <trkpt lat="52.04673" lon="-0.79261">
        <ele>69.4</ele>
    </trkpt>
    <trkpt lat="52.04677" lon="-0.79262">
        <ele>69.4</ele>
    </trkpt>
    <trkpt lat="52.0468" lon="-0.79263">
        <ele>69.4</ele>
    </trkpt>
    <trkpt lat="52.04681" lon="-0.79264">
        <ele>69.3</ele>
    </trkpt>
    <trkpt lat="52.04683" lon="-0.79265">
        <ele>69.3</ele>
    </trkpt>
  </trkseg>
</trk>
</gpx>
