<?xml version="1.0"?>
<gpx version="1.1" creator="GDAL 2.2.3" xmlns:xsi="http://www.w3.org/2001/XMLSchema-instance" xmlns="http://www.topografix.com/GPX/1/1" xsi:schemaLocation="http://www.topografix.com/GPX/1/1 http://www.topografix.com/GPX/1/1/gpx.xsd">
<metadata><bounds minlat="52.045919995808717" minlon="-0.770979987485224" maxlat="52.069139995827470" maxlon="-0.747329987482443"/></metadata>                  
<rte>
  <rtept lat="52.06913999582747" lon="-0.770479987481513">
    <ele>77.0</ele>
  </rtept>
  <rtept lat="52.069129995827453" lon="-0.770539987481549">
    <ele>76.8</ele>
  </rtept>
  <rtept lat="52.069129995827453" lon="-0.770539987481549">
    <ele>76.8</ele>
  </rtept>
  <rtept lat="52.068929995827311" lon="-0.770389987481581">
    <ele>78.0</ele>
  </rtept>
  <rtept lat="52.068899995827266" lon="-0.770359987481583">
    <ele>78.4</ele>
  </rtept>
  <rtept lat="52.068869995827228" lon="-0.770339987481588">
    <ele>78.7</ele>
  </rtept>
  <rtept lat="52.068779995827192" lon="-0.770289987481613">
    <ele>79.4</ele>
  </rtept>
  <rtept lat="52.068779995827192" lon="-0.770289987481613">
    <ele>79.4</ele>
  </rtept>
  <rtept lat="52.068749995827154" lon="-0.770279987481623">
    <ele>79.4</ele>
  </rtept>
  <rtept lat="52.068689995827107" lon="-0.770279987481656">
    <ele>78.9</ele>
  </rtept>
  <rtept lat="52.068619995827056" lon="-0.770299987481703">
    <ele>77.8</ele>
  </rtept>
  <rtept lat="52.068549995826992" lon="-0.770339987481762">
    <ele>77.5</ele>
  </rtept>
  <rtept lat="52.068509995826972" lon="-0.770359987481794">
    <ele>77.9</ele>
  </rtept>
  <rtept lat="52.068409995826883" lon="-0.770419987481878">
    <ele>78.8</ele>
  </rtept>
  <rtept lat="52.068239995826751" lon="-0.770489987482005">
    <ele>78.6</ele>
  </rtept>
  <rtept lat="52.068189995826707" lon="-0.770509987482043">
    <ele>78.5</ele>
  </rtept>
  <rtept lat="52.068149995826694" lon="-0.770509987482064">
    <ele>78.4</ele>
  </rtept>
  <rtept lat="52.068119995826642" lon="-0.770489987482071">
    <ele>78.2</ele>
  </rtept>
  <rtept lat="52.068099995826643" lon="-0.770469987482071">
    <ele>78.0</ele>
  </rtept>
  <rtept lat="52.067159995825882" lon="-0.769529987482106">
    <ele>78.2</ele>
  </rtept>
  <rtept lat="52.067059995825787" lon="-0.769449987482119">
    <ele>78.7</ele>
  </rtept>
  <rtept lat="52.067019995825753" lon="-0.769439987482136">
    <ele>78.9</ele>
  </rtept>
  <rtept lat="52.066939995825706" lon="-0.769399987482159">
    <ele>79.2</ele>
  </rtept>
  <rtept lat="52.06634999582522" lon="-0.769099987482327">
    <ele>79.3</ele>
  </rtept>
  <rtept lat="52.066169995825078" lon="-0.769099987482424">
    <ele>81.4</ele>
  </rtept>
  <rtept lat="52.065859995824823" lon="-0.769129987482608">
    <ele>81.5</ele>
  </rtept>
  <rtept lat="52.065609995824637" lon="-0.769149987482753">
    <ele>81.7</ele>
  </rtept>
  <rtept lat="52.065539995824572" lon="-0.769179987482806">
    <ele>81.7</ele>
  </rtept>
  <rtept lat="52.065519995824552" lon="-0.769189987482822">
    <ele>81.7</ele>
  </rtept>
  <rtept lat="52.065429995824481" lon="-0.769299987482926">
    <ele>82.4</ele>
  </rtept>
  <rtept lat="52.065379995824451" lon="-0.769359987482983">
    <ele>82.5</ele>
  </rtept>
  <rtept lat="52.064729995823924" lon="-0.770119987483719">
    <ele>84.0</ele>
  </rtept>
  <rtept lat="52.064629995823843" lon="-0.770229987483828">
    <ele>84.6</ele>
  </rtept>
  <rtept lat="52.06457999582382" lon="-0.77025998748387">
    <ele>85.0</ele>
  </rtept>
  <rtept lat="52.06416999582347" lon="-0.770449987484188">
    <ele>86.4</ele>
  </rtept>
  <rtept lat="52.063479995822945" lon="-0.770819987484748">
    <ele>87.2</ele>
  </rtept>
  <rtept lat="52.063159995822694" lon="-0.770939987484982">
    <ele>86.6</ele>
  </rtept>
  <rtept lat="52.063089995822637" lon="-0.77093998748502">
    <ele>86.2</ele>
  </rtept>
  <rtept lat="52.062959995822503" lon="-0.770969987485106">
    <ele>86.2</ele>
  </rtept>
  <rtept lat="52.062849995822432" lon="-0.770979987485171">
    <ele>86.2</ele>
  </rtept>
  <rtept lat="52.062749995822351" lon="-0.770979987485224">
    <ele>86.3</ele>
  </rtept>
  <rtept lat="52.06265999582228" lon="-0.770969987485268">
    <ele>86.5</ele>
  </rtept>
  <rtept lat="52.062619995822246" lon="-0.770959987485285">
    <ele>86.4</ele>
  </rtept>
  <rtept lat="52.062599995822247" lon="-0.770959987485295">
    <ele>86.4</ele>
  </rtept>
  <rtept lat="52.062299995822002" lon="-0.770929987485443">
    <ele>86.6</ele>
  </rtept>
  <rtept lat="52.062149995821898" lon="-0.770879987485498">
    <ele>86.6</ele>
  </rtept>
  <rtept lat="52.061309995821198" lon="-0.770379987485701">
    <ele>88.1</ele>
  </rtept>
  <rtept lat="52.0600699958202" lon="-0.769539987485949">
    <ele>91.2</ele>
  </rtept>
  <rtept lat="52.059919995820074" lon="-0.769409987485965">
    <ele>91.6</ele>
  </rtept>
  <rtept lat="52.059759995819945" lon="-0.769309987486002">
    <ele>92.2</ele>
  </rtept>
  <rtept lat="52.059539995819762" lon="-0.769239987486085">
    <ele>93.1</ele>
  </rtept>
  <rtept lat="52.059429995819677" lon="-0.769219987486135">
    <ele>93.3</ele>
  </rtept>
  <rtept lat="52.059329995819603" lon="-0.769179987486168">
    <ele>93.5</ele>
  </rtept>
  <rtept lat="52.059179995819477" lon="-0.769069987486194">
    <ele>94.8</ele>
  </rtept>
  <rtept lat="52.059159995819456" lon="-0.769049987486195">
    <ele>95.1</ele>
  </rtept>
  <rtept lat="52.058999995819335" lon="-0.768929987486221">
    <ele>95.3</ele>
  </rtept>
  <rtept lat="52.058989995819331" lon="-0.768919987486221">
    <ele>95.3</ele>
  </rtept>
  <rtept lat="52.058909995819263" lon="-0.768859987486235">
    <ele>95.2</ele>
  </rtept>
  <rtept lat="52.058829995819202" lon="-0.768809987486252">
    <ele>94.8</ele>
  </rtept>
  <rtept lat="52.058739995819124" lon="-0.768729987486261">
    <ele>94.7</ele>
  </rtept>
  <rtept lat="52.0587299958191" lon="-0.768709987486257">
    <ele>94.8</ele>
  </rtept>
  <rtept lat="52.058699995819083" lon="-0.768669987486253">
    <ele>94.8</ele>
  </rtept>
  <rtept lat="52.058669995819074" lon="-0.768609987486239">
    <ele>94.7</ele>
  </rtept>
  <rtept lat="52.058639995819043" lon="-0.768529987486214">
    <ele>94.7</ele>
  </rtept>
  <rtept lat="52.058639995819028" lon="-0.768429987486163">
    <ele>94.9</ele>
  </rtept>
  <rtept lat="52.058639995819043" lon="-0.768329987486113">
    <ele>95.3</ele>
  </rtept>
  <rtept lat="52.058679995819077" lon="-0.768179987486016">
    <ele>95.8</ele>
  </rtept>
  <rtept lat="52.058679995819077" lon="-0.768179987486016">
    <ele>95.8</ele>
  </rtept>
  <rtept lat="52.058669995819066" lon="-0.768169987486017">
    <ele>95.9</ele>
  </rtept>
  <rtept lat="52.058549995818979" lon="-0.768089987486042">
    <ele>96.1</ele>
  </rtept>
  <rtept lat="52.058479995818921" lon="-0.768049987486059">
    <ele>96.2</ele>
  </rtept>
  <rtept lat="52.058409995818863" lon="-0.768019987486082">
    <ele>96.0</ele>
  </rtept>
  <rtept lat="52.058349995818801" lon="-0.767999987486104">
    <ele>95.9</ele>
  </rtept>
  <rtept lat="52.058339995818812" lon="-0.76799998748611">
    <ele>95.9</ele>
  </rtept>
  <rtept lat="52.058279995818751" lon="-0.767979987486132">
    <ele>95.8</ele>
  </rtept>
  <rtept lat="52.058229995818714" lon="-0.767959987486149">
    <ele>95.8</ele>
  </rtept>
  <rtept lat="52.058169995818659" lon="-0.767949987486177">
    <ele>95.9</ele>
  </rtept>
  <rtept lat="52.058119995818629" lon="-0.767949987486204">
    <ele>95.9</ele>
  </rtept>
  <rtept lat="52.05801999581854" lon="-0.767939987486252">
    <ele>96.5</ele>
  </rtept>
  <rtept lat="52.057919995818459" lon="-0.767949987486312">
    <ele>97.4</ele>
  </rtept>
  <rtept lat="52.057829995818395" lon="-0.767969987486371">
    <ele>97.6</ele>
  </rtept>
  <rtept lat="52.057689995818265" lon="-0.768019987486472">
    <ele>98.0</ele>
  </rtept>
  <rtept lat="52.057549995818171" lon="-0.768079987486578">
    <ele>98.2</ele>
  </rtept>
  <rtept lat="52.057489995818138" lon="-0.768109987486626">
    <ele>98.1</ele>
  </rtept>
  <rtept lat="52.057489995818138" lon="-0.768109987486626">
    <ele>98.1</ele>
  </rtept>
  <rtept lat="52.057449995818089" lon="-0.767969987486577">
    <ele>98.4</ele>
  </rtept>
  <rtept lat="52.057399995818045" lon="-0.767769987486503">
    <ele>99.3</ele>
  </rtept>
  <rtept lat="52.057379995818025" lon="-0.767689987486473">
    <ele>99.7</ele>
  </rtept>
  <rtept lat="52.057359995818018" lon="-0.76763998748646">
    <ele>100.1</ele>
  </rtept>
  <rtept lat="52.057339995817991" lon="-0.767559987486429">
    <ele>100.5</ele>
  </rtept>
  <rtept lat="52.057319995817977" lon="-0.767489987486405">
    <ele>100.9</ele>
  </rtept>
  <rtept lat="52.057309995817974" lon="-0.767459987486395">
    <ele>101.1</ele>
  </rtept>
  <rtept lat="52.05727999581795" lon="-0.767429987486396">
    <ele>101.6</ele>
  </rtept>
  <rtept lat="52.057249995817926" lon="-0.767429987486413">
    <ele>101.8</ele>
  </rtept>
  <rtept lat="52.057169995817858" lon="-0.767409987486447">
    <ele>102.0</ele>
  </rtept>
  <rtept lat="52.057089995817805" lon="-0.767409987486489">
    <ele>102.2</ele>
  </rtept>
  <rtept lat="52.056999995817726" lon="-0.767399987486533">
    <ele>101.9</ele>
  </rtept>
  <rtept lat="52.056939995817679" lon="-0.767359987486546">
    <ele>101.6</ele>
  </rtept>
  <rtept lat="52.056909995817655" lon="-0.767339987486552">
    <ele>101.5</ele>
  </rtept>
  <rtept lat="52.056859995817611" lon="-0.767299987486559">
    <ele>102.0</ele>
  </rtept>
  <rtept lat="52.056779995817543" lon="-0.767199987486552">
    <ele>102.8</ele>
  </rtept>
  <rtept lat="52.056669995817444" lon="-0.767049987486535">
    <ele>103.2</ele>
  </rtept>
  <rtept lat="52.056579995817401" lon="-0.766919987486519">
    <ele>103.4</ele>
  </rtept>
  <rtept lat="52.056529995817357" lon="-0.766819987486496">
    <ele>103.3</ele>
  </rtept>
  <rtept lat="52.056419995817272" lon="-0.766679987486484">
    <ele>104.0</ele>
  </rtept>
  <rtept lat="52.056379995817224" lon="-0.766639987486486">
    <ele>104.2</ele>
  </rtept>
  <rtept lat="52.05633999581719" lon="-0.766619987486498">
    <ele>104.7</ele>
  </rtept>
  <rtept lat="52.056279995817157" lon="-0.766589987486515">
    <ele>105.0</ele>
  </rtept>
  <rtept lat="52.056229995817098" lon="-0.766569987486532">
    <ele>105.0</ele>
  </rtept>
  <rtept lat="52.056199995817089" lon="-0.766559987486543">
    <ele>105.0</ele>
  </rtept>
  <rtept lat="52.056139995817027" lon="-0.766539987486566">
    <ele>105.1</ele>
  </rtept>
  <rtept lat="52.056099995817007" lon="-0.766509987486572">
    <ele>105.2</ele>
  </rtept>
  <rtept lat="52.055969995816895" lon="-0.766359987486566">
    <ele>104.6</ele>
  </rtept>
  <rtept lat="52.055649995816623" lon="-0.766029987486574">
    <ele>105.3</ele>
  </rtept>
  <rtept lat="52.055549995816548" lon="-0.765929987486578">
    <ele>105.7</ele>
  </rtept>
  <rtept lat="52.055369995816434" lon="-0.7657799874866">
    <ele>106.4</ele>
  </rtept>
  <rtept lat="52.055309995816366" lon="-0.765729987486607">
    <ele>107.1</ele>
  </rtept>
  <rtept lat="52.055059995816144" lon="-0.765549987486652">
    <ele>107.8</ele>
  </rtept>
  <rtept lat="52.055049995816148" lon="-0.765529987486647">
    <ele>107.6</ele>
  </rtept>
  <rtept lat="52.054919995816043" lon="-0.765429987486668">
    <ele>106.3</ele>
  </rtept>
  <rtept lat="52.054869995816006" lon="-0.765379987486669">
    <ele>106.1</ele>
  </rtept>
  <rtept lat="52.054749995815904" lon="-0.765259987486675">
    <ele>105.5</ele>
  </rtept>
  <rtept lat="52.054619995815806" lon="-0.765149987486688">
    <ele>106.7</ele>
  </rtept>
  <rtept lat="52.054489995815707" lon="-0.764959987486664">
    <ele>107.4</ele>
  </rtept>
  <rtept lat="52.054419995815636" lon="-0.764799987486621">
    <ele>105.9</ele>
  </rtept>
  <rtept lat="52.054349995815585" lon="-0.764639987486578">
    <ele>106.3</ele>
  </rtept>
  <rtept lat="52.054339995815582" lon="-0.764629987486579">
    <ele>106.3</ele>
  </rtept>
  <rtept lat="52.054259995815507" lon="-0.764379987486496">
    <ele>105.7</ele>
  </rtept>
  <rtept lat="52.054219995815487" lon="-0.764249987486452">
    <ele>106.2</ele>
  </rtept>
  <rtept lat="52.054189995815449" lon="-0.764169987486428">
    <ele>106.6</ele>
  </rtept>
  <rtept lat="52.054139995815397" lon="-0.764069987486405">
    <ele>106.3</ele>
  </rtept>
  <rtept lat="52.054129995815394" lon="-0.76402998748639">
    <ele>106.4</ele>
  </rtept>
  <rtept lat="52.054129995815394" lon="-0.76402998748639">
    <ele>106.4</ele>
  </rtept>
  <rtept lat="52.054089995815382" lon="-0.763949987486371">
    <ele>106.3</ele>
  </rtept>
  <rtept lat="52.054059995815322" lon="-0.763889987486358">
    <ele>106.2</ele>
  </rtept>
  <rtept lat="52.053989995815307" lon="-0.763769987486336">
    <ele>106.3</ele>
  </rtept>
  <rtept lat="52.053939995815256" lon="-0.763659987486307">
    <ele>106.5</ele>
  </rtept>
  <rtept lat="52.053859995815181" lon="-0.7635599874863">
    <ele>106.7</ele>
  </rtept>
  <rtept lat="52.053819995815168" lon="-0.763479987486281">
    <ele>106.3</ele>
  </rtept>
  <rtept lat="52.053729995815083" lon="-0.763359987486269">
    <ele>106.4</ele>
  </rtept>
  <rtept lat="52.053689995815056" lon="-0.763299987486261">
    <ele>106.7</ele>
  </rtept>
  <rtept lat="52.05360999581498" lon="-0.763199987486254">
    <ele>107.4</ele>
  </rtept>
  <rtept lat="52.053559995814929" lon="-0.763109987486235">
    <ele>107.5</ele>
  </rtept>
  <rtept lat="52.053549995814919" lon="-0.763089987486231">
    <ele>107.4</ele>
  </rtept>
  <rtept lat="52.053499995814882" lon="-0.762999987486213">
    <ele>107.2</ele>
  </rtept>
  <rtept lat="52.053469995814851" lon="-0.762939987486199">
    <ele>107.0</ele>
  </rtept>
  <rtept lat="52.053439995814834" lon="-0.762889987486189">
    <ele>107.0</ele>
  </rtept>
  <rtept lat="52.053379995814794" lon="-0.762779987486167">
    <ele>106.4</ele>
  </rtept>
  <rtept lat="52.053309995814722" lon="-0.762679987486155">
    <ele>106.5</ele>
  </rtept>
  <rtept lat="52.053259995814706" lon="-0.762579987486131">
    <ele>106.3</ele>
  </rtept>
  <rtept lat="52.053209995814647" lon="-0.762499987486119">
    <ele>106.2</ele>
  </rtept>
  <rtept lat="52.053179995814624" lon="-0.762479987486124">
    <ele>106.2</ele>
  </rtept>
  <rtept lat="52.05309999581457" lon="-0.762409987486132">
    <ele>106.2</ele>
  </rtept>
  <rtept lat="52.053049995814511" lon="-0.762379987486145">
    <ele>106.1</ele>
  </rtept>
  <rtept lat="52.053009995814513" lon="-0.762359987486156">
    <ele>106.0</ele>
  </rtept>
  <rtept lat="52.052959995814462" lon="-0.762339987486173">
    <ele>106.0</ele>
  </rtept>
  <rtept lat="52.05290999581441" lon="-0.76229998748618">
    <ele>105.7</ele>
  </rtept>
  <rtept lat="52.052839995814352" lon="-0.762249987486193">
    <ele>104.8</ele>
  </rtept>
  <rtept lat="52.052769995814309" lon="-0.762179987486196">
    <ele>103.4</ele>
  </rtept>
  <rtept lat="52.052709995814261" lon="-0.762119987486198">
    <ele>102.7</ele>
  </rtept>
  <rtept lat="52.052709995814261" lon="-0.762119987486198">
    <ele>102.7</ele>
  </rtept>
  <rtept lat="52.052689995814241" lon="-0.762129987486215">
    <ele>102.5</ele>
  </rtept>
  <rtept lat="52.052679995814245" lon="-0.762149987486229">
    <ele>102.4</ele>
  </rtept>
  <rtept lat="52.052659995814224" lon="-0.762169987486251">
    <ele>102.2</ele>
  </rtept>
  <rtept lat="52.052539995814129" lon="-0.762379987486421">
    <ele>101.3</ele>
  </rtept>
  <rtept lat="52.052469995814064" lon="-0.76251998748653">
    <ele>101.5</ele>
  </rtept>
  <rtept lat="52.052409995814031" lon="-0.762619987486612">
    <ele>101.4</ele>
  </rtept>
  <rtept lat="52.052319995813939" lon="-0.762819987486762">
    <ele>101.0</ele>
  </rtept>
  <rtept lat="52.052289995813922" lon="-0.762879987486808">
    <ele>100.8</ele>
  </rtept>
  <rtept lat="52.052289995813922" lon="-0.762879987486808">
    <ele>100.8</ele>
  </rtept>
  <rtept lat="52.052209995813868" lon="-0.762799987486811">
    <ele>100.7</ele>
  </rtept>
  <rtept lat="52.052059995813735" lon="-0.762649987486817">
    <ele>101.3</ele>
  </rtept>
  <rtept lat="52.051859995813587" lon="-0.76245998748683">
    <ele>100.5</ele>
  </rtept>
  <rtept lat="52.051839995813552" lon="-0.762439987486831">
    <ele>100.4</ele>
  </rtept>
  <rtept lat="52.051839995813552" lon="-0.762439987486831">
    <ele>100.4</ele>
  </rtept>
  <rtept lat="52.052089995813752" lon="-0.761849987486398">
    <ele>100.9</ele>
  </rtept>
  <rtept lat="52.052179995813823" lon="-0.761629987486239">
    <ele>100.8</ele>
  </rtept>
  <rtept lat="52.052309995813928" lon="-0.761339987486022">
    <ele>100.3</ele>
  </rtept>
  <rtept lat="52.052429995814016" lon="-0.761059987485816">
    <ele>100.3</ele>
  </rtept>
  <rtept lat="52.052549995814118" lon="-0.760869987485655">
    <ele>100.5</ele>
  </rtept>
  <rtept lat="52.052599995814141" lon="-0.760769987485578">
    <ele>100.3</ele>
  </rtept>
  <rtept lat="52.052649995814186" lon="-0.760689987485511">
    <ele>100.2</ele>
  </rtept>
  <rtept lat="52.052739995814257" lon="-0.760539987485386">
    <ele>100.3</ele>
  </rtept>
  <rtept lat="52.052829995814335" lon="-0.760389987485263">
    <ele>99.7</ele>
  </rtept>
  <rtept lat="52.052869995814362" lon="-0.760319987485205">
    <ele>99.7</ele>
  </rtept>
  <rtept lat="52.052919995814406" lon="-0.760209987485122">
    <ele>99.6</ele>
  </rtept>
  <rtept lat="52.05295999581444" lon="-0.760089987485041">
    <ele>99.6</ele>
  </rtept>
  <rtept lat="52.052999995814467" lon="-0.759979987484963">
    <ele>100.0</ele>
  </rtept>
  <rtept lat="52.053039995814508" lon="-0.759819987484861">
    <ele>100.2</ele>
  </rtept>
  <rtept lat="52.053079995814521" lon="-0.759579987484719">
    <ele>99.8</ele>
  </rtept>
  <rtept lat="52.053099995814534" lon="-0.759459987484648">
    <ele>99.2</ele>
  </rtept>
  <rtept lat="52.053119995814555" lon="-0.759359987484586">
    <ele>98.7</ele>
  </rtept>
  <rtept lat="52.053149995814579" lon="-0.759269987484524">
    <ele>98.7</ele>
  </rtept>
  <rtept lat="52.05318999581462" lon="-0.759179987484457">
    <ele>99.0</ele>
  </rtept>
  <rtept lat="52.05323999581465" lon="-0.759069987484375">
    <ele>99.2</ele>
  </rtept>
  <rtept lat="52.053369995814748" lon="-0.758759987484148">
    <ele>99.2</ele>
  </rtept>
  <rtept lat="52.053459995814819" lon="-0.75853998748399">
    <ele>98.9</ele>
  </rtept>
  <rtept lat="52.053539995814873" lon="-0.758339987483845">
    <ele>98.8</ele>
  </rtept>
  <rtept lat="52.053599995814942" lon="-0.758169987483726">
    <ele>98.0</ele>
  </rtept>
  <rtept lat="52.053669995814971" lon="-0.757929987483569">
    <ele>97.4</ele>
  </rtept>
  <rtept lat="52.053759995815049" lon="-0.757589987483349">
    <ele>96.9</ele>
  </rtept>
  <rtept lat="52.05376999581506" lon="-0.757499987483298">
    <ele>96.7</ele>
  </rtept>
  <rtept lat="52.053819995815097" lon="-0.757279987483159">
    <ele>96.4</ele>
  </rtept>
  <rtept lat="52.053909995815168" lon="-0.756859987482899">
    <ele>95.4</ele>
  </rtept>
  <rtept lat="52.054059995815273" lon="-0.75600998748239">
    <ele>93.6</ele>
  </rtept>
  <rtept lat="52.054139995815333" lon="-0.75559998748214">
    <ele>92.5</ele>
  </rtept>
  <rtept lat="52.054189995815371" lon="-0.755259987481943">
    <ele>91.3</ele>
  </rtept>
  <rtept lat="52.054199995815395" lon="-0.755059987481837">
    <ele>91.3</ele>
  </rtept>
  <rtept lat="52.054209995815391" lon="-0.754889987481746">
    <ele>91.3</ele>
  </rtept>
  <rtept lat="52.054209995815391" lon="-0.754729987481666">
    <ele>90.8</ele>
  </rtept>
  <rtept lat="52.054209995815391" lon="-0.754589987481595">
    <ele>90.5</ele>
  </rtept>
  <rtept lat="52.054209995815391" lon="-0.754519987481559">
    <ele>90.3</ele>
  </rtept>
  <rtept lat="52.054229995815412" lon="-0.754469987481523">
    <ele>89.7</ele>
  </rtept>
  <rtept lat="52.054249995815411" lon="-0.754439987481498">
    <ele>89.3</ele>
  </rtept>
  <rtept lat="52.054309995815466" lon="-0.75436998748143">
    <ele>89.1</ele>
  </rtept>
  <rtept lat="52.054309995815466" lon="-0.75436998748143">
    <ele>89.1</ele>
  </rtept>
  <rtept lat="52.054289995815459" lon="-0.754329987481421">
    <ele>88.9</ele>
  </rtept>
  <rtept lat="52.054259995815428" lon="-0.754259987481402">
    <ele>88.6</ele>
  </rtept>
  <rtept lat="52.054219995815409" lon="-0.754139987481363">
    <ele>88.3</ele>
  </rtept>
  <rtept lat="52.054189995815371" lon="-0.754019987481319">
    <ele>88.0</ele>
  </rtept>
  <rtept lat="52.05417999581536" lon="-0.753889987481259">
    <ele>87.9</ele>
  </rtept>
  <rtept lat="52.054189995815364" lon="-0.753599987481107">
    <ele>88.3</ele>
  </rtept>
  <rtept lat="52.054189995815364" lon="-0.753589987481102">
    <ele>88.3</ele>
  </rtept>
  <rtept lat="52.054199995815388" lon="-0.753399987481001">
    <ele>88.0</ele>
  </rtept>
  <rtept lat="52.054199995815388" lon="-0.753229987480916">
    <ele>87.4</ele>
  </rtept>
  <rtept lat="52.054199995815374" lon="-0.753089987480847">
    <ele>86.9</ele>
  </rtept>
  <rtept lat="52.054199995815374" lon="-0.753089987480847">
    <ele>86.9</ele>
  </rtept>
  <rtept lat="52.054169995815336" lon="-0.753109987480872">
    <ele>87.1</ele>
  </rtept>
  <rtept lat="52.054079995815265" lon="-0.753159987480946">
    <ele>87.8</ele>
  </rtept>
  <rtept lat="52.053929995815167" lon="-0.753209987481053">
    <ele>88.6</ele>
  </rtept>
  <rtept lat="52.053919995815143" lon="-0.753209987481058">
    <ele>88.7</ele>
  </rtept>
  <rtept lat="52.053729995814997" lon="-0.753259987481186">
    <ele>88.7</ele>
  </rtept>
  <rtept lat="52.053549995814855" lon="-0.753279987481294">
    <ele>88.7</ele>
  </rtept>
  <rtept lat="52.053449995814766" lon="-0.753289987481353">
    <ele>88.8</ele>
  </rtept>
  <rtept lat="52.053289995814652" lon="-0.753299987481444">
    <ele>89.0</ele>
  </rtept>
  <rtept lat="52.053129995814523" lon="-0.753289987481527">
    <ele>89.7</ele>
  </rtept>
  <rtept lat="52.052749995814224" lon="-0.753219987481698">
    <ele>90.3</ele>
  </rtept>
  <rtept lat="52.052509995814042" lon="-0.753159987481798">
    <ele>90.7</ele>
  </rtept>
  <rtept lat="52.05238999581394" lon="-0.753119987481843">
    <ele>91.2</ele>
  </rtept>
  <rtept lat="52.052309995813864" lon="-0.753089987481871">
    <ele>91.6</ele>
  </rtept>
  <rtept lat="52.052229995813803" lon="-0.753039987481889">
    <ele>91.9</ele>
  </rtept>
  <rtept lat="52.052149995813721" lon="-0.752989987481908">
    <ele>92.2</ele>
  </rtept>
  <rtept lat="52.05199999581361" lon="-0.752849987481918">
    <ele>92.1</ele>
  </rtept>
  <rtept lat="52.051719995813379" lon="-0.752539987481915">
    <ele>92.5</ele>
  </rtept>
  <rtept lat="52.051659995813338" lon="-0.752479987481918">
    <ele>92.8</ele>
  </rtept>
  <rtept lat="52.051539995813236" lon="-0.752329987481906">
    <ele>94.4</ele>
  </rtept>
  <rtept lat="52.051449995813158" lon="-0.752239987481909">
    <ele>94.2</ele>
  </rtept>
  <rtept lat="52.051269995813037" lon="-0.752039987481907">
    <ele>94.9</ele>
  </rtept>
  <rtept lat="52.051259995812998" lon="-0.752019987481903">
    <ele>94.9</ele>
  </rtept>
  <rtept lat="52.051149995812921" lon="-0.751899987481902">
    <ele>95.2</ele>
  </rtept>
  <rtept lat="52.051109995812894" lon="-0.751879987481913">
    <ele>95.5</ele>
  </rtept>
  <rtept lat="52.051059995812842" lon="-0.751869987481936">
    <ele>95.9</ele>
  </rtept>
  <rtept lat="52.051019995812815" lon="-0.751879987481962">
    <ele>96.3</ele>
  </rtept>
  <rtept lat="52.05097999581281" lon="-0.751889987481989">
    <ele>96.6</ele>
  </rtept>
  <rtept lat="52.05093999581274" lon="-0.751919987482026">
    <ele>96.9</ele>
  </rtept>
  <rtept lat="52.050899995812721" lon="-0.751979987482078">
    <ele>97.4</ele>
  </rtept>
  <rtept lat="52.050869995812711" lon="-0.752029987482119">
    <ele>98.0</ele>
  </rtept>
  <rtept lat="52.05082999581267" lon="-0.752079987482165">
    <ele>98.4</ele>
  </rtept>
  <rtept lat="52.050789995812629" lon="-0.752099987482198">
    <ele>98.7</ele>
  </rtept>
  <rtept lat="52.050769995812601" lon="-0.752119987482219">
    <ele>98.9</ele>
  </rtept>
  <rtept lat="52.050719995812578" lon="-0.752129987482251">
    <ele>99.0</ele>
  </rtept>
  <rtept lat="52.050679995812544" lon="-0.752129987482272">
    <ele>99.1</ele>
  </rtept>
  <rtept lat="52.050629995812507" lon="-0.752099987482285">
    <ele>99.1</ele>
  </rtept>
  <rtept lat="52.050579995812456" lon="-0.752059987482291">
    <ele>99.1</ele>
  </rtept>
  <rtept lat="52.050539995812429" lon="-0.752009987482289">
    <ele>99.1</ele>
  </rtept>
  <rtept lat="52.050499995812402" lon="-0.751969987482289">
    <ele>99.2</ele>
  </rtept>
  <rtept lat="52.050399995812313" lon="-0.751849987482283">
    <ele>99.7</ele>
  </rtept>
  <rtept lat="52.050149995812134" lon="-0.751579987482284">
    <ele>103.0</ele>
  </rtept>
  <rtept lat="52.049829995811876" lon="-0.751189987482261">
    <ele>104.3</ele>
  </rtept>
  <rtept lat="52.049779995811825" lon="-0.751139987482263">
    <ele>104.0</ele>
  </rtept>
  <rtept lat="52.049579995811669" lon="-0.750899987482251">
    <ele>101.5</ele>
  </rtept>
  <rtept lat="52.049569995811666" lon="-0.750899987482256">
    <ele>101.4</ele>
  </rtept>
  <rtept lat="52.049529995811611" lon="-0.750849987482253">
    <ele>101.6</ele>
  </rtept>
  <rtept lat="52.049529995811611" lon="-0.750849987482253">
    <ele>101.6</ele>
  </rtept>
  <rtept lat="52.049479995811581" lon="-0.750799987482256">
    <ele>101.7</ele>
  </rtept>
  <rtept lat="52.049469995811577" lon="-0.750789987482254">
    <ele>101.8</ele>
  </rtept>
  <rtept lat="52.049339995811472" lon="-0.750629987482244">
    <ele>104.2</ele>
  </rtept>
  <rtept lat="52.049289995811435" lon="-0.750579987482247">
    <ele>104.7</ele>
  </rtept>
  <rtept lat="52.049169995811333" lon="-0.750489987482267">
    <ele>105.6</ele>
  </rtept>
  <rtept lat="52.049019995811221" lon="-0.750409987482308">
    <ele>106.6</ele>
  </rtept>
  <rtept lat="52.048849995811068" lon="-0.75032998748236">
    <ele>106.6</ele>
  </rtept>
  <rtept lat="52.048659995810908" lon="-0.750159987482378">
    <ele>105.6</ele>
  </rtept>
  <rtept lat="52.048579995810854" lon="-0.750099987482392">
    <ele>105.2</ele>
  </rtept>
  <rtept lat="52.048529995810817" lon="-0.750049987482393">
    <ele>105.1</ele>
  </rtept>
  <rtept lat="52.048529995810817" lon="-0.750049987482393">
    <ele>105.1</ele>
  </rtept>
  <rtept lat="52.048469995810748" lon="-0.750039987482422">
    <ele>105.1</ele>
  </rtept>
  <rtept lat="52.048399995810705" lon="-0.749979987482429">
    <ele>105.1</ele>
  </rtept>
  <rtept lat="52.048009995810418" lon="-0.749669987482484">
    <ele>104.7</ele>
  </rtept>
  <rtept lat="52.04784999581026" lon="-0.749549987482511">
    <ele>104.2</ele>
  </rtept>
  <rtept lat="52.04773999581019" lon="-0.749439987482515">
    <ele>104.6</ele>
  </rtept>
  <rtept lat="52.047599995810074" lon="-0.749279987482511">
    <ele>104.6</ele>
  </rtept>
  <rtept lat="52.047419995809925" lon="-0.749059987482498">
    <ele>104.6</ele>
  </rtept>
  <rtept lat="52.047289995809813" lon="-0.748879987482478">
    <ele>103.9</ele>
  </rtept>
  <rtept lat="52.047139995809694" lon="-0.748649987482444">
    <ele>103.8</ele>
  </rtept>
  <rtept lat="52.047099995809674" lon="-0.748589987482436">
    <ele>104.0</ele>
  </rtept>
  <rtept lat="52.046989995809582" lon="-0.74843998748242">
    <ele>104.5</ele>
  </rtept>
  <rtept lat="52.046789995809419" lon="-0.748159987482388">
    <ele>104.9</ele>
  </rtept>
  <rtept lat="52.046639995809286" lon="-0.747979987482379">
    <ele>104.7</ele>
  </rtept>
  <rtept lat="52.046519995809199" lon="-0.747849987482379">
    <ele>104.8</ele>
  </rtept>
  <rtept lat="52.046179995808927" lon="-0.747549987482413">
    <ele>105.4</ele>
  </rtept>
  <rtept lat="52.046109995808848" lon="-0.747489987482421">
    <ele>105.5</ele>
  </rtept>
  <rtept lat="52.046029995808809" lon="-0.747429987482434">
    <ele>105.5</ele>
  </rtept>
  <rtept lat="52.045919995808717" lon="-0.747329987482443">
    <ele>105.6</ele>
  </rtept>
</rte>
</gpx>
